<?xml version="1.0" encoding="UTF-8"?>
<osm version="0.6" generator="Overpass API 0.7.58.3 b33c3320">
<note>The data included in this document is from www.openstreetmap.org. The data is made available under ODbL.</note>
<meta osm_base="2022-06-20T03:35:59Z" areas="2022-06-20T02:56:54Z"/>

  <node id="3396155654" lat="45.8289854" lon="9.3319540">
    <tag k="board_type" v="history"/>
    <tag k="description" v="Mappa schematica, foto e descrizione testuale dei ricoveri rurali detti &quot;Casote&quot;"/>
    <tag k="information" v="board"/>
    <tag k="name" v="Le Casote del gruppo Cornizzolo - Corno Birone - Moregallo"/>
    <tag k="operator" v="ecomuseo del distretto dei monti e dei laghi Briantei"/>
    <tag k="tourism" v="information"/>
  </node>
  <node id="3396155672" lat="45.8289810" lon="9.3319509">
    <tag k="description" v="1 cartello su palo a punta rossa, coda rosso-bianco-rosso, fondo grigio e scritte incise: &quot;-&gt; Itinerario civiltÃ  delle cose; Anello delle Casote di Civate 2.00&quot;"/>
    <tag k="information" v="guidepost"/>
    <tag k="operator" v="ecomuseo del distretto dei monti e dei laghi Briantei"/>
    <tag k="tourism" v="information"/>
  </node>
  <node id="3398919124" lat="45.8322764" lon="9.3274700">
    <tag k="board_type" v="history"/>
    <tag k="information" v="board"/>
    <tag k="name" v="Casota n.2"/>
    <tag k="operator" v="ecomuseo del distretto dei monti e dei laghi Briantei"/>
    <tag k="tourism" v="information"/>
  </node>
  <node id="3398919125" lat="45.8336447" lon="9.3212327">
    <tag k="board_type" v="history"/>
    <tag k="information" v="board"/>
    <tag k="name" v="Casota n.3"/>
    <tag k="operator" v="ecomuseo del distretto dei monti e dei laghi Briantei"/>
    <tag k="tourism" v="information"/>
  </node>
  <node id="7619912579" lat="45.8821195" lon="9.8253261">
    <tag k="amenity" v="drinking_water"/>
    <tag k="operator" v="ecomuseo miniere di gorno"/>
  </node>
  <node id="7619949621" lat="45.8918044" lon="9.8244886">
    <tag k="amenity" v="drinking_water"/>
    <tag k="operator" v="ecomuseo miniere di gorno"/>
  </node>
  <way id="815881341">
    <nd ref="7619937926"/>
    <nd ref="7619937927"/>
    <nd ref="7619937928"/>
    <nd ref="7619937929"/>
    <nd ref="7619937930"/>
    <nd ref="7619937931"/>
    <nd ref="7619937932"/>
    <nd ref="7619937933"/>
    <nd ref="7619937934"/>
    <nd ref="7619937926"/>
    <tag k="leisure" v="park"/>
    <tag k="operator" v="ecomuseo miniere di gorno"/>
  </way>
  <node id="7619937926" lat="45.8820542" lon="9.8249693"/>
  <node id="7619937927" lat="45.8822494" lon="9.8253375"/>
  <node id="7619937928" lat="45.8820484" lon="9.8256827"/>
  <node id="7619937929" lat="45.8820790" lon="9.8259354"/>
  <node id="7619937930" lat="45.8821591" lon="9.8261659"/>
  <node id="7619937931" lat="45.8818649" lon="9.8261848"/>
  <node id="7619937932" lat="45.8817426" lon="9.8260990"/>
  <node id="7619937933" lat="45.8817222" lon="9.8256618"/>
  <node id="7619937934" lat="45.8817222" lon="9.8254024"/>

</osm>
