<?xml version="1.0" encoding="UTF-8"?>
<osm version="0.6" generator="Overpass API 0.7.61.5 4133829e">
<note>The data included in this document is from www.openstreetmap.org. The data is made available under ODbL.</note>
<meta osm_base="2024-01-09T02:50:13Z" areas="2024-01-08T22:05:29Z"/>

  <node id="262111590" lat="45.0043442" lon="11.6452892">
    <tag k="name" v="Ecomuseo Mulino Pizzon"/>
    <tag k="tourism" v="museum"/>
    <tag k="website" v="http://www.locandaalpizzon.com"/>
    <tag k="wikidata" v="Q67147956"/>
  </node>
  <node id="762883365" lat="45.7788541" lon="11.2265297">
    <tag k="board_type" v="history"/>
    <tag k="check_date" v="2022-07-15"/>
    <tag k="information" v="board"/>
    <tag k="name" v="Ecomuseo Grande Guerra Prealpi Vicentine"/>
    <tag k="tourism" v="information"/>
  </node>
  <node id="1660879035" lat="44.8142570" lon="7.9587727">
    <tag k="addr:city" v="Montà"/>
    <tag k="addr:housenumber" v="2b"/>
    <tag k="addr:postcode" v="12046"/>
    <tag k="addr:street" v="Piazzetta della Vecchia Segheria"/>
    <tag k="email" v="info@ecomuseodellerocche.it"/>
    <tag k="information" v="office"/>
    <tag k="name" v="Ecomuseo delle Rocche del Roero"/>
    <tag k="operator" v="Comune di Montà"/>
    <tag k="phone" v="+39 0173 976181"/>
    <tag k="tourism" v="information"/>
    <tag k="website" v="https://www.ecomuseodellerocche.it/it/"/>
    <tag k="wikidata" v="Q3718661"/>
  </node>
  <node id="1745990673" lat="43.4030954" lon="10.8592647">
    <tag k="name" v="Ecomuseo dell'alabastro"/>
    <tag k="tourism" v="museum"/>
    <tag k="wikidata" v="Q3718654"/>
    <tag k="wikipedia" v="it:Ecomuseo dell'alabastro"/>
  </node>
  <node id="1828715599" lat="45.0697321" lon="6.8912172">
    <tag k="name" v="Ecomuseo e sede del Parco Naturale del Gran Bosco di Salbertrand"/>
    <tag k="tourism" v="museum"/>
    <tag k="url" v="http://www.parcogranboscosalbertrand.it/Ecen_dettaglio.php?id=229"/>
  </node>
  <node id="1828895802" lat="45.4245653" lon="7.9946448">
    <tag k="name" v="La Cadrega Fiurija - Ecomuseo dei seggiolai"/>
    <tag k="tourism" v="museum"/>
    <tag k="wikidata" v="Q73005983"/>
  </node>
  <node id="1895071131" lat="45.3024220" lon="7.2179793">
    <tag k="addr:city" v="Balme"/>
    <tag k="addr:housenumber" v="139"/>
    <tag k="addr:postcode" v="10070"/>
    <tag k="addr:street" v="Via Capoluogo"/>
    <tag k="email" v="combalme@libero.it"/>
    <tag k="name" v="Ecomuseo delle Guide Alpine Antonio Castagneri"/>
    <tag k="opening_hours" v="Jul Su 15:30-17:30; Aug Sa-Su 15:30-17:30; Sep 15:30-17:30"/>
    <tag k="phone" v="+39 0123 82902"/>
    <tag k="phone:mobile" v="+39 347 6488387"/>
    <tag k="tourism" v="museum"/>
    <tag k="website" v="https://www.ecomuseobalme.it/index.html"/>
    <tag k="wikidata" v="Q55371749"/>
  </node>
  <node id="2189635967" lat="45.4973517" lon="7.9039577">
    <tag k="name" v="Ecomuseo del Paesaggio Orizzonte Serra"/>
    <tag k="tourism" v="museum"/>
    <tag k="wikidata" v="Q66058037"/>
  </node>
  <node id="2422472367" lat="46.5305533" lon="13.1154980">
    <tag k="addr:city" v="Paularo"/>
    <tag k="addr:housenumber" v="13"/>
    <tag k="addr:postcode" v="33027"/>
    <tag k="addr:street" v="Via tenente Silvano Sbrizzai"/>
    <tag k="name" v="Ecomuseo I Mistîrs"/>
    <tag k="tourism" v="museum"/>
    <tag k="wikidata" v="Q70343977"/>
  </node>
  <node id="2442948731" lat="44.5690612" lon="8.7788894">
    <tag k="addr:housenumber" v="32a"/>
    <tag k="addr:street" v="Via Umberto primo"/>
    <tag k="name" v="Ecomuseo Cascina Moglioni"/>
    <tag k="tourism" v="museum"/>
    <tag k="website" v="https://www.areeprotetteappenninopiemontese.it/2018/12/05/ecomuseo-di-cascina-moglioni/"/>
  </node>
  <node id="2536650913" lat="43.4125097" lon="10.5752901">
    <tag k="addr:city" v="Castellina Marittima"/>
    <tag k="addr:housename" v="Ex Palazzo Opera Pia&quot; Massimino Carrai"/>
    <tag k="addr:housenumber" v="1"/>
    <tag k="addr:postcode" v="56040"/>
    <tag k="addr:street" v="piazza Cavour"/>
    <tag k="name" v="Ecomuseo dell'Alabastro - Punto Museale Centrale"/>
    <tag k="tourism" v="museum"/>
  </node>
  <node id="2837476334" lat="45.5463287" lon="8.1127864">
    <tag k="name" v="Ecomuseo della Vitinicultura"/>
    <tag k="tourism" v="attraction"/>
  </node>
  <node id="2903494906" lat="45.5793110" lon="7.9492183">
    <tag k="name" v="Ecomuseo di Bagneri"/>
    <tag k="tourism" v="museum"/>
    <tag k="wikidata" v="Q69543805"/>
  </node>
  <node id="2963860195" lat="45.9960085" lon="9.3321079">
    <tag k="addr:housenumber" v="19"/>
    <tag k="addr:postcode" v="23825"/>
    <tag k="addr:street" v="Via Montefiori"/>
    <tag k="fee" v="no"/>
    <tag k="museum" v="ecomuseum"/>
    <tag k="name" v="Ecomuseo delle Grigne"/>
    <tag k="smoking" v="outside"/>
    <tag k="tourism" v="museum"/>
    <tag k="website" v="http://ecomuseodellegrigne.it"/>
    <tag k="wheelchair" v="yes"/>
    <tag k="wikidata" v="Q17629229"/>
    <tag k="wikipedia" v="it:Ecomuseo delle Grigne"/>
  </node>
  <node id="3308442106" lat="42.5199542" lon="12.1689666">
    <tag k="addr:city" v="Grotte Santo Stefano"/>
    <tag k="addr:housenumber" v="21"/>
    <tag k="addr:postcode" v="01100"/>
    <tag k="addr:street" v="Via Sicilia"/>
    <tag k="name" v="Ecomuseo della Tuscia"/>
    <tag k="operator" v="Ecomuseo della Tuscia"/>
    <tag k="tourism" v="museum"/>
    <tag k="wikidata" v="Q3718656"/>
    <tag k="wikipedia" v="it:Ecomuseo della Tuscia"/>
  </node>
  <node id="3585248696" lat="44.6391152" lon="11.2663650">
    <tag k="addr:city" v="Padulle"/>
    <tag k="addr:housenumber" v="16"/>
    <tag k="addr:postcode" v="40010"/>
    <tag k="addr:street" v="Via Zaccarelli"/>
    <tag k="name" v="Ecomuseo dell'acqua"/>
    <tag k="opening_hours" v="Apr-Sep: Su 15:30-19:00; Oct-Mar: Su 14:30-17:00"/>
    <tag k="tourism" v="museum"/>
    <tag k="wikidata" v="Q35505954"/>
  </node>
  <node id="3617354228" lat="45.0751883" lon="8.3906270">
    <tag k="addr:city" v="Cella Monte"/>
    <tag k="addr:street" v="Piazza Vallino"/>
    <tag k="email" v="info@ecomuseopietracantoni.it"/>
    <tag k="name" v="Ecomuseo della Pietra da Cantoni"/>
    <tag k="opening_hours" v="Su 10:00-12:00,15:00-17:00"/>
    <tag k="phone" v="+39 0142 488161"/>
    <tag k="tourism" v="museum"/>
    <tag k="website" v="https://www.ecomuseopietracantoni.it/"/>
  </node>
  <node id="3726212381" lat="42.1831447" lon="14.0237446">
    <tag k="name" v="Ecomuseo del paleolitico della valle Giumentina"/>
    <tag k="tourism" v="museum"/>
  </node>
  <node id="3837282361" lat="44.4377506" lon="11.0314775">
    <tag k="addr:city" v="Castello di Serravalle"/>
    <tag k="addr:country" v="IT"/>
    <tag k="addr:housenumber" v="130"/>
    <tag k="addr:postcode" v="40050"/>
    <tag k="addr:street" v="Via della Rocca"/>
    <tag k="name" v="Ecomuseo della Collina e del Vino"/>
    <tag k="operator" v="Ecomuseo della Collina e del Vino"/>
    <tag k="operator:type" v="government"/>
    <tag k="tourism" v="museum"/>
    <tag k="wikidata" v="Q68663765"/>
  </node>
  <node id="3985714185" lat="44.0384926" lon="10.8815587">
    <tag k="name" v="Ecomuseo della Montagna Pistoiese - Polo del Ferro e Giardino Didattico"/>
    <tag k="tourism" v="museum"/>
  </node>
  <node id="4075439758" lat="45.6443202" lon="7.8728725">
    <tag k="name" v="Ecomuseo della Media Montagna"/>
    <tag k="note" v="verificare che il nodo sia all'interno dell'edificio corretto"/>
    <tag k="tourism" v="museum"/>
    <tag k="wikidata" v="Q72681105"/>
  </node>
  <node id="4418823188" lat="44.5825705" lon="11.7991938">
    <tag k="alt_name" v="Centro Visita delle Valli del Delta del Po"/>
    <tag k="contact:housenumber" v="1C"/>
    <tag k="contact:street" v="Via Cardinala"/>
    <tag k="name" v="Ecomuseo delle Valli di Argenta"/>
    <tag k="phone" v="+39 0532 808058"/>
    <tag k="short_name" v="Museo delle Valli"/>
    <tag k="start_date" v="2007"/>
    <tag k="tourism" v="museum"/>
    <tag k="website" v="https://www.vallidiargenta.org/lecomuseo/museo-delle-valli/"/>
  </node>
  <node id="4442381208" lat="44.4085081" lon="9.2364536">
    <tag k="name" v="Ecomuseo dell'Ardesia - La Via della Pietra Nera"/>
    <tag k="tourism" v="museum"/>
  </node>
  <node id="4486119738" lat="44.6620189" lon="8.5032064">
    <tag k="addr:city" v="Visone"/>
    <tag k="addr:housenumber" v="9"/>
    <tag k="addr:postcode" v="15010"/>
    <tag k="addr:street" v="Via Pittavino"/>
    <tag k="name" v="Ecomuseo della pietra e della calce"/>
    <tag k="operator" v="Paola Alemanni"/>
    <tag k="phone" v="+39 0144 395297"/>
    <tag k="tourism" v="museum"/>
  </node>
  <node id="4555224995" lat="46.0886282" lon="11.1818440">
    <tag k="contact:website" v="http://ecoargentario.it/"/>
    <tag k="name" v="Ecomuseo Argentario"/>
    <tag k="tourism" v="museum"/>
  </node>
  <node id="4756394335" lat="40.4752115" lon="17.3216093">
    <tag k="leisure" v="nature_reserve"/>
    <tag k="name" v="Ecomuseo Palude la Vela e del Mar Piccolo"/>
    <tag k="phone:mobile" v="+39 339 8918346"/>
    <tag k="website" v="www.wwftaranto.com"/>
  </node>
  <node id="4920358903" lat="36.8027800" lon="15.1000020">
    <tag k="name" v="Ecomuseo"/>
    <tag k="tourism" v="museum"/>
    <tag k="website" v="https://www.entefaunasiciliana.it/centro%20visitatori.html"/>
  </node>
  <node id="5389727891" lat="45.1370601" lon="7.7801990">
    <tag k="addr:city" v="Settimo Torinese"/>
    <tag k="addr:housenumber" v="36"/>
    <tag k="addr:postcode" v="10036"/>
    <tag k="addr:street" v="Via Ludovico Ariosto"/>
    <tag k="email" v="info@ecomuseodelfreidano.it"/>
    <tag k="museum" v="local"/>
    <tag k="name" v="Ecomuseo del Freidano"/>
    <tag k="opening_hours" v="Jan-Apr: Su 15:00-18:00; May-Oct Su 15:00-19:00; Nov-Dec Su 15:00-18:00"/>
    <tag k="operator" v="Fondazione Esperienze di Cultura Metropolitana"/>
    <tag k="operator:type" v="private"/>
    <tag k="phone" v="+39 011 8028534"/>
    <tag k="tourism" v="museum"/>
    <tag k="website" v="http://www.ecomuseodelfreidano.it/index.php"/>
    <tag k="wikidata" v="Q55372284"/>
  </node>
  <node id="5479769991" lat="45.6081256" lon="8.8932686">
    <tag k="name" v="Ecomuseo della valle Olona"/>
    <tag k="office" v="association"/>
    <tag k="website" v="www.ecomuseovalleolona.it"/>
  </node>
  <node id="5678089830" lat="43.2988129" lon="13.4320061">
    <tag k="addr:city" v="Macerata"/>
    <tag k="addr:housenumber" v="87"/>
    <tag k="addr:postcode" v="62100"/>
    <tag k="addr:street" v="Borgo Santa Croce"/>
    <tag k="artwork_type" v="museum"/>
    <tag k="contact:facebook" v="https://www.facebook.com/EcomuseoVillaFicana/"/>
    <tag k="image" v="https://www.ecomuseoficana.it/wp-content/uploads/borgo-villa-ficana-6.jpg"/>
    <tag k="name" v="Ecomuseo delle case di terra Villa Ficana"/>
    <tag k="opening_hours" v="Mo-Sa 9:00-16:00"/>
    <tag k="website" v="https://www.ecomuseoficana.it/"/>
    <tag k="wheelchair" v="limited"/>
  </node>
  <node id="5796118660" lat="45.9360008" lon="8.2364700">
    <tag k="name" v="Ecomuseo Campello Monti - &quot;Walsergemeinschaft Kampel&quot;"/>
    <tag k="tourism" v="museum"/>
  </node>
  <node id="6237490902" lat="43.6653867" lon="11.8846281">
    <tag k="ele" v="595"/>
    <tag k="email" v="ecomuseo@casentino.toscana.it"/>
    <tag k="name" v="Ecomuseo del Casentino - Ecomuseo del Contrabbando e della Polvere Da Sparo di Chitignano"/>
    <tag k="opening_hours" v="Jul-Aug: Sa,Su 16:00-19:00"/>
    <tag k="operator" v="Associazione I Battitori"/>
    <tag k="phone" v="+393396617113"/>
    <tag k="tourism" v="museum"/>
    <tag k="website" v="https://www.ecomuseo.casentino.toscana.it/"/>
    <tag k="wikidata" v="Q93895596"/>
  </node>
  <node id="6316651097" lat="39.9413944" lon="16.0446605">
    <tag k="name" v="Ecomuseo del Pollino"/>
    <tag k="tourism" v="museum"/>
  </node>
  <node id="6429779295" lat="44.8072922" lon="7.1556879">
    <tag k="addr:city" v="Villar Pellice"/>
    <tag k="addr:housenumber" v="1"/>
    <tag k="addr:postcode" v="10060"/>
    <tag k="addr:street" v="Piazza Willy Jervis"/>
    <tag k="description" v="Il museo invita alla scoperta dei macchinari, dei materiali e del lavoro del feltrificio attraverso video, esposizioni tattili e attività di laboratorio"/>
    <tag k="email" v="segreteria@ecomuseocrumiere.eu"/>
    <tag k="name" v="Ecomuseo Feltrificio Crumiere"/>
    <tag k="opening_hours" v="Apr 16-Oct 15: Su 15:00-18:00"/>
    <tag k="phone" v="+39 333 6767260"/>
    <tag k="tourism" v="museum"/>
    <tag k="website" v="https://www.ecomuseocrumiere.eu"/>
    <tag k="wikidata" v="Q55372596"/>
  </node>
  <node id="6429789789" lat="45.0979138" lon="7.5258729">
    <tag k="addr:city" v="Alpignano"/>
    <tag k="addr:housenumber" v="2"/>
    <tag k="addr:postcode" v="10091"/>
    <tag k="addr:street" v="Via Giacomo Matteotti"/>
    <tag k="email" v="ecomuseo.cruto.alpignano@gmail.com"/>
    <tag k="name" v="Ecomuseo Sogno di Luce - A. Cruto"/>
    <tag k="opening_hours" v="Th, Su[1] 15:00-18:00"/>
    <tag k="phone" v="+39 370 1352596"/>
    <tag k="tourism" v="museum"/>
    <tag k="website" v="https://ecomuseo.comune.alpignano.to.it/"/>
  </node>
  <node id="6432595959" lat="44.9770084" lon="7.7870586">
    <tag k="addr:city" v="Cambiano"/>
    <tag k="addr:housenumber" v="50"/>
    <tag k="addr:postcode" v="10020"/>
    <tag k="addr:street" v="Via Camporelle"/>
    <tag k="description" v="Su prenotazione tutti i mesi dell’anno; in occasione di eventi comunicati nella sezione eventi del sito"/>
    <tag k="email" v="info@munlabtorino.it"/>
    <tag k="name" v="Munlab Ecomuseo dell'Argilla"/>
    <tag k="opening_hours" v="May 03-Oct 27: Su 15:30-19:30; Aug off"/>
    <tag k="operator" v="Associazione La Fornace Spazio Permanente"/>
    <tag k="operator:type" v="private_non_profit"/>
    <tag k="phone" v="+39 011 9441439"/>
    <tag k="tourism" v="museum"/>
    <tag k="website" v="https://www.munlabtorino.it/"/>
  </node>
  <node id="6445564205" lat="45.5814892" lon="8.0983332">
    <tag k="addr:city" v="Ronco Biellese"/>
    <tag k="addr:housenumber" v="8"/>
    <tag k="addr:postcode" v="13845"/>
    <tag k="addr:street" v="Via Roma"/>
    <tag k="email" v="ronco@ptb.provincia.biella.it"/>
    <tag k="name" v="Ecomuseo della Terracotta"/>
    <tag k="phone" v="+39 015 461085"/>
    <tag k="tourism" v="museum"/>
    <tag k="website" v="http://www.comune.roncobiellese.bi.it/it-it/vivere-il-comune/cosa-vedere/ecomuseo-della-terracotta-40181-1-4e1305627899449bb0078448e5d1a354"/>
    <tag k="wikidata" v="Q55370885"/>
  </node>
  <node id="6553603539" lat="40.1461005" lon="18.4908211">
    <tag k="addr:housenumber" v="12"/>
    <tag k="addr:street" v="Via Basilica"/>
    <tag k="entrance" v="yes"/>
    <tag k="information" v="office"/>
    <tag k="name" v="Ecomuseo"/>
    <tag k="tourism" v="information"/>
  </node>
  <node id="6783378471" lat="45.2504069" lon="9.5624739">
    <tag k="name" v="Ecomuseo della Cascina Grazzanello"/>
    <tag k="tourism" v="museum"/>
    <tag k="wikidata" v="Q55376240"/>
  </node>
  <node id="7026947283" lat="46.1731612" lon="9.8329943">
    <tag k="museum" v="ecomuseum"/>
    <tag k="name" v="Ecomuseo del Monte Rolla"/>
    <tag k="name:en" v="Monte Rolla Ecomuseum"/>
    <tag k="tourism" v="museum"/>
    <tag k="website" v="https://www.monterolla.it"/>
  </node>
  <node id="7026962985" lat="46.0586289" lon="9.5508208">
    <tag k="addr:city" v="Gerola Alta"/>
    <tag k="addr:housenumber" v="11"/>
    <tag k="addr:postcode" v="23010"/>
    <tag k="addr:street" v="Via De Mazzi"/>
    <tag k="name" v="Ecomuseo della Valgerola"/>
    <tag k="name:en" v="Valgerola Ecomuseum"/>
    <tag k="tourism" v="museum"/>
    <tag k="website" v="https://ecomuseovalgerola.it"/>
  </node>
  <node id="7079899252" lat="46.0752308" lon="10.9963878">
    <tag k="level" v="0"/>
    <tag k="name" v="Associazione Ecomuseo della Valle dei Laghi"/>
    <tag k="office" v="association"/>
  </node>
  <node id="7148813748" lat="44.0088556" lon="11.0140431">
    <tag k="name" v="Ecomuseo della Montagna Pistoiese - Insediamento Altomedievale dell'Acquerino"/>
    <tag k="tourism" v="museum"/>
  </node>
  <node id="7148836354" lat="44.1214209" lon="11.0005635">
    <tag k="name" v="Ecomuseo della Montagna Pistoiese - Polo Didattico dellea Pietra e Via Francesca della Sambuca"/>
    <tag k="tourism" v="museum"/>
  </node>
  <node id="7148854603" lat="44.1281213" lon="10.6919978">
    <tag k="name" v="Ecomuseo della Montagna Pistoiese - Polo Didattico Naturalistico di Fontana Vaccaia"/>
    <tag k="tourism" v="museum"/>
  </node>
  <node id="7319261023" lat="43.4728883" lon="10.5654446">
    <tag k="addr:city" v="Santa Luce"/>
    <tag k="name" v="Ecomuseo dell'Alabastro - Sezione di Santa Luce"/>
    <tag k="tourism" v="museum"/>
    <tag k="wikidata" v="Q93895640"/>
  </node>
  <node id="7319294276" lat="43.6005250" lon="11.7895340">
    <tag k="addr:city" v="Talla"/>
    <tag k="name" v="Ecomuseo del Casentino - Casa Natale di Guido Monaco"/>
    <tag k="tourism" v="museum"/>
  </node>
  <node id="7319294277" lat="43.5756089" lon="11.8692815">
    <tag k="addr:city" v="Subbiano"/>
    <tag k="name" v="Ecomuseo del Casentino - Centro di Documentazione della Cultura Archeologica di Subbiano"/>
    <tag k="tourism" v="museum"/>
    <tag k="wikidata" v="Q93450172"/>
  </node>
  <node id="7319294283" lat="43.8016208" lon="11.7072518">
    <tag k="addr:city" v="Pratovecchio Stia"/>
    <tag k="name" v="Ecomuseo del Casentino - Museo Dello Sci, Museo del Bosco e della Montagna - Collezione Ornitologica C. Beni"/>
    <tag k="tourism" v="museum"/>
  </node>
  <node id="7319294284" lat="43.8096469" lon="11.6991755">
    <tag k="addr:city" v="Pratovecchio Stia"/>
    <tag k="name" v="Ecomuseo del Casentino - Museo del Castello di Porciano"/>
    <tag k="tourism" v="museum"/>
  </node>
  <node id="7319310485" lat="43.8301350" lon="11.6585979">
    <tag k="addr:city" v="Pratovecchio Stia"/>
    <tag k="name" v="Ecomuseo del Casentino - Mulin di Bucchio"/>
    <tag k="tourism" v="museum"/>
    <tag k="wikidata" v="Q93450168"/>
  </node>
  <node id="7319310486" lat="43.7941130" lon="11.8764739">
    <tag k="addr:city" v="Poppi"/>
    <tag k="name" v="Ecomuseo del Casentino - Il Sentiero dei Castelletti"/>
    <tag k="tourism" v="museum"/>
  </node>
  <node id="7319310487" lat="43.7223877" lon="11.7671412">
    <tag k="addr:city" v="Poppi"/>
    <tag k="name" v="Ecomuseo del Casentino - Castello dei Conti Guidi di Poppi"/>
    <tag k="tourism" v="museum"/>
  </node>
  <node id="7319310488" lat="43.7818990" lon="11.7923900">
    <tag k="addr:city" v="Poppi"/>
    <tag k="name" v="Ecomuseo del Casentino - Bottega del Bigonaio e Mostra Permanente Sulla Guerra e La Resistenza"/>
    <tag k="tourism" v="museum"/>
  </node>
  <node id="7319310490" lat="43.6757527" lon="11.7099934">
    <tag k="addr:city" v="Ortignano Raggiolo"/>
    <tag k="name" v="Ecomuseo del Casentino - Ecomuseo della Castagna di Raggiolo"/>
    <tag k="tourism" v="museum"/>
  </node>
  <node id="7319310491" lat="43.6769970" lon="11.7121955">
    <tag k="addr:city" v="Ortignano Raggiolo"/>
    <tag k="name" v="Ecomuseo del Casentino - Ecomuseo della Castagna di Raggiolo"/>
    <tag k="tourism" v="museum"/>
  </node>
  <node id="7319310504" lat="43.7695820" lon="11.9186211">
    <tag k="addr:city" v="Chiusi della Verna"/>
    <tag k="name" v="Ecomuseo del Casentino - Ecomuseo della Vallesanta"/>
    <tag k="tourism" v="museum"/>
    <tag k="wikidata" v="Q55674264"/>
  </node>
  <node id="7319310508" lat="43.7419202" lon="11.7053532">
    <tag k="addr:city" v="Castel San Niccolò"/>
    <tag k="name" v="Ecomuseo del Casentino - Museo della Pietra Lavorata"/>
    <tag k="tourism" v="museum"/>
  </node>
  <node id="7319310509" lat="43.7435927" lon="11.7041707">
    <tag k="addr:city" v="Castel San Niccolò"/>
    <tag k="name" v="Ecomuseo del Casentino - Museo della Pietra Lavorata"/>
    <tag k="tourism" v="museum"/>
  </node>
  <node id="7319310510" lat="43.7107510" lon="11.6570001">
    <tag k="addr:city" v="Castel San Niccolò"/>
    <tag k="name" v="Ecomuseo del Casentino - Ecomuseo del Carbonaio di Cetica"/>
    <tag k="tourism" v="museum"/>
  </node>
  <node id="7319310511" lat="43.6536690" lon="11.7888470">
    <tag k="addr:city" v="Castel Focognano"/>
    <tag k="name" v="Ecomuseo del Casentino - Centro di Documentazione Sulla Cultura Rurale del Casentino"/>
    <tag k="tourism" v="museum"/>
  </node>
  <node id="7319310512" lat="43.5619020" lon="11.8505170">
    <tag k="addr:city" v="Capolona"/>
    <tag k="name" v="Ecomuseo del Casentino - Centro di Documentazione e Polo Didattico dell'Acqua di Capolona"/>
    <tag k="tourism" v="museum"/>
  </node>
  <node id="7319310515" lat="43.7304869" lon="11.8119377">
    <tag k="addr:city" v="Bibbiena"/>
    <tag k="name" v="Ecomuseo del Casentino - Raccolta Rurale Casa Rossi"/>
    <tag k="tourism" v="museum"/>
    <tag k="wikidata" v="Q55373042"/>
  </node>
  <node id="7319659312" lat="44.0383799" lon="10.8672076">
    <tag k="addr:city" v="San Marcello Piteglio"/>
    <tag k="name" v="Ecomuseo della Montagna Pistoiese - Museo Naturalistico Archeologico dell'Appennino Pistoiese"/>
    <tag k="tourism" v="museum"/>
  </node>
  <node id="7319659313" lat="44.0598442" lon="10.9112423">
    <tag k="addr:city" v="Pistoia"/>
    <tag k="name" v="Ecomuseo della Montagna Pistoiese - Polo Didattico del Ghiaccio"/>
    <tag k="tourism" v="museum"/>
  </node>
  <node id="7319659314" lat="44.0781990" lon="10.8867121">
    <tag k="addr:city" v="Pistoia"/>
    <tag k="name" v="Ecomuseo della Montagna Pistoiese - Itinerario della Vita Quotidiana. Orsigna"/>
    <tag k="tourism" v="museum"/>
    <tag k="wikidata" v="Q55385368"/>
  </node>
  <node id="7612419150" lat="40.7529563" lon="17.3288229">
    <tag k="addr:city" v="Locorotondo"/>
    <tag k="addr:housenumber" v="24"/>
    <tag k="addr:street" v="Via Morelli"/>
    <tag k="museum" v="history"/>
    <tag k="name" v="Ecomuseo di Valle d'Itria (sede legale)"/>
    <tag k="tourism" v="museum"/>
    <tag k="wikidata" v="Q3718658"/>
  </node>
  <node id="7632503206" lat="45.5534263" lon="8.9591595">
    <tag k="addr:city" v="Parabiago"/>
    <tag k="addr:housenumber" v="17"/>
    <tag k="addr:postcode" v="20015"/>
    <tag k="addr:street" v="Via Ovidio"/>
    <tag k="email" v="agenda21@comune.parabiago.mi.it"/>
    <tag k="museum" v="ecomuseum"/>
    <tag k="name" v="Ecomuseo del Paesaggio di Parabiago"/>
    <tag k="opening_hours" v="24/7"/>
    <tag k="phone" v="+39 0331493002"/>
    <tag k="tourism" v="museum"/>
    <tag k="website" v="http://ecomuseo.comune.parabiago.mi.it/"/>
    <tag k="wikidata" v="Q3718652"/>
    <tag k="wikipedia" v="it:Ecomuseo del paesaggio di Parabiago"/>
  </node>
  <node id="7731583789" lat="46.2956150" lon="8.3599814">
    <tag k="fee" v="no"/>
    <tag k="museum" v="nature"/>
    <tag k="name" v="Ecomuseo dela pietra"/>
    <tag k="tourism" v="museum"/>
  </node>
  <node id="7832676577" lat="45.8178272" lon="8.4087676">
    <tag k="addr:city" v="Pettenasco"/>
    <tag k="addr:housenumber" v="7a"/>
    <tag k="addr:postcode" v="28028"/>
    <tag k="addr:street" v="Via Gaetano Fara"/>
    <tag k="alt_name" v="Ecomuseo Cusius"/>
    <tag k="email" v="ecomuseo@lagodorta.net"/>
    <tag k="museum" v="local"/>
    <tag k="name" v="Ecomuseo del Lago d'Orta e Mottarone"/>
    <tag k="operator" v="Associazione Ecomuseo del Lago d'Orta e Mottarone"/>
    <tag k="operator:type" v="private"/>
    <tag k="phone" v="+39 0323 89622"/>
    <tag k="tourism" v="museum"/>
    <tag k="website" v="http://www.lagodorta.net/default.asp"/>
    <tag k="wikidata" v="Q3718650"/>
    <tag k="wikipedia" v="it:Ecomuseo del Lago d'Orta e Mottarone"/>
  </node>
  <node id="8274426480" lat="44.5798822" lon="8.1912405">
    <tag k="addr:city" v="Cortemilia"/>
    <tag k="addr:housenumber" v="4"/>
    <tag k="addr:postcode" v="12074"/>
    <tag k="addr:street" v="Via Dante Alighieri"/>
    <tag k="email" v="ecomuseo@comune.cortemilia.cn.it"/>
    <tag k="museum" v="local"/>
    <tag k="name" v="Ecomuseo dei Terrazzamenti e della Vite"/>
    <tag k="opening_hours" v="&quot;by appointment&quot;"/>
    <tag k="operator" v="Comune di Cortemilia"/>
    <tag k="operator:type" v="public"/>
    <tag k="phone" v="+39 0173 81027"/>
    <tag k="tourism" v="museum"/>
    <tag k="website" v="http://www.langheroero.it/risorse/musei-ed-ecomusei/ecomuseo-dei-terrazzamenti-e-della-vite"/>
    <tag k="wikidata" v="Q55390779"/>
  </node>
  <node id="8274513442" lat="44.4825125" lon="7.1796606">
    <tag k="addr:city" v="Celle di Macra"/>
    <tag k="addr:housenumber" v="1"/>
    <tag k="addr:postcode" v="12020"/>
    <tag k="addr:street" v="Borgata Chiesa"/>
    <tag k="museum" v="local"/>
    <tag k="name" v="Ecomuseo dell’Alta Valle Maira"/>
    <tag k="operator" v="Comune Celle di Macra"/>
    <tag k="operator:type" v="public"/>
    <tag k="phone" v="+39 0171 999190"/>
    <tag k="tourism" v="museum"/>
    <tag k="website" v="https://ecomuseoaltavallemaira.it"/>
    <tag k="wikidata" v="Q55379197"/>
  </node>
  <node id="8274548745" lat="45.2054185" lon="6.9822472">
    <tag k="addr:city" v="Moncenisio"/>
    <tag k="addr:housenumber" v="9"/>
    <tag k="addr:postcode" v="10050"/>
    <tag k="addr:street" v="Ruà Trento"/>
    <tag k="contact:facebook" v="https://www.facebook.com/EcomuseoMoncenisio/"/>
    <tag k="museum" v="local"/>
    <tag k="name" v="Ecomuseo Terre Al Confine"/>
    <tag k="operator" v="Comune di Moncenisio"/>
    <tag k="operator:type" v="public"/>
    <tag k="phone" v="+39 0122 653222"/>
    <tag k="tourism" v="museum"/>
    <tag k="website" v="https://www.vallesusa-tesori.it/it/luoghi/moncenisio/ecomuseo-terre-di-confine"/>
  </node>
  <node id="8274720874" lat="44.2873683" lon="7.8067422">
    <tag k="addr:city" v="Frabosa Soprana"/>
    <tag k="addr:housenumber" v="5"/>
    <tag k="addr:postcode" v="12082"/>
    <tag k="addr:street" v="Piazza Municipio"/>
    <tag k="museum" v="local"/>
    <tag k="name" v="Ecomuseo del Marmo di Frabosa"/>
    <tag k="operator" v="Comune di Frabosa Soprana"/>
    <tag k="operator:type" v="public"/>
    <tag k="phone" v="+39 0174 244024"/>
    <tag k="tourism" v="museum"/>
    <tag k="website" v="https://ecomuseipiemonte.wordpress.com/ecomusei/prov-cuneo/marmo-di-frabosa-soprana/"/>
  </node>
  <node id="8274737991" lat="46.1263075" lon="8.5020122">
    <tag k="addr:city" v="Malesco"/>
    <tag k="addr:housenumber" v="54"/>
    <tag k="addr:postcode" v="28854"/>
    <tag k="addr:street" v="Via Conte Mellerio"/>
    <tag k="email" v="info@ecomuseomalesco.it"/>
    <tag k="fee" v="yes"/>
    <tag k="museum" v="local"/>
    <tag k="name" v="Ecomuseo ed leuzerie e di scherpelit"/>
    <tag k="operator" v="Comune di Malesco"/>
    <tag k="operator:type" v="public"/>
    <tag k="phone" v="+39 0324 92444"/>
    <tag k="tourism" v="museum"/>
    <tag k="website" v="https://ecomuseomalesco.it"/>
    <tag k="wikidata" v="Q54882667"/>
    <tag k="wikipedia" v="it:Ecomuseo Ed Leuzerie e di Scherpelit"/>
  </node>
  <node id="8677660199" lat="45.5197244" lon="9.1889859">
    <tag k="addr:city" v="Milano"/>
    <tag k="addr:housenumber" v="17"/>
    <tag k="addr:postcode" v="20162"/>
    <tag k="addr:street" v="Via Antonio Cesari"/>
    <tag k="amenity" v="community_centre"/>
    <tag k="name" v="EUMM Ecomuseo Urbano Metropolitano Milano Nord"/>
    <tag k="website" v="https://www.eumm-nord.it/"/>
  </node>
  <node id="9069821713" lat="42.0898607" lon="12.2869146">
    <tag k="museum" v="nature"/>
    <tag k="name" v="Ecomuseo delle Acque"/>
    <tag k="tourism" v="museum"/>
  </node>
  <node id="9346505559" lat="45.4498991" lon="9.1772214">
    <tag k="amenity" v="arts_centre"/>
    <tag k="name" v="MUMI Ecomuseo"/>
    <tag k="website" v="https://www.mumi-ecomuseo.it/"/>
  </node>
  <node id="9471982261" lat="45.6415410" lon="9.4940101">
    <tag k="board_type" v="nature"/>
    <tag k="description" v="Ecomuseo dell'Adda"/>
    <tag k="information" v="board"/>
    <tag k="name" v="Ecomuseo dell'Adda"/>
    <tag k="operator" v="Parco Adda Nord"/>
    <tag k="tourism" v="information"/>
  </node>
  <node id="9628693566" lat="38.9827281" lon="16.6271958">
    <tag k="addr:city" v="Sellia"/>
    <tag k="name" v="Emuse - Ecomuseo Sellia"/>
    <tag k="tourism" v="museum"/>
  </node>
  <node id="9634530469" lat="44.3381948" lon="7.0732517">
    <tag k="hiking" v="yes"/>
    <tag k="information" v="map"/>
    <tag k="map_size" v="city"/>
    <tag k="map_type" v="topo"/>
    <tag k="name" v="I Sentieri dell'Ecomuseo"/>
    <tag k="tourism" v="information"/>
  </node>
  <node id="9999772736" lat="44.0937635" lon="7.8274480">
    <tag k="description" v="Spiegazioni sugli ambienti montani, loro flora e fauna"/>
    <tag k="information" v="map"/>
    <tag k="map_size" v="site"/>
    <tag k="map_type" v="topo"/>
    <tag k="name" v="Ecomuseo della biodiversità"/>
    <tag k="tourism" v="information"/>
  </node>
  <node id="10067730476" lat="44.2310095" lon="8.1967972">
    <tag k="board_type" v="plants"/>
    <tag k="description" v="Note in tre lingue sulla foresta demaniale riconvertita da ceduo a fustaia."/>
    <tag k="information" v="board"/>
    <tag k="name" v="Ecomuseo Faggeta del Melogno"/>
    <tag k="tourism" v="information"/>
  </node>
  <node id="10207557169" lat="45.2763678" lon="9.7614618">
    <tag k="addr:city" v="Castelleone"/>
    <tag k="addr:housenumber" v="1"/>
    <tag k="addr:postcode" v="26012"/>
    <tag k="addr:street" v="Villa Stella"/>
    <tag k="email" v="ecomuseo@provincia.cremona.it"/>
    <tag k="museum" v="nature"/>
    <tag k="name" v="L'Ecomuseo della Provincia di Cremona"/>
    <tag k="operator" v="Provincia di Cremona"/>
    <tag k="operator:type" v="county_government"/>
    <tag k="phone" v="+39 0372 406447"/>
    <tag k="tourism" v="museum"/>
    <tag k="website" v="https://ecomuseo.provincia.cremona.it/"/>
  </node>
  <node id="10236443625" lat="44.7806880" lon="7.9310131">
    <tag k="board_type" v="geology"/>
    <tag k="description" v="Ecomuseo, comprendente 8 comuni, istituito nel 2003 dalla Regione Piemonte.Per documentazione, tutela e sviluppo dei borghi interessati. Mappa schematica del territorio dell'ecomuseo all'interno del Roero."/>
    <tag k="information" v="board"/>
    <tag k="name" v="Ecomuseo delle Rocche del Roero"/>
    <tag k="tourism" v="information"/>
  </node>
  <node id="10291868621" lat="44.0759628" lon="10.9486733">
    <tag k="board_type" v="Castagne da farina"/>
    <tag k="information" v="board"/>
    <tag k="name" v="Ecomuseo Le vie del Castagno"/>
    <tag k="tourism" v="information"/>
  </node>
  <node id="10743198883" lat="45.6833999" lon="11.3098358">
    <tag k="board_type" v="history"/>
    <tag k="direction" v="95"/>
    <tag k="information" v="board"/>
    <tag k="name" v="Ecomuseo Grande Guerra Prealpi Vicentine"/>
    <tag k="operator" v="Ortogonale 1"/>
    <tag k="subject:wikidata" v="Q361"/>
    <tag k="subject:wikipedia" v="en:World War I"/>
    <tag k="tourism" v="information"/>
    <tag k="website" v="https://ortogonale1.com/"/>
    <tag k="wikimedia_commons" v="File:Ecomuseo Grande Guerra Prealpi Vicentine - Ortogonale 1 - Passo Zovo.jpg"/>
  </node>
  <node id="10751249501" lat="46.0560728" lon="9.1868797">
    <tag k="description" v="Sentiero del Parco Val Sanagra"/>
    <tag k="hiking" v="yes"/>
    <tag k="information" v="map"/>
    <tag k="map_size" v="site"/>
    <tag k="map_type" v="topo"/>
    <tag k="name" v="Carta dei percorsi dell'Ecomuseo della Val Sanagra"/>
    <tag k="tourism" v="information"/>
    <tag k="wikimedia_commons" v="File:Map of path of museum Val Sanagra.jpg"/>
  </node>
  <node id="10781966872" lat="45.4712824" lon="7.5934055">
    <tag k="name" v="Ecomuseo Val Verdassa"/>
    <tag k="tourism" v="museum"/>
  </node>
  <node id="10890277579" lat="46.0435503" lon="9.2014073">
    <tag k="direction" v="200"/>
    <tag k="information" v="map"/>
    <tag k="map_size" v="site"/>
    <tag k="map_type" v="topo"/>
    <tag k="name" v="Percorsi dell'Ecomuseo Val Sanagra"/>
    <tag k="support" v="pole"/>
    <tag k="tourism" v="information"/>
    <tag k="wikimedia_commons" v="File:Vending machine of tickets for transit on strada Val Sanagra.jpg"/>
  </node>
  <node id="10894124006" lat="45.5480427" lon="11.4921897">
    <tag k="board_type" v="history"/>
    <tag k="description" v="Mappa dell'Ecomuseo Grande Guerra Prealpi Vicentine, presso Villa Zileri."/>
    <tag k="direction" v="60"/>
    <tag k="information" v="board"/>
    <tag k="level" v="0"/>
    <tag k="name" v="Ecomuseo Grande Guerra Prealpi Vicentine"/>
    <tag k="operator" v="Associazione culturale Ortogonale 1 1915 - 1918"/>
    <tag k="subject:wikidata" v="Q361"/>
    <tag k="subject:wikipedia" v="en:World War I"/>
    <tag k="tourism" v="information"/>
    <tag k="website" v="http://www.ecomuseograndeguerra.it/veneto/prealpi_vicentine/it/index.php"/>
    <tag k="wikimedia_commons" v="File:Mappa Ecomuseo Grande Guerra Prealpi Vicentine presso Villa Zileri.jpg"/>
  </node>
  <node id="10899038810" lat="45.9777587" lon="9.5350402">
    <tag k="name" v="Ecomuseo"/>
    <tag k="tourism" v="museum"/>
    <tag k="website" v="http://ecomuseodivaltorta.com/"/>
  </node>
  <node id="11084280797" lat="46.0715116" lon="8.6072671">
    <tag k="museum" v="local"/>
    <tag k="name" v="Ecomuseo del Lago e dei Monti"/>
    <tag k="tourism" v="museum"/>
  </node>
  <node id="11278245443" lat="40.5954489" lon="8.2856199">
    <tag k="contact:facebook" v="progettoEGEA"/>
    <tag k="name" v="Ecomuseo Egea"/>
    <tag k="tourism" v="museum"/>
    <tag k="website" v="https://ecomuseoegea.org/museo/"/>
  </node>
  <way id="77684413">
    <nd ref="5251774299"/>
    <nd ref="913816623"/>
    <nd ref="913816776"/>
    <nd ref="5251774295"/>
    <nd ref="913816128"/>
    <nd ref="913816557"/>
    <nd ref="5251774299"/>
    <tag k="building" v="yes"/>
    <tag k="name" v="Trappa - Ecomuseo della tradizione costruttiva"/>
  </way>
  <way id="77684429">
    <nd ref="5251774273"/>
    <nd ref="5251774277"/>
    <nd ref="913817089"/>
    <nd ref="913816586"/>
    <nd ref="913816511"/>
    <nd ref="7617434033"/>
    <nd ref="7617434031"/>
    <nd ref="7617434032"/>
    <nd ref="5251774287"/>
    <nd ref="913817177"/>
    <nd ref="5251774263"/>
    <nd ref="5251774258"/>
    <nd ref="5251774260"/>
    <nd ref="5251774270"/>
    <nd ref="5251774271"/>
    <nd ref="5251774265"/>
    <nd ref="5251774267"/>
    <nd ref="5251774251"/>
    <nd ref="5251774273"/>
    <tag k="building" v="yes"/>
    <tag k="ele" v="1011"/>
    <tag k="name" v="Ecomuseo della Tradizione Costruttiva - La Trappa"/>
    <tag k="opening_hours" v="Apr-Oct: Sa-Su 10:00-16:00"/>
    <tag k="tourism" v="museum"/>
  </way>
  <way id="84014797">
    <nd ref="977506635"/>
    <nd ref="977508282"/>
    <nd ref="977507606"/>
    <nd ref="977508140"/>
    <nd ref="977506635"/>
    <tag k="addr:city" v="Viù"/>
    <tag k="addr:postcode" v="10070"/>
    <tag k="addr:street" v="SP197 del Colle del Lis"/>
    <tag k="building" v="yes"/>
    <tag k="email" v="info@colledellys.it"/>
    <tag k="fee" v="no"/>
    <tag k="museum" v="history"/>
    <tag k="name" v="Ecomuseo della Resistenza"/>
    <tag k="opening_hours" v="Apr 25-Sep 8: Su 10:00-18:00"/>
    <tag k="phone" v="+39 339 6187375"/>
    <tag k="tourism" v="museum"/>
    <tag k="website" v="http://www.colledellys.it"/>
    <tag k="wheelchair" v="no"/>
  </way>
  <way id="149175114">
    <nd ref="1621870477"/>
    <nd ref="1621870482"/>
    <nd ref="1621870473"/>
    <nd ref="1621870464"/>
    <nd ref="1621870477"/>
    <tag k="building" v="yes"/>
    <tag k="museum" v="history"/>
    <tag k="name" v="Ecomuseo di Ca' Rossa"/>
    <tag k="source" v="Regione Emilia Romagna"/>
    <tag k="tourism" v="museum"/>
    <tag k="website" v="http://www.fiorano.it/Turismo/salse%20nirano/ri/ecomuseo.htm"/>
  </way>
  <way id="167073465">
    <nd ref="1784809286"/>
    <nd ref="1784809285"/>
    <nd ref="1784809283"/>
    <nd ref="3048859282"/>
    <nd ref="1784809278"/>
    <nd ref="1784809286"/>
    <tag k="building" v="yes"/>
    <tag k="name" v="Ecomuseo del Vertice"/>
    <tag k="tourism" v="museum"/>
    <tag k="wikidata" v="Q89759975"/>
    <tag k="wikipedia" v="it:Ecomuseo del Vertice"/>
  </way>
  <way id="173161637">
    <nd ref="1839881232"/>
    <nd ref="1839881234"/>
    <nd ref="1839881236"/>
    <nd ref="1839881235"/>
    <nd ref="1839881237"/>
    <nd ref="1839881233"/>
    <nd ref="1839881231"/>
    <nd ref="1839881230"/>
    <nd ref="1839881228"/>
    <nd ref="1839881229"/>
    <nd ref="1839881226"/>
    <nd ref="1839881227"/>
    <nd ref="1839881232"/>
    <tag k="addr:city" v="Prali"/>
    <tag k="addr:postcode" v="10060"/>
    <tag k="addr:street" v="Località Paola"/>
    <tag k="building" v="yes"/>
    <tag k="email" v="info@ecomuseominiere.it"/>
    <tag k="museum" v="local"/>
    <tag k="name" v="Ecomuseo delle Miniere e della Val Germanasca"/>
    <tag k="opening_hours" v="Mar-Sep: Mo,We,Th,Fr,Sa,Su 09:30-12:30, 13:30-17:00; Tu off; Oct-Nov: Mo,Th,Fr,Sa,Su 09:30-12:30, 13:30-17:00; Tu,We off; Nov 15-Mar 15 off"/>
    <tag k="operator" v="Unione Montana dei Comuni delle Valli Chisone e Germanasca"/>
    <tag k="operator:type" v="public"/>
    <tag k="phone" v="+39 0121 806987"/>
    <tag k="tourism" v="museum"/>
    <tag k="website" v="https://www.ecomuseominiere.it/"/>
  </way>
  <way id="175913956">
    <nd ref="1864731978"/>
    <nd ref="1864731960"/>
    <nd ref="1864731959"/>
    <nd ref="1864731967"/>
    <nd ref="1864731978"/>
    <tag k="building" v="farm_auxiliary"/>
    <tag k="name" v="Ecomuseo del Ghertele"/>
    <tag k="tourism" v="museum"/>
  </way>
  <way id="181522689">
    <nd ref="1919390591"/>
    <nd ref="1919390642"/>
    <nd ref="1919390583"/>
    <nd ref="1919390580"/>
    <nd ref="1919390572"/>
    <nd ref="1919390604"/>
    <nd ref="1919390618"/>
    <nd ref="1919390679"/>
    <nd ref="1919390651"/>
    <nd ref="1919390663"/>
    <nd ref="1919390610"/>
    <nd ref="1919390518"/>
    <nd ref="1919390502"/>
    <nd ref="1919390466"/>
    <nd ref="1919390533"/>
    <nd ref="1919390511"/>
    <nd ref="1919390537"/>
    <nd ref="1919390552"/>
    <nd ref="1919390591"/>
    <tag k="addr:postcode" v="48012"/>
    <tag k="addr:street" v="Via Ungaretti"/>
    <tag k="building" v="yes"/>
    <tag k="name" v="Ecomuseo delle Erbe Palustri"/>
    <tag k="source" v="Regione Emilia Romagna"/>
    <tag k="tourism" v="museum"/>
  </way>
  <way id="209819009">
    <nd ref="2199874946"/>
    <nd ref="2199874943"/>
    <nd ref="2199874932"/>
    <nd ref="2199874936"/>
    <nd ref="2199874946"/>
    <tag k="building" v="yes"/>
    <tag k="fee" v="yes"/>
    <tag k="name" v="Ecomuseo Molino Fucina"/>
    <tag k="tourism" v="museum"/>
    <tag k="website" v="https://www.invalsesia.it/il-mulino-di-mollia/"/>
    <tag k="wheelchair" v="no"/>
  </way>
  <way id="261407697">
    <nd ref="2670231970"/>
    <nd ref="2670231971"/>
    <nd ref="2670231965"/>
    <nd ref="2670231963"/>
    <nd ref="2670231967"/>
    <nd ref="2670231968"/>
    <nd ref="2670231964"/>
    <nd ref="2670231970"/>
    <tag k="addr:city" v="Nomaglio"/>
    <tag k="addr:country" v="IT"/>
    <tag k="addr:housenumber" v="28"/>
    <tag k="addr:postcode" v="10010"/>
    <tag k="addr:street" v="Via del Mulino"/>
    <tag k="building" v="yes"/>
    <tag k="email" v="nomaglio@reteunitaria.piemonte.it"/>
    <tag k="name" v="Ecomuseo della Castagna"/>
    <tag k="opening_hours" v="Jun-Oct: Sa 15:00-18:00; Jun-Oct: Su 10:00-12:00,15:00-18:00"/>
    <tag k="operator" v="Rete Museale AMI"/>
    <tag k="phone" v="+39 0125 790158"/>
    <tag k="tourism" v="museum"/>
    <tag k="url" v="http://www.ecomuseoami.it/site/index.php?option=com_content&amp;view=article&amp;id=103:ecomuseo-della-castagna-&amp;catid=39:musei-della-rete&amp;Itemid=64"/>
    <tag k="wikidata" v="Q55372009"/>
  </way>
  <way id="262006190">
    <nd ref="2676622632"/>
    <nd ref="2676622633"/>
    <nd ref="2676622631"/>
    <nd ref="2676622632"/>
    <tag k="building" v="yes"/>
    <tag k="fee" v="no"/>
    <tag k="name" v="Ecomuseo Grande Guerra Prealpi Vicentine"/>
    <tag k="opening_hours" v="24/7"/>
    <tag k="tourism" v="museum"/>
  </way>
  <way id="276242807">
    <nd ref="2808654386"/>
    <nd ref="2939655216"/>
    <nd ref="2808654387"/>
    <nd ref="2939655215"/>
    <nd ref="2808654388"/>
    <nd ref="2939655214"/>
    <nd ref="2808654389"/>
    <nd ref="2939655213"/>
    <nd ref="2808654390"/>
    <nd ref="2939655212"/>
    <nd ref="2808654391"/>
    <nd ref="2939655211"/>
    <nd ref="2808654392"/>
    <nd ref="2939655210"/>
    <nd ref="2808654393"/>
    <nd ref="2939655209"/>
    <nd ref="2808654394"/>
    <nd ref="2939655208"/>
    <nd ref="2808654395"/>
    <nd ref="2939655207"/>
    <nd ref="2808654396"/>
    <nd ref="2939655206"/>
    <nd ref="2808654378"/>
    <nd ref="2939655205"/>
    <nd ref="2808654381"/>
    <nd ref="2939655204"/>
    <nd ref="2808654382"/>
    <nd ref="2939655203"/>
    <nd ref="2808654383"/>
    <nd ref="2939655202"/>
    <nd ref="2808654384"/>
    <nd ref="2939655201"/>
    <nd ref="2808654385"/>
    <nd ref="2939655100"/>
    <nd ref="2808654379"/>
    <nd ref="2939655099"/>
    <nd ref="2808654380"/>
    <nd ref="2939655217"/>
    <nd ref="2808654386"/>
    <tag k="building" v="yes"/>
    <tag k="historic" v="ice_house"/>
    <tag k="name" v="Ecomuseo della Montagna Pistoiese - Ghiacciaia della Madonnina"/>
    <tag k="roof:shape" v="pyramidal"/>
    <tag k="tourism" v="museum"/>
    <tag k="wikidata" v="Q93317312"/>
  </way>
  <way id="285647989">
    <nd ref="2893211571"/>
    <nd ref="2893211569"/>
    <nd ref="2893211573"/>
    <nd ref="2893211575"/>
    <nd ref="2893211571"/>
    <tag k="name" v="Ecomuseo della Roggia Mora"/>
    <tag k="operator" v="La Città Ideale"/>
    <tag k="tourism" v="museum"/>
  </way>
  <way id="303542467">
    <nd ref="3079165066"/>
    <nd ref="5645955176"/>
    <nd ref="3079165064"/>
    <nd ref="3079165052"/>
    <nd ref="3079165053"/>
    <nd ref="3079165066"/>
    <tag k="building" v="yes"/>
    <tag k="name" v="Ecomuseo della Valvarrone"/>
    <tag k="tourism" v="museum"/>
    <tag k="wikidata" v="Q17629224"/>
  </way>
  <way id="317105515">
    <nd ref="3233301656"/>
    <nd ref="3233301765"/>
    <nd ref="3233301763"/>
    <nd ref="3233301766"/>
    <nd ref="3233301764"/>
    <nd ref="3233301654"/>
    <nd ref="3233301656"/>
    <tag k="addr:city" v="Pontebernardo"/>
    <tag k="addr:postcode" v="12010"/>
    <tag k="building" v="yes"/>
    <tag k="museum" v="local"/>
    <tag k="name" v="Ecomuseo della Pastorizia"/>
    <tag k="opening_hours" v="Mo-Fr &quot;by appointment&quot;; Sa, Su 15:00-18:00"/>
    <tag k="operator" v="Unione Montana Valle Stura"/>
    <tag k="operator:type" v="public"/>
    <tag k="phone" v="+39 0171 955555"/>
    <tag k="tourism" v="museum"/>
    <tag k="website" v="http://www.visitstura.it/cultura-e-arte/attrattive/musei/pietraporzio-ecomuseo-della-pastorizia/"/>
    <tag k="wikidata" v="Q55371370"/>
  </way>
  <way id="332891097">
    <nd ref="3400111197"/>
    <nd ref="3400111201"/>
    <nd ref="3400111195"/>
    <nd ref="3400111193"/>
    <nd ref="3400111197"/>
    <tag k="building" v="yes"/>
    <tag k="museum" v="ethnography"/>
    <tag k="name" v="Ecomuseo Il Torchio di Agarla"/>
    <tag k="tourism" v="museum"/>
    <tag k="wikimedia_commons" v="File:Agarla Ecomuseo.jpg"/>
  </way>
  <way id="346021704">
    <nd ref="3526230311"/>
    <nd ref="3526229839"/>
    <nd ref="3526230572"/>
    <nd ref="3526230633"/>
    <nd ref="3526230774"/>
    <nd ref="3526230861"/>
    <nd ref="3526230771"/>
    <nd ref="3526230311"/>
    <tag k="addr:city" v="San Marcello Piteglio"/>
    <tag k="building" v="yes"/>
    <tag k="name" v="Ecomuseo della Montagna Pistoiese - Museo Diocesano d'Arte Sacra e Polo Didattico della Religiosità Popolare di Popiglio"/>
    <tag k="tourism" v="museum"/>
  </way>
  <way id="391356690">
    <nd ref="2421778470"/>
    <nd ref="3945725761"/>
    <nd ref="3945725757"/>
    <nd ref="3945723654"/>
    <nd ref="3945723640"/>
    <nd ref="3945723643"/>
    <nd ref="3945723642"/>
    <nd ref="3945723647"/>
    <nd ref="3945723649"/>
    <nd ref="2421778470"/>
    <tag k="name" v="Ecomuseo Maglio dei Thonet"/>
    <tag k="phone" v="+39 434756513"/>
    <tag k="tourism" v="museum"/>
    <tag k="website" v="http://www.museomagliodeitonet.it"/>
  </way>
  <way id="397713487">
    <nd ref="4004915994"/>
    <nd ref="4004915995"/>
    <nd ref="4004915996"/>
    <nd ref="4004915997"/>
    <nd ref="4004915994"/>
    <tag k="addr:city" v="Coazze"/>
    <tag k="addr:housenumber" v="3"/>
    <tag k="addr:postcode" v="10050"/>
    <tag k="addr:street" v="Viale Italia 61"/>
    <tag k="building" v="yes"/>
    <tag k="email" v="turismo@comune.coazze.to.it"/>
    <tag k="museum" v="local"/>
    <tag k="name" v="Ecomuseo dell'Alta Val Sangone"/>
    <tag k="operator" v="Comune di Coazze"/>
    <tag k="operator:type" v="public"/>
    <tag k="phone" v="+39 011 9349681"/>
    <tag k="tourism" v="museum"/>
    <tag k="website" v="https://ecomuseo.wixsite.com/altavalsangone"/>
  </way>
  <way id="406074335">
    <nd ref="4081920136"/>
    <nd ref="4081920137"/>
    <nd ref="4081920138"/>
    <nd ref="4081920139"/>
    <nd ref="4081920140"/>
    <nd ref="4081920141"/>
    <nd ref="4081920142"/>
    <nd ref="4081920143"/>
    <nd ref="4081920144"/>
    <nd ref="4081920145"/>
    <nd ref="4081920146"/>
    <nd ref="4081920147"/>
    <nd ref="4081920148"/>
    <nd ref="4081920149"/>
    <nd ref="4081920150"/>
    <nd ref="4081920136"/>
    <tag k="building" v="yes"/>
    <tag k="name" v="Ecomuseo del Litorale Romano"/>
  </way>
  <way id="432347408">
    <nd ref="4314210004"/>
    <nd ref="4314210016"/>
    <nd ref="4314210000"/>
    <nd ref="4314209992"/>
    <nd ref="4314210004"/>
    <tag k="addr:city" v="Canal San Bovo"/>
    <tag k="addr:housenumber" v="9"/>
    <tag k="addr:postcode" v="38050"/>
    <tag k="addr:street" v="Piazza Vittorio Emanuele III"/>
    <tag k="building" v="yes"/>
    <tag k="building:levels" v="3"/>
    <tag k="name" v="Casa dell'Ecomuseo del Vanoi"/>
    <tag k="tourism" v="museum"/>
    <tag k="website" v="https://www.ecomuseo.vanoi.it/"/>
    <tag k="wikidata" v="Q3718657"/>
  </way>
  <way id="475608834">
    <nd ref="4693407867"/>
    <nd ref="7149902798"/>
    <nd ref="7149902803"/>
    <nd ref="4693407850"/>
    <nd ref="4693407814"/>
    <nd ref="4693407804"/>
    <nd ref="4693407795"/>
    <nd ref="4693407634"/>
    <nd ref="4693407867"/>
    <tag k="building" v="yes"/>
    <tag k="name" v="Ecomuseo della Montagna Pistoiese - Ferriera Papini"/>
    <tag k="tourism" v="museum"/>
  </way>
  <way id="483485184">
    <nd ref="4762260682"/>
    <nd ref="4762239447"/>
    <nd ref="4762233820"/>
    <nd ref="4762234227"/>
    <nd ref="4762260682"/>
    <tag k="building" v="yes"/>
    <tag k="name" v="Ecomuseo della lavorazione del ferro"/>
    <tag k="tourism" v="museum"/>
  </way>
  <way id="488771311">
    <nd ref="4810615249"/>
    <nd ref="4810615248"/>
    <nd ref="4810615247"/>
    <nd ref="4810615246"/>
    <nd ref="4810615249"/>
    <tag k="building" v="yes"/>
    <tag k="name" v="Ecomuseo"/>
    <tag k="tourism" v="museum"/>
  </way>
  <way id="488903937">
    <nd ref="4811865468"/>
    <nd ref="4811865445"/>
    <nd ref="4811865475"/>
    <nd ref="4811865453"/>
    <nd ref="4811865470"/>
    <nd ref="4811865473"/>
    <nd ref="4811865468"/>
    <tag k="building" v="ruins"/>
    <tag k="name" v="Ecomuseo dell'Antica Filanda di Civita"/>
  </way>
  <way id="495837906">
    <nd ref="4874597172"/>
    <nd ref="4874597225"/>
    <nd ref="4874598628"/>
    <nd ref="4874596951"/>
    <nd ref="4874597171"/>
    <nd ref="4874597224"/>
    <nd ref="4874596950"/>
    <nd ref="4874597321"/>
    <nd ref="4874597223"/>
    <nd ref="4874596949"/>
    <nd ref="4874596020"/>
    <nd ref="4874597222"/>
    <nd ref="4874597172"/>
    <tag k="building" v="yes"/>
    <tag k="name" v="Ecomuseo delle migrazioni"/>
    <tag k="tourism" v="museum"/>
  </way>
  <way id="537979198">
    <nd ref="5208426315"/>
    <nd ref="5208426260"/>
    <nd ref="5208426259"/>
    <nd ref="5208426447"/>
    <nd ref="5208426315"/>
    <tag k="addr:city" v="Collepardo"/>
    <tag k="addr:street" v="Via Tolomei"/>
    <tag k="building" v="yes"/>
    <tag k="contact:facebook" v="https://it-it.facebook.com/groups/ecomuseo.collepardo/"/>
    <tag k="description" v="L'EcoMuseo ha sede nel palazzo comunale “La Rocca”."/>
    <tag k="email" v="ecomuseo.collepardo@gmail.com"/>
    <tag k="museum" v="local"/>
    <tag k="name" v="Ecomuseo Orto del Centauro Chirone"/>
    <tag k="tourism" v="museum"/>
    <tag k="website" v="http://www.collepardo.it/erboristeria.htm#ecomuseo"/>
  </way>
  <way id="541516561">
    <nd ref="5236268482"/>
    <nd ref="5236268480"/>
    <nd ref="5236268479"/>
    <nd ref="5236268478"/>
    <nd ref="5236268481"/>
    <nd ref="5236268474"/>
    <nd ref="5236268475"/>
    <nd ref="5236268476"/>
    <nd ref="5236268477"/>
    <nd ref="5236268482"/>
    <tag k="amenity" v="museum"/>
    <tag k="building" v="yes"/>
    <tag k="name" v="Ecomuseo della civilt montanara"/>
  </way>
  <way id="541516562">
    <nd ref="5236268470"/>
    <nd ref="5236268471"/>
    <nd ref="5236268472"/>
    <nd ref="5236268473"/>
    <nd ref="5236268466"/>
    <nd ref="5236268467"/>
    <nd ref="5236268468"/>
    <nd ref="5236268469"/>
    <nd ref="5236268462"/>
    <nd ref="5236268463"/>
    <nd ref="5236268464"/>
    <nd ref="5236268465"/>
    <nd ref="5236268458"/>
    <nd ref="5236268485"/>
    <nd ref="5236268484"/>
    <nd ref="5236268483"/>
    <nd ref="5236268459"/>
    <nd ref="5236268460"/>
    <nd ref="5236268461"/>
    <nd ref="5236268454"/>
    <nd ref="5236268470"/>
    <tag k="amenity" v="museum"/>
    <tag k="building" v="yes"/>
    <tag k="name" v="Ecomuseo della civiltà montanara"/>
  </way>
  <way id="541516563">
    <nd ref="5236268455"/>
    <nd ref="5236268456"/>
    <nd ref="5236268488"/>
    <nd ref="5236268487"/>
    <nd ref="5236268457"/>
    <nd ref="5236268451"/>
    <nd ref="5236268452"/>
    <nd ref="5236268453"/>
    <nd ref="5236268455"/>
    <tag k="amenity" v="museum"/>
    <tag k="building" v="yes"/>
    <tag k="name" v="Ecomuseo della civilt montanara"/>
  </way>
  <way id="541516564">
    <nd ref="5236268492"/>
    <nd ref="5236268493"/>
    <nd ref="5236268486"/>
    <nd ref="5236268487"/>
    <nd ref="5236268488"/>
    <nd ref="5236268489"/>
    <nd ref="5236268492"/>
    <tag k="amenity" v="museum"/>
    <tag k="building" v="yes"/>
    <tag k="name" v="Ecomuseo della civilt montanara"/>
  </way>
  <way id="541516565">
    <nd ref="5236268482"/>
    <nd ref="5236268483"/>
    <nd ref="5236268484"/>
    <nd ref="5236268485"/>
    <nd ref="5236268478"/>
    <nd ref="5236268479"/>
    <nd ref="5236268480"/>
    <nd ref="5236268482"/>
    <tag k="amenity" v="museum"/>
    <tag k="building" v="yes"/>
    <tag k="name" v="Ecomuseo della civilt montanara"/>
  </way>
  <way id="568314266">
    <nd ref="5467725153"/>
    <nd ref="5467725152"/>
    <nd ref="5467725151"/>
    <nd ref="5467725150"/>
    <nd ref="5467725153"/>
    <tag k="building" v="yes"/>
    <tag k="museum" v="ecomuseum"/>
    <tag k="name" v="Ecomuseo Lago di Annone"/>
    <tag k="tourism" v="museum"/>
  </way>
  <way id="595106708">
    <nd ref="5672641383"/>
    <nd ref="5672690636"/>
    <nd ref="5672661117"/>
    <nd ref="5672669933"/>
    <nd ref="5672678500"/>
    <nd ref="5672641383"/>
    <tag k="amenity" v="community_centre"/>
    <tag k="building" v="yes"/>
    <tag k="name" v="Ecomuseo della transumanza"/>
  </way>
  <way id="595107896">
    <nd ref="5672689860"/>
    <nd ref="5672663761"/>
    <nd ref="5672671460"/>
    <nd ref="5672680241"/>
    <nd ref="5672689860"/>
    <tag k="amenity" v="community_centre"/>
    <tag k="building" v="yes"/>
    <tag k="name" v="Ecomuseo della transumanza"/>
  </way>
  <way id="595109830">
    <nd ref="5672676072"/>
    <nd ref="5672672543"/>
    <nd ref="5672681823"/>
    <nd ref="5672690636"/>
    <nd ref="5672641383"/>
    <nd ref="5672676072"/>
    <tag k="amenity" v="community_centre"/>
    <tag k="building" v="yes"/>
    <tag k="name" v="Ecomuseo della transumanza"/>
  </way>
  <way id="595110793">
    <nd ref="5672672543"/>
    <nd ref="5672680241"/>
    <nd ref="5672671460"/>
    <nd ref="5672681823"/>
    <nd ref="5672672543"/>
    <tag k="amenity" v="community_centre"/>
    <tag k="building" v="yes"/>
    <tag k="name" v="Ecomuseo della transumanza"/>
  </way>
  <way id="633293091">
    <nd ref="5978192170"/>
    <nd ref="5978187395"/>
    <nd ref="5978189992"/>
    <nd ref="5978192757"/>
    <nd ref="5978192170"/>
    <tag k="amenity" v="museum"/>
    <tag k="building" v="yes"/>
    <tag k="name" v="Ecomuseo ex Mulino Susta"/>
  </way>
  <way id="633293137">
    <nd ref="5978192894"/>
    <nd ref="5978188094"/>
    <nd ref="5978191292"/>
    <nd ref="5978194885"/>
    <nd ref="5978192894"/>
    <tag k="amenity" v="museum"/>
    <tag k="building" v="yes"/>
    <tag k="name" v="Ecomuseo ex Mulino Susta"/>
  </way>
  <way id="633293376">
    <nd ref="5978193069"/>
    <nd ref="5978188269"/>
    <nd ref="5978187331"/>
    <nd ref="5978190733"/>
    <nd ref="5978193422"/>
    <nd ref="5978188721"/>
    <nd ref="5978191119"/>
    <nd ref="5978194211"/>
    <nd ref="5978193069"/>
    <tag k="amenity" v="museum"/>
    <tag k="building" v="yes"/>
    <tag k="email" v="info@atl.biella.it"/>
    <tag k="name" v="Ecomuseo ex Mulino Susta"/>
    <tag k="opening_hours" v="Jun 1-Oct 12: Sa-Su 10:00-12:00"/>
    <tag k="phone" v="+39 015 351128"/>
    <tag k="tourism" v="museum"/>
  </way>
  <way id="694484019">
    <nd ref="6521030140"/>
    <nd ref="6521030141"/>
    <nd ref="6521030142"/>
    <nd ref="6521030143"/>
    <nd ref="6521030140"/>
    <tag k="building" v="yes"/>
    <tag k="man_made" v="watermill"/>
    <tag k="name" v="Ecomuseo Mulino delle Batíne"/>
    <tag k="website" v="https://www.comune.quarnasotto.vb.it/it-it/vivere-il-comune/cosa-vedere/ecomuseo-mulino-delle-batine"/>
    <tag k="wikimedia_commons" v="File:Quarna Sotto Mulino delle Batíne.jpg"/>
  </way>
  <way id="704982285">
    <nd ref="2179512369"/>
    <nd ref="2179512377"/>
    <nd ref="6621245064"/>
    <nd ref="6621245065"/>
    <nd ref="2179512369"/>
    <tag k="building" v="yes"/>
    <tag k="name" v="Ecomuseo del rame, del lavoro e resistenza di Alpette"/>
    <tag k="tourism" v="museum"/>
  </way>
  <way id="753265037">
    <nd ref="7038219448"/>
    <nd ref="7038240325"/>
    <nd ref="7038215269"/>
    <nd ref="7038249601"/>
    <nd ref="7038224440"/>
    <nd ref="7038258806"/>
    <nd ref="7038233627"/>
    <nd ref="7038267627"/>
    <nd ref="7038219448"/>
    <tag k="building" v="yes"/>
    <tag k="contact:email" v="ecomuseo@comune.cossato.bi.it"/>
    <tag k="contact:website" v="http://www.ecomuseo.cossato.bi.it"/>
    <tag k="name" v="Ecomuseo del Cossatese e delle Baragge"/>
    <tag k="phone" v="+39 015 983860"/>
    <tag k="tourism" v="museum"/>
    <tag k="wikidata" v="Q72710230"/>
  </way>
  <way id="760147535">
    <nd ref="7101145582"/>
    <nd ref="7101145583"/>
    <nd ref="7101145584"/>
    <nd ref="7101145585"/>
    <nd ref="7101145586"/>
    <nd ref="7101145587"/>
    <nd ref="7101145588"/>
    <nd ref="7101145589"/>
    <nd ref="7101145590"/>
    <nd ref="7101145591"/>
    <nd ref="7101145592"/>
    <nd ref="7101145593"/>
    <nd ref="7101145594"/>
    <nd ref="7101145595"/>
    <nd ref="7101145582"/>
    <tag k="building" v="yes"/>
    <tag k="name" v="Ecomuseo mulino idraulico del Martinet"/>
    <tag k="operator" v="Parco Naturale del Gran Bosco di Salbertrand"/>
    <tag k="tourism" v="museum"/>
  </way>
  <way id="775470836">
    <nd ref="7234718332"/>
    <nd ref="7234718333"/>
    <nd ref="7234718334"/>
    <nd ref="7234718335"/>
    <nd ref="7234718336"/>
    <nd ref="7234718337"/>
    <nd ref="7234718332"/>
    <tag k="building" v="yes"/>
    <tag k="museum" v="nature"/>
    <tag k="name" v="Ecomuseo Valle Delle Orchidee"/>
  </way>
  <way id="890226553">
    <nd ref="8274694163"/>
    <nd ref="8274694164"/>
    <nd ref="8274694165"/>
    <nd ref="8274694166"/>
    <nd ref="8274694163"/>
    <tag k="addr:city" v="Mergozzo"/>
    <tag k="addr:housenumber" v="11a"/>
    <tag k="addr:postcode" v="28802"/>
    <tag k="addr:street" v="Vicolo undicesimo"/>
    <tag k="building" v="yes"/>
    <tag k="email" v="info@ecomuseogranitomontorfano.it"/>
    <tag k="museum" v="local"/>
    <tag k="name" v="Ecomuseo del Granito di Montorfano"/>
    <tag k="opening_hours" v="May, Sep-Dec: Sa-Su 14:00-18:00; Jun-Aug: Mo-Su 14:00-19:00"/>
    <tag k="operator" v="Comune di Mergozzo"/>
    <tag k="operator:type" v="public"/>
    <tag k="phone" v="+39 0323 840809"/>
    <tag k="tourism" v="museum"/>
    <tag k="website" v="https://www.ecomuseogranitomontorfano.it"/>
  </way>
  <way id="925733635">
    <nd ref="8591240988"/>
    <nd ref="8591240989"/>
    <nd ref="8591240990"/>
    <nd ref="8591240991"/>
    <nd ref="8591240992"/>
    <nd ref="8591240993"/>
    <nd ref="8591240994"/>
    <nd ref="8591240995"/>
    <nd ref="8591240996"/>
    <nd ref="8591240997"/>
    <nd ref="8591240998"/>
    <nd ref="8591240988"/>
    <tag k="leisure" v="nature_reserve"/>
    <tag k="name" v="Ecomuseo Centopertose"/>
  </way>
  <way id="931688185">
    <nd ref="8637459201"/>
    <nd ref="8637459205"/>
    <nd ref="8637459202"/>
    <nd ref="9547178685"/>
    <nd ref="9547178688"/>
    <nd ref="8637459200"/>
    <nd ref="8637459197"/>
    <nd ref="8637459198"/>
    <nd ref="631762468"/>
    <nd ref="8637459199"/>
    <nd ref="8637459203"/>
    <nd ref="8637459204"/>
    <nd ref="8637459201"/>
    <tag k="addr:city" v="Palermo"/>
    <tag k="addr:housenumber" v="14"/>
    <tag k="addr:postcode" v="90123"/>
    <tag k="addr:street" v="Via Messina Marine"/>
    <tag k="area" v="yes"/>
    <tag k="contact:facebook" v="marememoriaviva"/>
    <tag k="contact:instagram" v="ecomuseomare"/>
    <tag k="email" v="info@marememoriaviva.it"/>
    <tag k="museum" v="local_history"/>
    <tag k="name" v="Ecomuseo Mare Memoria Viva"/>
    <tag k="opening_hours" v="Tu-Fr 09:00-18:30; Sa 09:00-14:00"/>
    <tag k="phone" v="+39 091 843 0489"/>
    <tag k="tourism" v="museum"/>
    <tag k="website" v="https://www.marememoriaviva.it/"/>
  </way>
  <way id="1037790986">
    <nd ref="3181078431"/>
    <nd ref="3181078423"/>
    <nd ref="3181078425"/>
    <nd ref="3181078419"/>
    <nd ref="7059780459"/>
    <nd ref="3181078417"/>
    <nd ref="3181078415"/>
    <nd ref="7059780457"/>
    <nd ref="7059780454"/>
    <nd ref="7059780456"/>
    <nd ref="7059780458"/>
    <nd ref="7059780443"/>
    <nd ref="7059780444"/>
    <nd ref="3181078414"/>
    <nd ref="3181078416"/>
    <nd ref="7059780453"/>
    <nd ref="3181078426"/>
    <nd ref="3181078424"/>
    <nd ref="7059780451"/>
    <nd ref="3181078431"/>
    <tag k="amenity" v="museum"/>
    <tag k="email" v="info@ecomuseo.it"/>
    <tag k="name" v="Ecomuseo dell'oro della Bessa"/>
    <tag k="phone" v="+39 015 351128"/>
    <tag k="tourism" v="museum"/>
    <tag k="wikidata" v="Q3868030"/>
    <tag k="wikipedia" v="it:Museo dell'oro e della Bessa"/>
  </way>
  <way id="1154517742">
    <nd ref="10737165411"/>
    <nd ref="10738631568"/>
    <nd ref="10737165410"/>
    <nd ref="10738631582"/>
    <nd ref="10737165409"/>
    <nd ref="10737165408"/>
    <nd ref="10737165407"/>
    <nd ref="10737165411"/>
    <tag k="building" v="yes"/>
    <tag k="name" v="Ecomuseo Branciforti"/>
    <tag k="operator" v="Comune di Leonforte"/>
    <tag k="tourism" v="museum"/>
  </way>
  <node id="631762468" lat="38.1088724" lon="13.3810131"/>
  <node id="8637459197" lat="38.1084024" lon="13.3811173"/>
  <node id="8637459198" lat="38.1085480" lon="13.3813027"/>
  <node id="8637459199" lat="38.1089971" lon="13.3811224"/>
  <node id="8637459200" lat="38.1084263" lon="13.3810889"/>
  <node id="8637459201" lat="38.1094968" lon="13.3798219"/>
  <node id="8637459202" lat="38.1093344" lon="13.3800141"/>
  <node id="8637459203" lat="38.1096118" lon="13.3803900"/>
  <node id="8637459204" lat="38.1097694" lon="13.3802022"/>
  <node id="8637459205" lat="38.1093475" lon="13.3799986"/>
  <node id="9547178685" lat="38.1085252" lon="13.3809730"/>
  <node id="9547178688" lat="38.1084865" lon="13.3810173"/>
  <node id="4081920136" lat="41.7460940" lon="12.3190161"/>
  <node id="4081920137" lat="41.7460021" lon="12.3191054"/>
  <node id="4081920138" lat="41.7458297" lon="12.3188651"/>
  <node id="4081920139" lat="41.7457515" lon="12.3189914"/>
  <node id="4081920140" lat="41.7459055" lon="12.3191979"/>
  <node id="4081920141" lat="41.7459032" lon="12.3192318"/>
  <node id="4081920142" lat="41.7457032" lon="12.3194844"/>
  <node id="4081920143" lat="41.7458480" lon="12.3197032"/>
  <node id="4081920144" lat="41.7459308" lon="12.3196015"/>
  <node id="4081920145" lat="41.7458320" lon="12.3194690"/>
  <node id="4081920146" lat="41.7459492" lon="12.3193242"/>
  <node id="4081920147" lat="41.7460021" lon="12.3192995"/>
  <node id="4081920148" lat="41.7460342" lon="12.3192533"/>
  <node id="4081920149" lat="41.7460802" lon="12.3192040"/>
  <node id="4081920150" lat="41.7461515" lon="12.3191178"/>
  <node id="5208426259" lat="41.7627839" lon="13.3683165"/>
  <node id="5208426315" lat="41.7627945" lon="13.3680590"/>
  <node id="5208426447" lat="41.7627118" lon="13.3682644"/>
  <node id="5208426260" lat="41.7628665" lon="13.3681111"/>
  <node id="10737165407" lat="37.6336433" lon="14.3880579"/>
  <node id="10737165408" lat="37.6336289" lon="14.3880513"/>
  <node id="10737165409" lat="37.6335768" lon="14.3882404"/>
  <node id="10737165410" lat="37.6336437" lon="14.3882681"/>
  <node id="10737165411" lat="37.6336931" lon="14.3880767"/>
  <node id="10738631568" lat="37.6336833" lon="14.3881146"/>
  <node id="10738631582" lat="37.6336348" lon="14.3882644"/>
  <node id="4810615246" lat="39.8280999" lon="16.3138553"/>
  <node id="4810615247" lat="39.8280561" lon="16.3139981"/>
  <node id="4810615248" lat="39.8279670" lon="16.3139505"/>
  <node id="4810615249" lat="39.8279923" lon="16.3137923"/>
  <node id="4811865445" lat="39.8293033" lon="16.3166243"/>
  <node id="4811865453" lat="39.8293435" lon="16.3166690"/>
  <node id="4811865468" lat="39.8292907" lon="16.3165196"/>
  <node id="4811865470" lat="39.8294354" lon="16.3166502"/>
  <node id="4811865473" lat="39.8294165" lon="16.3164938"/>
  <node id="4811865475" lat="39.8293373" lon="16.3166173"/>
  <node id="8591240988" lat="41.0910167" lon="14.2966739"/>
  <node id="8591240989" lat="41.0907582" lon="14.2962916"/>
  <node id="8591240990" lat="41.0901796" lon="14.2962279"/>
  <node id="8591240991" lat="41.0899234" lon="14.2963462"/>
  <node id="8591240992" lat="41.0895163" lon="14.2971746"/>
  <node id="8591240993" lat="41.0894203" lon="14.2977633"/>
  <node id="8591240994" lat="41.0895461" lon="14.2982276"/>
  <node id="8591240995" lat="41.0899715" lon="14.2981275"/>
  <node id="8591240996" lat="41.0904083" lon="14.2979363"/>
  <node id="8591240997" lat="41.0906050" lon="14.2976480"/>
  <node id="8591240998" lat="41.0911242" lon="14.2975024"/>
  <node id="7234718332" lat="40.3183707" lon="15.5770088"/>
  <node id="7234718333" lat="40.3183949" lon="15.5771411"/>
  <node id="7234718334" lat="40.3183606" lon="15.5771491"/>
  <node id="7234718335" lat="40.3183768" lon="15.5772655"/>
  <node id="7234718336" lat="40.3181811" lon="15.5773290"/>
  <node id="7234718337" lat="40.3181226" lon="15.5770856"/>
  <node id="3233301654" lat="44.3504429" lon="7.0178109"/>
  <node id="3233301656" lat="44.3504702" lon="7.0176043"/>
  <node id="3233301763" lat="44.3505593" lon="7.0176493"/>
  <node id="3233301764" lat="44.3505643" lon="7.0178432"/>
  <node id="3233301765" lat="44.3505709" lon="7.0175985"/>
  <node id="3233301766" lat="44.3505924" lon="7.0176539"/>
  <node id="7101145582" lat="45.0716636" lon="6.8850955"/>
  <node id="7101145583" lat="45.0716479" lon="6.8851663"/>
  <node id="7101145584" lat="45.0716008" lon="6.8851453"/>
  <node id="7101145585" lat="45.0715595" lon="6.8853313"/>
  <node id="7101145586" lat="45.0714904" lon="6.8853006"/>
  <node id="7101145587" lat="45.0714849" lon="6.8853253"/>
  <node id="7101145588" lat="45.0714020" lon="6.8852883"/>
  <node id="7101145589" lat="45.0714088" lon="6.8852574"/>
  <node id="7101145590" lat="45.0713861" lon="6.8852473"/>
  <node id="7101145591" lat="45.0713948" lon="6.8852083"/>
  <node id="7101145592" lat="45.0714148" lon="6.8852173"/>
  <node id="7101145593" lat="45.0714331" lon="6.8851351"/>
  <node id="7101145594" lat="45.0715040" lon="6.8851667"/>
  <node id="7101145595" lat="45.0715327" lon="6.8850373"/>
  <node id="1839881226" lat="44.9261671" lon="7.0669551"/>
  <node id="1839881227" lat="44.9262376" lon="7.0668930"/>
  <node id="1839881228" lat="44.9262496" lon="7.0672302"/>
  <node id="1839881229" lat="44.9262777" lon="7.0672054"/>
  <node id="1839881230" lat="44.9262889" lon="7.0673192"/>
  <node id="1839881231" lat="44.9263109" lon="7.0672998"/>
  <node id="1839881232" lat="44.9263397" lon="7.0671240"/>
  <node id="1839881233" lat="44.9263584" lon="7.0674072"/>
  <node id="1839881234" lat="44.9263678" lon="7.0670992"/>
  <node id="1839881235" lat="44.9263920" lon="7.0672374"/>
  <node id="1839881236" lat="44.9264185" lon="7.0672139"/>
  <node id="1839881237" lat="44.9264366" lon="7.0673383"/>
  <node id="4004915994" lat="45.0524485" lon="7.2954595"/>
  <node id="4004915995" lat="45.0523793" lon="7.2954434"/>
  <node id="4004915996" lat="45.0523253" lon="7.2958431"/>
  <node id="4004915997" lat="45.0523935" lon="7.2958578"/>
  <node id="977506635" lat="45.1780938" lon="7.3819552"/>
  <node id="977507606" lat="45.1779874" lon="7.3822651"/>
  <node id="977508140" lat="45.1779264" lon="7.3821690"/>
  <node id="977508282" lat="45.1781548" lon="7.3820513"/>
  <node id="2179512369" lat="45.4071679" lon="7.5785974"/>
  <node id="2179512377" lat="45.4072537" lon="7.5788376"/>
  <node id="6621245064" lat="45.4071525" lon="7.5788907"/>
  <node id="6621245065" lat="45.4070805" lon="7.5786665"/>
  <node id="2670231963" lat="45.5363659" lon="7.8555376"/>
  <node id="2670231964" lat="45.5364007" lon="7.8554618"/>
  <node id="2670231965" lat="45.5364027" lon="7.8556056"/>
  <node id="2670231967" lat="45.5364066" lon="7.8554927"/>
  <node id="2670231968" lat="45.5364134" lon="7.8554853"/>
  <node id="2670231970" lat="45.5364274" lon="7.8554324"/>
  <node id="2670231971" lat="45.5364768" lon="7.8555239"/>
  <node id="4874596020" lat="45.5280118" lon="7.9078090"/>
  <node id="4874596949" lat="45.5280274" lon="7.9078310"/>
  <node id="4874596950" lat="45.5280706" lon="7.9078583"/>
  <node id="4874596951" lat="45.5282103" lon="7.9077249"/>
  <node id="4874597171" lat="45.5281760" lon="7.9077720"/>
  <node id="4874597172" lat="45.5281232" lon="7.9075993"/>
  <node id="4874597222" lat="45.5279928" lon="7.9077811"/>
  <node id="4874597223" lat="45.5280474" lon="7.9078599"/>
  <node id="4874597224" lat="45.5281557" lon="7.9077426"/>
  <node id="4874597225" lat="45.5281584" lon="7.9076505"/>
  <node id="4874597321" lat="45.5280603" lon="7.9078445"/>
  <node id="4874598628" lat="45.5281976" lon="7.9077061"/>
  <node id="5236268451" lat="45.5794439" lon="7.9494442"/>
  <node id="5236268452" lat="45.5794504" lon="7.9494942"/>
  <node id="5236268454" lat="45.5792517" lon="7.9490431"/>
  <node id="5236268455" lat="45.5793725" lon="7.9494701"/>
  <node id="5236268456" lat="45.5793629" lon="7.9494162"/>
  <node id="5236268457" lat="45.5794374" lon="7.9493936"/>
  <node id="5236268458" lat="45.5793457" lon="7.9490296"/>
  <node id="5236268459" lat="45.5792644" lon="7.9491026"/>
  <node id="5236268460" lat="45.5792611" lon="7.9490874"/>
  <node id="5236268461" lat="45.5792587" lon="7.9490759"/>
  <node id="5236268462" lat="45.5792847" lon="7.9488776"/>
  <node id="5236268463" lat="45.5792970" lon="7.9488758"/>
  <node id="5236268464" lat="45.5793050" lon="7.9489417"/>
  <node id="5236268465" lat="45.5793248" lon="7.9489331"/>
  <node id="5236268466" lat="45.5791809" lon="7.9488074"/>
  <node id="5236268467" lat="45.5792072" lon="7.9487888"/>
  <node id="5236268468" lat="45.5792305" lon="7.9488590"/>
  <node id="5236268469" lat="45.5792785" lon="7.9488420"/>
  <node id="5236268470" lat="45.5792753" lon="7.9490397"/>
  <node id="5236268471" lat="45.5792715" lon="7.9490098"/>
  <node id="5236268472" lat="45.5792505" lon="7.9488835"/>
  <node id="5236268473" lat="45.5792037" lon="7.9489042"/>
  <node id="5236268474" lat="45.5793757" lon="7.9492230"/>
  <node id="5236268475" lat="45.5793236" lon="7.9492556"/>
  <node id="5236268476" lat="45.5793021" lon="7.9492663"/>
  <node id="5236268477" lat="45.5792913" lon="7.9492313"/>
  <node id="5236268478" lat="45.5793747" lon="7.9491585"/>
  <node id="5236268479" lat="45.5793295" lon="7.9491755"/>
  <node id="5236268480" lat="45.5793116" lon="7.9491823"/>
  <node id="5236268481" lat="45.5793875" lon="7.9492156"/>
  <node id="5236268482" lat="45.5792799" lon="7.9491943"/>
  <node id="5236268483" lat="45.5792651" lon="7.9491052"/>
  <node id="5236268484" lat="45.5793090" lon="7.9490886"/>
  <node id="5236268485" lat="45.5793550" lon="7.9490711"/>
  <node id="5236268486" lat="45.5794289" lon="7.9493292"/>
  <node id="5236268487" lat="45.5794292" lon="7.9493320"/>
  <node id="5236268488" lat="45.5793534" lon="7.9493587"/>
  <node id="5236268489" lat="45.5793412" lon="7.9493179"/>
  <node id="5236268492" lat="45.5793825" lon="7.9492845"/>
  <node id="5236268493" lat="45.5794167" lon="7.9492578"/>
  <node id="5236268453" lat="45.5793810" lon="7.9495176"/>
  <node id="913816511" lat="45.5941049" lon="7.9493149"/>
  <node id="913816557" lat="45.5941202" lon="7.9494584"/>
  <node id="913816586" lat="45.5940753" lon="7.9492093"/>
  <node id="913816623" lat="45.5941921" lon="7.9494272"/>
  <node id="913816776" lat="45.5942121" lon="7.9494964"/>
  <node id="913817089" lat="45.5937903" lon="7.9493729"/>
  <node id="913817177" lat="45.5938932" lon="7.9494391"/>
  <node id="5251774287" lat="45.5940485" lon="7.9493466"/>
  <node id="5251774299" lat="45.5941274" lon="7.9494532"/>
  <node id="7617434031" lat="45.5941258" lon="7.9494180"/>
  <node id="7617434032" lat="45.5940771" lon="7.9494451"/>
  <node id="7617434033" lat="45.5940972" lon="7.9493175"/>
  <node id="913816128" lat="45.5941402" lon="7.9495301"/>
  <node id="5251774251" lat="45.5939322" lon="7.9498853"/>
  <node id="5251774258" lat="45.5941710" lon="7.9496043"/>
  <node id="5251774260" lat="45.5941983" lon="7.9497017"/>
  <node id="5251774263" lat="45.5939677" lon="7.9497081"/>
  <node id="5251774265" lat="45.5940078" lon="7.9498567"/>
  <node id="5251774267" lat="45.5940041" lon="7.9498438"/>
  <node id="5251774270" lat="45.5940256" lon="7.9497975"/>
  <node id="5251774271" lat="45.5940401" lon="7.9498385"/>
  <node id="5251774273" lat="45.5938958" lon="7.9497546"/>
  <node id="5251774277" lat="45.5938485" lon="7.9495830"/>
  <node id="5251774295" lat="45.5941474" lon="7.9495275"/>
  <node id="4762233820" lat="45.5176075" lon="8.0052982"/>
  <node id="4762234227" lat="45.5175781" lon="8.0052929"/>
  <node id="4762239447" lat="45.5176095" lon="8.0052623"/>
  <node id="4762260682" lat="45.5175805" lon="8.0052573"/>
  <node id="3181078414" lat="45.4828952" lon="8.0240564"/>
  <node id="3181078415" lat="45.4828702" lon="8.0239603"/>
  <node id="3181078416" lat="45.4829008" lon="8.0240630"/>
  <node id="3181078417" lat="45.4828746" lon="8.0239664"/>
  <node id="3181078419" lat="45.4828593" lon="8.0238762"/>
  <node id="3181078423" lat="45.4828882" lon="8.0238352"/>
  <node id="3181078424" lat="45.4829100" lon="8.0240330"/>
  <node id="3181078425" lat="45.4828620" lon="8.0238737"/>
  <node id="3181078426" lat="45.4829162" lon="8.0240429"/>
  <node id="3181078431" lat="45.4829677" lon="8.0239484"/>
  <node id="7059780443" lat="45.4828141" lon="8.0240553"/>
  <node id="7059780444" lat="45.4828558" lon="8.0241145"/>
  <node id="7059780451" lat="45.4829372" lon="8.0239931"/>
  <node id="7059780453" lat="45.4829118" lon="8.0240492"/>
  <node id="7059780454" lat="45.4828582" lon="8.0239727"/>
  <node id="7059780456" lat="45.4828536" lon="8.0239789"/>
  <node id="7059780457" lat="45.4828600" lon="8.0239747"/>
  <node id="7059780458" lat="45.4828583" lon="8.0239880"/>
  <node id="7059780459" lat="45.4828969" lon="8.0239339"/>
  <node id="5672641383" lat="45.6617586" lon="8.1516135"/>
  <node id="5672661117" lat="45.6618755" lon="8.1516073"/>
  <node id="5672663761" lat="45.6617916" lon="8.1514077"/>
  <node id="5672669933" lat="45.6618703" lon="8.1516169"/>
  <node id="5672671460" lat="45.6618021" lon="8.1514371"/>
  <node id="5672672543" lat="45.6617369" lon="8.1515251"/>
  <node id="5672676072" lat="45.6617205" lon="8.1515420"/>
  <node id="5672678500" lat="45.6618145" lon="8.1517184"/>
  <node id="5672680241" lat="45.6617247" lon="8.1514942"/>
  <node id="5672681823" lat="45.6618124" lon="8.1514659"/>
  <node id="5672689860" lat="45.6617141" lon="8.1514675"/>
  <node id="5672690636" lat="45.6618403" lon="8.1515321"/>
  <node id="7038215269" lat="45.5324799" lon="8.1854401"/>
  <node id="7038224440" lat="45.5324823" lon="8.1853711"/>
  <node id="7038233627" lat="45.5326528" lon="8.1854157"/>
  <node id="7038249601" lat="45.5325058" lon="8.1854059"/>
  <node id="7038258806" lat="45.5325569" lon="8.1852701"/>
  <node id="7038219448" lat="45.5325557" lon="8.1854807"/>
  <node id="7038240325" lat="45.5325292" lon="8.1855157"/>
  <node id="7038267627" lat="45.5325811" lon="8.1855172"/>
  <node id="5978187395" lat="45.6352460" lon="8.1985194"/>
  <node id="5978188094" lat="45.6352015" lon="8.1985299"/>
  <node id="5978191292" lat="45.6351999" lon="8.1985463"/>
  <node id="5978192170" lat="45.6352213" lon="8.1985125"/>
  <node id="5978192757" lat="45.6352148" lon="8.1985442"/>
  <node id="5978192894" lat="45.6351307" lon="8.1985230"/>
  <node id="5978194885" lat="45.6351291" lon="8.1985394"/>
  <node id="5978187331" lat="45.6354658" lon="8.1986342"/>
  <node id="5978188269" lat="45.6354053" lon="8.1986104"/>
  <node id="5978188721" lat="45.6353875" lon="8.1986805"/>
  <node id="5978189992" lat="45.6352388" lon="8.1985539"/>
  <node id="5978190733" lat="45.6354419" lon="8.1987699"/>
  <node id="5978191119" lat="45.6353035" lon="8.1986659"/>
  <node id="5978193069" lat="45.6353702" lon="8.1985970"/>
  <node id="5978193422" lat="45.6353769" lon="8.1987498"/>
  <node id="5978194211" lat="45.6353122" lon="8.1985916"/>
  <node id="1784809278" lat="45.9150601" lon="7.6335524"/>
  <node id="1784809283" lat="45.9150926" lon="7.6336462"/>
  <node id="1784809285" lat="45.9151558" lon="7.6336449"/>
  <node id="1784809286" lat="45.9151581" lon="7.6335561"/>
  <node id="3048859282" lat="45.9150589" lon="7.6336439"/>
  <node id="2199874932" lat="45.8192550" lon="8.0288494"/>
  <node id="2199874936" lat="45.8192764" lon="8.0287533"/>
  <node id="2199874943" lat="45.8193277" lon="8.0288828"/>
  <node id="2199874946" lat="45.8193491" lon="8.0287867"/>
  <node id="3400111193" lat="45.7574027" lon="8.3026093"/>
  <node id="3400111195" lat="45.7574358" lon="8.3026890"/>
  <node id="3400111197" lat="45.7574649" lon="8.3025563"/>
  <node id="3400111201" lat="45.7574980" lon="8.3026361"/>
  <node id="6521030140" lat="45.8694652" lon="8.3622634"/>
  <node id="6521030141" lat="45.8694410" lon="8.3622340"/>
  <node id="6521030142" lat="45.8694058" lon="8.3622937"/>
  <node id="6521030143" lat="45.8694300" lon="8.3623231"/>
  <node id="2893211569" lat="45.3305215" lon="8.8600678"/>
  <node id="2893211571" lat="45.3305610" lon="8.8602349"/>
  <node id="2893211573" lat="45.3306577" lon="8.8600026"/>
  <node id="2893211575" lat="45.3306972" lon="8.8601697"/>
  <node id="8274694163" lat="45.9608012" lon="8.4462559"/>
  <node id="8274694164" lat="45.9607154" lon="8.4462451"/>
  <node id="8274694165" lat="45.9607098" lon="8.4464208"/>
  <node id="8274694166" lat="45.9607965" lon="8.4464262"/>
  <node id="5467725150" lat="45.8163770" lon="9.3224190"/>
  <node id="5467725151" lat="45.8163089" lon="9.3225722"/>
  <node id="5467725152" lat="45.8162045" lon="9.3224767"/>
  <node id="5467725153" lat="45.8162725" lon="9.3223235"/>
  <node id="3079165052" lat="46.0819693" lon="9.3204888"/>
  <node id="3079165053" lat="46.0819743" lon="9.3203027"/>
  <node id="3079165064" lat="46.0820981" lon="9.3204961"/>
  <node id="3079165066" lat="46.0821027" lon="9.3203099"/>
  <node id="5645955176" lat="46.0821011" lon="9.3203826"/>
  <node id="3526229839" lat="44.0452222" lon="10.7538265"/>
  <node id="3526230311" lat="44.0452577" lon="10.7538289"/>
  <node id="3526230572" lat="44.0451523" lon="10.7538216"/>
  <node id="3526230633" lat="44.0451252" lon="10.7538197"/>
  <node id="3526230771" lat="44.0452512" lon="10.7540134"/>
  <node id="3526230774" lat="44.0451187" lon="10.7540044"/>
  <node id="3526230861" lat="44.0452106" lon="10.7540106"/>
  <node id="2808654378" lat="44.0058076" lon="10.8461425"/>
  <node id="2808654381" lat="44.0058234" lon="10.8461382"/>
  <node id="2808654382" lat="44.0058393" lon="10.8461410"/>
  <node id="2808654383" lat="44.0058538" lon="10.8461507"/>
  <node id="2808654384" lat="44.0058652" lon="10.8461663"/>
  <node id="2808654385" lat="44.0058726" lon="10.8461862"/>
  <node id="2808654394" lat="44.0057764" lon="10.8461923"/>
  <node id="2808654395" lat="44.0057828" lon="10.8461707"/>
  <node id="2808654396" lat="44.0057937" lon="10.8461536"/>
  <node id="2939655100" lat="44.0058744" lon="10.8461971"/>
  <node id="2939655201" lat="44.0058695" lon="10.8461759"/>
  <node id="2939655202" lat="44.0058600" lon="10.8461579"/>
  <node id="2939655203" lat="44.0058468" lon="10.8461450"/>
  <node id="2939655204" lat="44.0058314" lon="10.8461387"/>
  <node id="2939655205" lat="44.0058154" lon="10.8461394"/>
  <node id="2939655206" lat="44.0058003" lon="10.8461473"/>
  <node id="2939655207" lat="44.0057879" lon="10.8461613"/>
  <node id="2939655208" lat="44.0057790" lon="10.8461811"/>
  <node id="2939655209" lat="44.0057753" lon="10.8462039"/>
  <node id="2808654379" lat="44.0058750" lon="10.8462083"/>
  <node id="2808654380" lat="44.0058722" lon="10.8462303"/>
  <node id="2808654386" lat="44.0058645" lon="10.8462499"/>
  <node id="2808654387" lat="44.0058522" lon="10.8462657"/>
  <node id="2808654388" lat="44.0058367" lon="10.8462749"/>
  <node id="2808654389" lat="44.0058200" lon="10.8462764"/>
  <node id="2808654390" lat="44.0058039" lon="10.8462702"/>
  <node id="2808654391" lat="44.0057901" lon="10.8462568"/>
  <node id="2808654392" lat="44.0057803" lon="10.8462379"/>
  <node id="2808654393" lat="44.0057756" lon="10.8462155"/>
  <node id="2939655099" lat="44.0058742" lon="10.8462194"/>
  <node id="2939655210" lat="44.0057772" lon="10.8462270"/>
  <node id="2939655211" lat="44.0057846" lon="10.8462480"/>
  <node id="2939655212" lat="44.0057966" lon="10.8462643"/>
  <node id="2939655213" lat="44.0058117" lon="10.8462742"/>
  <node id="2939655214" lat="44.0058284" lon="10.8462766"/>
  <node id="2939655215" lat="44.0058447" lon="10.8462712"/>
  <node id="2939655216" lat="44.0058588" lon="10.8462585"/>
  <node id="2939655217" lat="44.0058689" lon="10.8462405"/>
  <node id="4693407634" lat="44.0574917" lon="10.8484165"/>
  <node id="4693407795" lat="44.0574118" lon="10.8483468"/>
  <node id="4693407804" lat="44.0574247" lon="10.8483182"/>
  <node id="4693407814" lat="44.0574131" lon="10.8483080"/>
  <node id="4693407850" lat="44.0575087" lon="10.8480959"/>
  <node id="4693407867" lat="44.0575665" lon="10.8482506"/>
  <node id="7149902798" lat="44.0575427" lon="10.8482299"/>
  <node id="7149902803" lat="44.0575764" lon="10.8481551"/>
  <node id="1621870477" lat="44.5143803" lon="10.8265252"/>
  <node id="1621870464" lat="44.5142462" lon="10.8267297"/>
  <node id="1621870473" lat="44.5143085" lon="10.8268094"/>
  <node id="1621870482" lat="44.5144432" lon="10.8266143"/>
  <node id="1919390466" lat="44.4493554" lon="12.0493699"/>
  <node id="1919390502" lat="44.4493983" lon="12.0494284"/>
  <node id="1919390511" lat="44.4494102" lon="12.0492029"/>
  <node id="1919390518" lat="44.4494179" lon="12.0494004"/>
  <node id="1919390533" lat="44.4494419" lon="12.0492460"/>
  <node id="1919390537" lat="44.4494522" lon="12.0491427"/>
  <node id="1919390552" lat="44.4494821" lon="12.0491834"/>
  <node id="1919390572" lat="44.4495170" lon="12.0492809"/>
  <node id="1919390580" lat="44.4495307" lon="12.0492613"/>
  <node id="1919390583" lat="44.4495368" lon="12.0492695"/>
  <node id="1919390591" lat="44.4495471" lon="12.0490903"/>
  <node id="1919390604" lat="44.4495566" lon="12.0493347"/>
  <node id="1919390610" lat="44.4495675" lon="12.0496040"/>
  <node id="1919390618" lat="44.4495801" lon="12.0493098"/>
  <node id="1919390642" lat="44.4496060" lon="12.0491703"/>
  <node id="1919390651" lat="44.4496191" lon="12.0494847"/>
  <node id="1919390663" lat="44.4496354" lon="12.0495068"/>
  <node id="1919390679" lat="44.4496627" lon="12.0494222"/>
  <node id="2676622631" lat="45.7786646" lon="11.2279864"/>
  <node id="2676622632" lat="45.7786678" lon="11.2276064"/>
  <node id="2676622633" lat="45.7788220" lon="11.2280094"/>
  <node id="1864731959" lat="45.9418364" lon="11.4368462"/>
  <node id="1864731960" lat="45.9418756" lon="11.4369244"/>
  <node id="1864731967" lat="45.9420186" lon="11.4366713"/>
  <node id="1864731978" lat="45.9420580" lon="11.4367499"/>
  <node id="4314209992" lat="46.1549688" lon="11.7331917"/>
  <node id="4314210000" lat="46.1550125" lon="11.7333070"/>
  <node id="4314210004" lat="46.1550281" lon="11.7331449"/>
  <node id="4314210016" lat="46.1550717" lon="11.7332603"/>
  <node id="2421778470" lat="45.9093127" lon="12.5063230"/>
  <node id="3945723640" lat="45.9090348" lon="12.5068572"/>
  <node id="3945723642" lat="45.9090425" lon="12.5067319"/>
  <node id="3945723643" lat="45.9090502" lon="12.5067798"/>
  <node id="3945723647" lat="45.9091142" lon="12.5066988"/>
  <node id="3945723649" lat="45.9091181" lon="12.5066472"/>
  <node id="3945723654" lat="45.9092565" lon="12.5069935"/>
  <node id="3945725757" lat="45.9093154" lon="12.5068222"/>
  <node id="3945725761" lat="45.9094180" lon="12.5063507"/>

</osm>
