<?xml version="1.0" encoding="UTF-8"?>
<osm version="0.6" generator="Overpass API 0.7.60 f4c14d41">
<note>The data included in this document is from www.openstreetmap.org. The data is made available under ODbL.</note>
<meta osm_base="2023-04-16T02:48:54Z" areas="2023-04-15T20:08:54Z"/>

  <node id="2347917158" lat="43.5456560" lon="10.3083228">
    <tag k="artist_name" v="Gunter Demnig"/>
    <tag k="historic" v="memorial"/>
    <tag k="inscription" v="Qui abitava Enrico Menasci nato 1931 arrestato 16.10.1943 Roma deportato Auschwitz assassinato 6.2.1944"/>
    <tag k="memorial" v="stolperstein"/>
    <tag k="memorial:wikidata" v="Q314003"/>
    <tag k="memorial:wikipedia" v="it:Pietre d'inciampo"/>
    <tag k="name" v="Enrico Menasci"/>
    <tag k="person:date_of_birth" v="1931"/>
    <tag k="person:date_of_death" v="1944-02-06"/>
    <tag k="start_date" v="2013-01-17"/>
    <tag k="wikimedia_commons" v="File:Stolperstein für Enrico Menasci 2 (Livorno).jpg"/>
  </node>
  <node id="2347917164" lat="43.5511446" lon="10.3082155">
    <tag k="addr:street" v="Via Fiume"/>
    <tag k="artist_name" v="Gunter Demnig"/>
    <tag k="historic" v="memorial"/>
    <tag k="inscription" v="Qui abitava Franca Baruch nata 1943 arrestata 20.12.1943 Gabbro (LI) deportata Auschwitz assassinata 26.2.1944"/>
    <tag k="memorial" v="stolperstein"/>
    <tag k="memorial:wikidata" v="Q314003"/>
    <tag k="memorial:wikipedia" v="it:Pietre d'inciampo"/>
    <tag k="name" v="Franca Baruch"/>
    <tag k="person:date_of_birth" v="1943"/>
    <tag k="person:date_of_death" v="1944-02-26"/>
    <tag k="start_date" v="2013-01-17"/>
    <tag k="wikimedia_commons" v="File:Stolperstein für Franca Baruch 2 (Livorno).jpg"/>
  </node>
  <node id="2347917176" lat="43.5486794" lon="10.3098366">
    <tag k="artist_name" v="Gunter Demnig"/>
    <tag k="historic" v="memorial"/>
    <tag k="inscription" v="Qui abitava Perla Beniacar nata 1935 arrestata 25.1.1944 Borgo a Buggiano deportata Auschwitz assassinata 26.2.1944"/>
    <tag k="memorial" v="stolperstein"/>
    <tag k="memorial:wikidata" v="Q314003"/>
    <tag k="memorial:wikipedia" v="it:Pietre d'inciampo"/>
    <tag k="name" v="Perla Beniacar"/>
    <tag k="person:date_of_birth" v="1935"/>
    <tag k="person:date_of_death" v="1944-02-26"/>
    <tag k="start_date" v="2013-01-17"/>
    <tag k="wikimedia_commons" v="File:Stolperstein für Perla Beniacar (Livorno).jpg"/>
  </node>
  <node id="2347917188" lat="43.5456403" lon="10.3083317">
    <tag k="artist_name" v="Gunter Demnig"/>
    <tag k="historic" v="memorial"/>
    <tag k="inscription" v="Qui abitava Raffaello Menasci nato 1896 arrestato 16.10.1943 Roma deportato Auschwitz morto 1944 Varsavia"/>
    <tag k="memorial" v="stolperstein"/>
    <tag k="memorial:wikidata" v="Q314003"/>
    <tag k="memorial:wikipedia" v="it:Pietre d'inciampo"/>
    <tag k="name" v="Raffaello Menasci"/>
    <tag k="person:date_of_birth" v="1896"/>
    <tag k="person:date_of_death" v="1944"/>
    <tag k="start_date" v="2013-01-17"/>
    <tag k="wikimedia_commons" v="File:Stolperstein für Raffaello Menasci 2 (Livorno).jpg"/>
  </node>
  <node id="2661680161" lat="43.5489413" lon="10.3083626">
    <tag k="artist_name" v="Gunter Demnig"/>
    <tag k="historic" v="memorial"/>
    <tag k="inscription" v="Qui abitava Frida Misul nata 1919 arrestata 1.4.1944 deportata Auschwitz sopravvissuta"/>
    <tag k="memorial" v="stolperstein"/>
    <tag k="name" v="Frida Misul"/>
    <tag k="person:date_of_birth" v="1919"/>
    <tag k="subject:wikidata" v="Q18812145"/>
    <tag k="wikimedia_commons" v="File:Stolperstein für Frida Misul (Livorno).jpg"/>
  </node>
  <node id="2661680162" lat="43.5522597" lon="10.3099786">
    <tag k="addr:street" v="Via della Posta"/>
    <tag k="artist_name" v="Gunter Demnig"/>
    <tag k="historic" v="memorial"/>
    <tag k="inscription" v="Qui abitava Isacco Bayona nato 1926 arrestato 20.12.1943 deportato Auschwitz sopravvissuto"/>
    <tag k="memorial" v="stolperstein"/>
    <tag k="memorial:wikidata" v="Q314003"/>
    <tag k="memorial:wikipedia" v="it:Pietre d'inciampo"/>
    <tag k="name" v="Isacco Bayona"/>
    <tag k="person:date_of_birth" v="1926"/>
    <tag k="wikimedia_commons" v="File:Stolperstein für Isacco Bayona 2 (Livorno).jpg"/>
  </node>
  <node id="2995968044" lat="46.6710831" lon="11.1540913">
    <tag k="historic" v="memorial"/>
    <tag k="inscription" v="Hier wohnte / Qui abitava Domenikus Geschini Jg. /Nato 1900 Verhaftet / Arrestato 20.12.1944 Dachau Ermordet /Ucciso 24.1.1945"/>
    <tag k="memorial:addr" v="Freiheitsstraße 141"/>
    <tag k="memorial:name" v="Domenikus Geschini"/>
    <tag k="memorial:type" v="stolperstein"/>
    <tag k="network" v="Stolpersteine Meran"/>
    <tag k="source" v="survey"/>
  </node>
  <node id="3310917114" lat="43.5506584" lon="10.3114033">
    <tag k="addr:housenumber" v="12"/>
    <tag k="addr:street" v="Via della Coroncina"/>
    <tag k="artist_name" v="Gunter Demnig"/>
    <tag k="historic" v="memorial"/>
    <tag k="inscription" v="Qui abitava Dina Bona Attal nata 1899 arrestata 8.12.1943 deportata Auschwitz assassinata 6.2.1944"/>
    <tag k="memorial" v="stolperstein"/>
    <tag k="memorial:wikidata" v="Q314003"/>
    <tag k="memorial:wikipedia" v="it:Pietre d'inciampo"/>
    <tag k="name" v="Dina Bona Attal"/>
    <tag k="person:date_of_birth" v="1899"/>
    <tag k="person:date_of_death" v="1944-02-06"/>
    <tag k="wikimedia_commons" v="File:Stolperstein für Dina Bona Attal 2 (Livorno).jpg"/>
  </node>
  <node id="3310917115" lat="43.5506522" lon="10.3113864">
    <tag k="addr:housenumber" v="12"/>
    <tag k="addr:street" v="Via della Coroncina"/>
    <tag k="artist_name" v="Gunter Demnig"/>
    <tag k="historic" v="memorial"/>
    <tag k="inscription" v="Qui abitava Dino Bueno nato 1922 arrestato 8.12.1943 deportato Auschwitz assassinato"/>
    <tag k="memorial" v="stolperstein"/>
    <tag k="memorial:wikidata" v="Q314003"/>
    <tag k="memorial:wikipedia" v="it:Pietre d'inciampo"/>
    <tag k="name" v="Dino Bueno"/>
    <tag k="person:date_of_birth" v="1922"/>
    <tag k="wikimedia_commons" v="File:Stolperstein für Dino Bueno 2 (Livorno).jpg"/>
  </node>
  <node id="3954355257" lat="45.5975791" lon="9.8824226">
    <tag k="artist_name" v="Gunter Demnig"/>
    <tag k="historic" v="memorial"/>
    <tag k="image" v="http://bit.do/c6fid"/>
    <tag k="image_direction" v="http://bit.do/c6fid"/>
    <tag k="memorial" v="stolperstein"/>
    <tag k="memorial:name" v="Mario Ruggeri"/>
    <tag k="memorial:text" v="Nato a Palazzolo S/O il 10-2-1924. di professione operaio e vigile del fuoco volontario. INTERNATO MILITARE ARRESTATO 8.9.1943 ASSASSINATO 13.1.1945 SCHAUSSEE"/>
    <tag k="memorial:wikidata" v="Q314003"/>
    <tag k="memorial:wikipedia" v="it:Pietre d'inciampo"/>
    <tag k="website" v="http://www.comune.palazzolosulloglio.bs.it/sites/default/files/allegati/documenti/6587/ruggeri_mario.pdf"/>
  </node>
  <node id="4172872504" lat="45.5728898" lon="9.9020288">
    <tag k="addr:street" v="Via Raspina"/>
    <tag k="artist_name" v="Gunter Demning"/>
    <tag k="historic" v="memorial"/>
    <tag k="image_direction" v="http://bit.do/c6fi2"/>
    <tag k="inscription" v="QUI ABITAVA BATTISTA FUMAGALLI di Giuseppe e Brescianini Lucia Rita. Nato a Palazzolo S/O il 1-3-1923. di professione contadino INTERNATO MILITARE ARRESTATO 8.9.1943 ASSASSINATO 16.9.1944 HOFFMANNSTHAL"/>
    <tag k="memorial" v="stolperstein"/>
    <tag k="memorial:name" v="Battista Fumagalli"/>
    <tag k="memorial:text" v="QUI ABITAVA BATTISTA FUMAGALLI di Giuseppe e Brescianini Lucia Rita. Nato a Palazzolo S/O il 1-3-1923. di professione contadino INTERNATO MILITARE ARRESTATO 8.9.1943 ASSASSINATO 16.9.1944 HOFFMANNSTHAL"/>
    <tag k="name" v="Pietra d'inciampo"/>
    <tag k="website" v="http://bit.do/c6fi8"/>
  </node>
  <node id="4179089493" lat="46.6726299" lon="11.1578234">
    <tag k="historic" v="memorial"/>
    <tag k="inscription" v="Hier wohnte/Qui abitava Caterina Robitschek Breuer Jg./Nato 1875 dep. 18.9.1943 Reichenau ermordet/ucciso Auschwitz 7.3.1944"/>
    <tag k="memorial" v="stolperstein"/>
    <tag k="memorial:text" v="Hier wohnte/Qui abitava Caterina Robitschek Breuer Jg./Nato 1875 dep. 18.9.1943 Reichenau ermordet/ucciso Auschwitz 7.3.1944"/>
    <tag k="memorial:type" v="stolperstein"/>
    <tag k="name" v="Caterina Robitschek Breuer"/>
    <tag k="network" v="Stolpersteine Meran"/>
    <tag k="object:city" v="Meran - Merano"/>
    <tag k="object:city:de" v="Meran"/>
    <tag k="object:city:it" v="Merano"/>
    <tag k="object:country" v="IT"/>
    <tag k="object:housenumber" v="15"/>
    <tag k="object:quarter" v="Maria Himmelfahrt - S. Maria Assunta"/>
    <tag k="object:quarter:de" v="Maria Himmelfahrt"/>
    <tag k="object:quarter:it" v="S. Maria Assunta"/>
    <tag k="object:street" v="Meinhardstraße - Via Meinardo"/>
    <tag k="object:street:de" v="Meinhardstraße"/>
    <tag k="object:street:it" v="Via Meinardo"/>
    <tag k="object:suburb" v="Untermais - Maia Bassa"/>
    <tag k="object:suburb:de" v="Untermais"/>
    <tag k="object:suburb:it" v="Maia Bassa"/>
    <tag k="person:date_of_birth" v="1875"/>
    <tag k="person:date_of_death" v="07.03.1944"/>
    <tag k="website" v="http://www.nomidellashoah.it/1scheda.asp?id=943"/>
  </node>
  <node id="4179089494" lat="46.6726385" lon="11.1577964">
    <tag k="historic" v="memorial"/>
    <tag k="inscription" v="Hier wohnte/Qui abitava Emma Saphir Götz Jg./Nato 1870 dep. 16.9.1943 Reichenau ermordet/ucciso 2.2.1944"/>
    <tag k="memorial" v="stolperstein"/>
    <tag k="memorial:text" v="Hier wohnte/Qui abitava Emma Saphir Götz Jg./Nato 1870 dep. 16.9.1943 Reichenau ermordet/ucciso 2.2.1944"/>
    <tag k="memorial:type" v="stolperstein"/>
    <tag k="name" v="Emma Saphir Götz"/>
    <tag k="network" v="Stolpersteine Meran"/>
    <tag k="object:city" v="Meran - Merano"/>
    <tag k="object:city:de" v="Meran"/>
    <tag k="object:city:it" v="Merano"/>
    <tag k="object:country" v="IT"/>
    <tag k="object:housenumber" v="15"/>
    <tag k="object:quarter" v="Maria Himmelfahrt - S. Maria Assunta"/>
    <tag k="object:quarter:de" v="Maria Himmelfahrt"/>
    <tag k="object:quarter:it" v="S. Maria Assunta"/>
    <tag k="object:street" v="Meinhardstraße - Via Meinardo"/>
    <tag k="object:street:de" v="Meinhardstraße"/>
    <tag k="object:street:it" v="Via Meinardo"/>
    <tag k="object:suburb" v="Untermais - Maia Bassa"/>
    <tag k="object:suburb:de" v="Untermais"/>
    <tag k="object:suburb:it" v="Maia Bassa"/>
    <tag k="person:date_of_birth" v="1870"/>
    <tag k="person:date_of_death" v="02.02.1944"/>
    <tag k="website" v="http://www.nomidellashoah.it/1scheda.asp?id=6895"/>
  </node>
  <node id="4179089495" lat="46.6726296" lon="11.1577615">
    <tag k="historic" v="memorial"/>
    <tag k="inscription" v="Hier wohnte/Qui abitava Guglielmo Breuer Jg./Nato 1871 dep. 16.9.1943 Reichenau ermordet/ucciso Auschwitz 7.3.1944"/>
    <tag k="memorial" v="stolperstein"/>
    <tag k="memorial:text" v="Hier wohnte/Qui abitava Guglielmo Breuer Jg./Nato 1871 dep. 16.9.1943 Reichenau ermordet/ucciso Auschwitz 7.3.1944"/>
    <tag k="memorial:type" v="stolperstein"/>
    <tag k="name" v="Guglielmo Breuer"/>
    <tag k="network" v="Stolpersteine Meran"/>
    <tag k="object:city" v="Meran - Merano"/>
    <tag k="object:city:de" v="Meran"/>
    <tag k="object:city:it" v="Merano"/>
    <tag k="object:country" v="IT"/>
    <tag k="object:housenumber" v="15"/>
    <tag k="object:quarter" v="Maria Himmelfahrt - S. Maria Assunta"/>
    <tag k="object:quarter:de" v="Maria Himmelfahrt"/>
    <tag k="object:quarter:it" v="S. Maria Assunta"/>
    <tag k="object:street" v="Meinhardstraße - Via Meinardo"/>
    <tag k="object:street:de" v="Meinhardstraße"/>
    <tag k="object:street:it" v="Via Meinardo"/>
    <tag k="object:suburb" v="Untermais - Maia Bassa"/>
    <tag k="object:suburb:de" v="Untermais"/>
    <tag k="object:suburb:it" v="Maia Bassa"/>
    <tag k="person:date_of_birth" v="1871"/>
    <tag k="person:date_of_death" v="07.03.1944"/>
    <tag k="website" v="http://www.nomidellashoah.it/1scheda.asp?id=945"/>
  </node>
  <node id="4179089496" lat="46.6726282" lon="11.1577909">
    <tag k="historic" v="memorial"/>
    <tag k="inscription" v="Hier wohnte/Qui abitava Leopold Götz Jg./Nato 1919 dep. 24.9.1944 Lager Bozen/Bolzano ermordet/ucciso Datum unbekannt in Data ignato"/>
    <tag k="memorial" v="stolperstein"/>
    <tag k="memorial:text" v="Hier wohnte/Qui abitava Leopold Götz Jg./Nato 1919 dep. 24.9.1944 Lager Bozen/Bolzano ermordet/ucciso Datum unbekannt in Data ignato"/>
    <tag k="memorial:type" v="stolperstein"/>
    <tag k="name" v="Leopold Götz"/>
    <tag k="network" v="Stolpersteine Meran"/>
    <tag k="object:city" v="Meran - Merano"/>
    <tag k="object:city:de" v="Meran"/>
    <tag k="object:city:it" v="Merano"/>
    <tag k="object:country" v="IT"/>
    <tag k="object:housenumber" v="15"/>
    <tag k="object:quarter" v="Maria Himmelfahrt - S. Maria Assunta"/>
    <tag k="object:quarter:de" v="Maria Himmelfahrt"/>
    <tag k="object:quarter:it" v="S. Maria Assunta"/>
    <tag k="object:street" v="Meinhardstraße - Via Meinardo"/>
    <tag k="object:street:de" v="Meinhardstraße"/>
    <tag k="object:street:it" v="Via Meinardo"/>
    <tag k="object:suburb" v="Untermais - Maia Bassa"/>
    <tag k="object:suburb:de" v="Untermais"/>
    <tag k="object:suburb:it" v="Maia Bassa"/>
    <tag k="person:date_of_birth" v="1919"/>
    <tag k="website" v="http://www.nomidellashoah.it/1scheda.asp?id=3197"/>
  </node>
  <node id="4179089497" lat="46.6726398" lon="11.1577724">
    <tag k="historic" v="memorial"/>
    <tag k="inscription" v="Hier wohnte/Qui abitava Maurizio Götz Jg./Nato 1887 dep. 16.9.1943 Reichenau ermordet/ucciso Auschwitz 7.3.1944"/>
    <tag k="memorial" v="stolperstein"/>
    <tag k="memorial:text" v="Hier wohnte/Qui abitava Maurizio Götz Jg./Nato 1887 dep. 16.9.1943 Reichenau ermordet/ucciso Auschwitz 7.3.1944"/>
    <tag k="memorial:type" v="stolperstein"/>
    <tag k="name" v="Maurizio Götz"/>
    <tag k="network" v="Stolpersteine Meran"/>
    <tag k="object:city" v="Meran - Merano"/>
    <tag k="object:city:de" v="Meran"/>
    <tag k="object:city:it" v="Merano"/>
    <tag k="object:country" v="IT"/>
    <tag k="object:housenumber" v="15"/>
    <tag k="object:quarter" v="Maria Himmelfahrt - S. Maria Assunta"/>
    <tag k="object:quarter:de" v="Maria Himmelfahrt"/>
    <tag k="object:quarter:it" v="S. Maria Assunta"/>
    <tag k="object:street" v="Meinhardstraße - Via Meinardo"/>
    <tag k="object:street:de" v="Meinhardstraße"/>
    <tag k="object:street:it" v="Via Meinardo"/>
    <tag k="object:suburb" v="Untermais - Maia Bassa"/>
    <tag k="object:suburb:de" v="Untermais"/>
    <tag k="object:suburb:it" v="Maia Bassa"/>
    <tag k="person:date_of_birth" v="1867"/>
    <tag k="person:date_of_death" v="07.03.1944"/>
    <tag k="website" v="http://www.nomidellashoah.it/1scheda.asp?id=3198"/>
  </node>
  <node id="4695773189" lat="43.5524565" lon="10.3069279">
    <tag k="addr:street" v="Via Strozzi"/>
    <tag k="artist_name" v="Gunter Demnig"/>
    <tag k="historic" v="memorial"/>
    <tag k="inscription" v="Qui abitava Nissim Levi nato 1928 arrestato 18.12.1943 deportato 1944 Auschwitz liberato"/>
    <tag k="memorial" v="stolperstein"/>
    <tag k="memorial:wikidata" v="Q314003"/>
    <tag k="memorial:wikipedia" v="it:Pietre d'inciampo"/>
    <tag k="name" v="Nissim Levi"/>
    <tag k="person:date_of_birth" v="1928"/>
    <tag k="wikimedia_commons" v="File:Stolperstein für Nissim Levi 2 (Livorno).jpg"/>
  </node>
  <node id="4706351810" lat="43.5494681" lon="10.3145299">
    <tag k="artist_name" v="Gunter Demnig"/>
    <tag k="historic" v="memorial"/>
    <tag k="inscription" v="Qui abitava Ivo Rabà nato 1919 arrestato 2.2.1944 deportato 1944 assassinato 1945"/>
    <tag k="memorial" v="stolperstein"/>
    <tag k="memorial:wikidata" v="Q314003"/>
    <tag k="memorial:wikipedia" v="it:Pietre d'inciampo"/>
    <tag k="name" v="Ivo Rabà"/>
    <tag k="person:date_of_birth" v="1919"/>
    <tag k="person:date_of_death" v="1945"/>
    <tag k="wikimedia_commons" v="File:Stolperstein für Ivo Raba (Livorno).jpg"/>
  </node>
  <node id="4754122414" lat="45.4656736" lon="9.1736800">
    <tag k="historic" v="memorial"/>
    <tag k="inscription" v="QUI ABITAVA|ALBERTO SEGRE|NATO 1899|ARRESTATO 8.12.1943|DEPORTATO|AUSCHWITZ|ASSASSINATO 27.4.1944"/>
    <tag k="material" v="metal"/>
    <tag k="memorial:type" v="stolperstein"/>
    <tag k="name" v="Alberto Segre"/>
    <tag k="subject:wikidata" v="Q84852182"/>
    <tag k="wikimedia_commons" v="File:Stolperstein für Alberto Segre (Milano).jpg"/>
  </node>
  <node id="5070151673" lat="44.6997940" lon="10.6289046">
    <tag k="historic" v="memorial"/>
    <tag k="memorial" v="stolperstein"/>
    <tag k="name" v="Beatrice Ravà in Rietti"/>
  </node>
  <node id="5070979196" lat="44.6997869" lon="10.6289006">
    <tag k="historic" v="memorial"/>
    <tag k="memorial" v="stolperstein"/>
    <tag k="name" v="Ilma Rietti"/>
  </node>
  <node id="5070979197" lat="44.6997801" lon="10.6288971">
    <tag k="historic" v="memorial"/>
    <tag k="memorial" v="stolperstein"/>
    <tag k="name" v="Iole Rietti"/>
  </node>
  <node id="5070979198" lat="44.6998708" lon="10.6289449">
    <tag k="historic" v="memorial"/>
    <tag k="memorial" v="stolperstein"/>
    <tag k="name" v="Oreste Sinigaglia"/>
  </node>
  <node id="5401353119" lat="45.4432591" lon="12.3290477">
    <tag k="historic" v="memorial"/>
    <tag k="memorial:type" v="stolperstein"/>
    <tag k="name" v="Gustavo Corinaldi"/>
    <tag k="note" v="collocata il 22/01/2018 soggetta ad atto vandalico dopo pochi giorni; ricognizione 9/2/2018 ancora mancante"/>
  </node>
  <node id="5401353521" lat="45.4455911" lon="12.3267829">
    <tag k="historic" v="memorial"/>
    <tag k="memorial" v="stolperstein"/>
    <tag k="memorial:text" v="Qui abitava Edoardo Bassani nato 1876 arrestato 5.12.1943 deportatoAuschwitz assassinato 26.2.1944"/>
    <tag k="memorial:type" v="stolperstein"/>
    <tag k="name" v="Edoardo Bassani"/>
  </node>
  <node id="5401353523" lat="45.4455914" lon="12.3267788">
    <tag k="historic" v="memorial"/>
    <tag k="memorial" v="stolperstein"/>
    <tag k="memorial:text" v="17 agosto 1944 Da questa casa furono deportati 21 anziani ospiti assassinati nei lager nazisti"/>
    <tag k="memorial:type" v="stolperstein"/>
    <tag k="name" v="21 Anziani"/>
  </node>
  <node id="5401353526" lat="45.4452042" lon="12.3277009">
    <tag k="historic" v="memorial"/>
    <tag k="memorial" v="stolperstein"/>
    <tag k="memorial:text" v="Quì abitava Achille Aboaf nato 1891 arrestato 20.08.1944 deportato Auschwitz assassinato 30.4.1975 Buchenwald"/>
    <tag k="memorial:type" v="stolperstein"/>
    <tag k="name" v="Achille Aboaf"/>
  </node>
  <node id="5410060741" lat="45.4452582" lon="12.3323951">
    <tag k="historic" v="memorial"/>
    <tag k="memorial:text" v="Qui abitava Adele Dina nata 1890 arrestata 6.12.1943 deportata Auschwitz morta in data ignota"/>
    <tag k="memorial:type" v="stolperstein"/>
    <tag k="name" v="Adele Dina"/>
  </node>
  <node id="5410060742" lat="45.4452584" lon="12.3323944">
    <tag k="historic" v="memorial"/>
    <tag k="memorial:text" v="Qui abitava Marco Todesco nato 1891 arrestato 6.12.1943 deportato Auschwitz morto in data ignota"/>
    <tag k="memorial:type" v="stolperstein"/>
    <tag k="name" v="Marco Todesco"/>
  </node>
  <node id="5410060743" lat="45.4452579" lon="12.3323946">
    <tag k="historic" v="memorial"/>
    <tag k="memorial:text" v="Qui abitava Alberto Leone Todesco nato 1930 arrestato 6.12.1943 deportato Auschwitz morto in data ignota"/>
    <tag k="memorial:type" v="stolperstein"/>
    <tag k="name" v="Alberto Leone Todesco"/>
  </node>
  <node id="5601798246" lat="45.4384690" lon="12.3383985">
    <tag k="historic" v="memorial"/>
    <tag k="memorial:type" v="stolperstein"/>
    <tag k="name" v="Vivante"/>
    <tag k="network" v="Stolpersteine"/>
  </node>
  <node id="6150297983" lat="42.3486880" lon="13.3990034">
    <tag k="historic" v="memorial"/>
    <tag k="memorial" v="stolperstein"/>
    <tag k="name" v="Giulio Della Pergola"/>
  </node>
  <node id="6509233359" lat="45.6011463" lon="9.8927253">
    <tag k="historic" v="memorial"/>
    <tag k="memorial" v="stolperstein"/>
    <tag k="name" v="Pietra d'inciampo"/>
  </node>
  <node id="6509233360" lat="45.6023641" lon="9.8949768">
    <tag k="historic" v="memorial"/>
    <tag k="memorial" v="stolperstein"/>
    <tag k="name" v="Pietra d'inciampo"/>
  </node>
  <node id="6534013298" lat="45.0757206" lon="7.3966265">
    <tag k="historic" v="memorial"/>
    <tag k="memorial" v="stolperstein"/>
  </node>
  <node id="7022259646" lat="45.0726771" lon="7.6697248">
    <tag k="historic" v="memorial"/>
    <tag k="memorial" v="stolperstein"/>
  </node>
  <node id="7129449221" lat="43.5524501" lon="10.3069094">
    <tag k="addr:street" v="Via Strozzi"/>
    <tag k="artist_name" v="Gunter Demnig"/>
    <tag k="historic" v="memorial"/>
    <tag k="inscription" v="Qui abitava Mario Moisè Levi nato 1927 arrestato 18.12.1943 deportato Auschwitz liberato"/>
    <tag k="memorial" v="stolperstein"/>
    <tag k="memorial:wikidata" v="Q314003"/>
    <tag k="memorial:wikipedia" v="it:Pietre d'inciampo"/>
    <tag k="name" v="Mario Moisè Levi"/>
    <tag k="person:date_of_birth" v="1927"/>
    <tag k="wikimedia_commons" v="File:Stolperstein für Mario Moise Levi (Livorno).jpg"/>
  </node>
  <node id="7129449222" lat="43.5524515" lon="10.3069136">
    <tag k="addr:street" v="Via Strozzi"/>
    <tag k="artist_name" v="Gunter Demnig"/>
    <tag k="historic" v="memorial"/>
    <tag k="inscription" v="Qui abitava Selma Levi nata 1924 arrestata 18.12.1943 deportata Auschwitz Ravensbrück liberata"/>
    <tag k="memorial" v="stolperstein"/>
    <tag k="memorial:wikidata" v="Q314003"/>
    <tag k="memorial:wikipedia" v="it:Pietre d'inciampo"/>
    <tag k="name" v="Selma Levi"/>
    <tag k="person:date_of_birth" v="1924"/>
    <tag k="wikimedia_commons" v="File:Stolperstein für Selma Levi (Livorno).jpg"/>
  </node>
  <node id="7129449223" lat="43.5524531" lon="10.3069180">
    <tag k="addr:street" v="Via Strozzi"/>
    <tag k="artist_name" v="Gunter Demnig"/>
    <tag k="historic" v="memorial"/>
    <tag k="inscription" v="Qui abitava Rosa Adut nata 1900 arrestata 18.12.1943 deportata Auschwitz Ravensbrück liberata"/>
    <tag k="memorial" v="stolperstein"/>
    <tag k="memorial:wikidata" v="Q314003"/>
    <tag k="memorial:wikipedia" v="it:Pietre d'inciampo"/>
    <tag k="name" v="Rosa Adut"/>
    <tag k="person:date_of_birth" v="1900"/>
    <tag k="wikimedia_commons" v="File:Stolperstein für Rosa Adut (Livorno).jpg"/>
  </node>
  <node id="7129449224" lat="43.5524548" lon="10.3069229">
    <tag k="addr:street" v="Via Strozzi"/>
    <tag k="artist_name" v="Gunter Demnig"/>
    <tag k="historic" v="memorial"/>
    <tag k="inscription" v="Qui abitava Abramo Levi nato 1903 arrestato 18.12.1943 deportato 1944 Auschwitz assassinato gen. 1945 Bergen-Belsen"/>
    <tag k="memorial" v="stolperstein"/>
    <tag k="memorial:wikidata" v="Q314003"/>
    <tag k="memorial:wikipedia" v="it:Pietre d'inciampo"/>
    <tag k="name" v="Abramo Levi"/>
    <tag k="person:date_of_birth" v="1903"/>
    <tag k="person:date_of_death" v="1945-01"/>
    <tag k="wikimedia_commons" v="File:Stolperstein für Abramo Levi (Livorno).jpg"/>
  </node>
  <node id="7129449225" lat="43.5486597" lon="10.3098490">
    <tag k="artist_name" v="Gunter Demnig"/>
    <tag k="historic" v="memorial"/>
    <tag k="inscription" v="Qui abitava Matilde Beniacar nata 1926 arrestata 25.1.1944 Borgo a Buggiano deportata Auschwitz liberata"/>
    <tag k="memorial" v="stolperstein"/>
    <tag k="memorial:wikidata" v="Q314003"/>
    <tag k="memorial:wikipedia" v="it:Pietre d'inciampo"/>
    <tag k="name" v="Matilde Beniacar"/>
    <tag k="person:date_of_birth" v="1926"/>
    <tag k="wikimedia_commons" v="File:Stolperstein für Matilde Beniacar (Livorno).jpg"/>
  </node>
  <node id="7157258277" lat="43.5166604" lon="10.3175119">
    <tag k="addr:housenumber" v="2"/>
    <tag k="addr:street" v="Via del Mare"/>
    <tag k="artist_name" v="Gunter Demnig"/>
    <tag k="historic" v="memorial"/>
    <tag k="inscription" v="Qui abitava Piera Galletti Genazzani nata 1902 arrestata 31.12.1943 deportata Auschwitz assassinata 6.2.1944"/>
    <tag k="memorial" v="stolperstein"/>
    <tag k="memorial:wikidata" v="Q314003"/>
    <tag k="memorial:wikipedia" v="it:Pietre d'inciampo"/>
    <tag k="name" v="Piera Galletti Genazzani"/>
    <tag k="person:date_of_birth" v="1902"/>
    <tag k="person:date_of_death" v="1944-02-06"/>
    <tag k="start_date" v="2020-01-08"/>
    <tag k="wikimedia_commons" v="File:Pietra d’inciampo di Piera Galletti Genazzani.jpg"/>
  </node>
  <node id="7157258278" lat="43.5166600" lon="10.3175042">
    <tag k="addr:housenumber" v="2"/>
    <tag k="addr:street" v="Via del Mare"/>
    <tag k="artist_name" v="Gunter Demnig"/>
    <tag k="historic" v="memorial"/>
    <tag k="inscription" v="Qui abitava Lia Genazzani nata 1924 arrestata 31.12.1943 deportata Auschwitz assassinata 31.8.1944"/>
    <tag k="memorial" v="stolperstein"/>
    <tag k="memorial:wikidata" v="Q314003"/>
    <tag k="memorial:wikipedia" v="it:Pietre d'inciampo"/>
    <tag k="name" v="Lia Genazzani"/>
    <tag k="person:date_of_birth" v="1924"/>
    <tag k="person:date_of_death" v="1944-08-31"/>
    <tag k="start_date" v="2020-01-08"/>
    <tag k="wikimedia_commons" v="File:Pietra d’inciampo Lia Genazzani.jpg"/>
  </node>
  <node id="7161241865" lat="45.6218537" lon="9.9594588">
    <tag k="historic" v="memorial"/>
    <tag k="inscription" v="Attilio Emilio Mena (Nato nel 1911. Internato militare, deportato da Peschiera il 20.9.1943 e morto il 22.5.1945 a Dachau.)"/>
    <tag k="memorial" v="stolperstein"/>
    <tag k="name" v="Attilio Emilio Mena"/>
  </node>
  <node id="7162246916" lat="45.4057495" lon="11.8759176">
    <tag k="historic" v="memorial"/>
    <tag k="inscription" v="QUI ABITAVA OSCAR COEN NATO 1887 ARRESTAT0 19.11.1943 DEPORTATO AUSCHWITZ ASSASSINATO 6.8.1944"/>
    <tag k="memorial" v="stolperstein"/>
    <tag k="name" v="Oscar Coen"/>
  </node>
  <node id="7162246917" lat="45.4057495" lon="11.8759236">
    <tag k="historic" v="memorial"/>
    <tag k="inscription" v="QUI ABITAVA AMALIA DINA COEN SACERDOTI NATA 1875 ARRESTATA 10.5.1944 DEPORTATA AUSCHWITZ ASSASSINATA 3.8.1944"/>
    <tag k="memorial" v="stolperstein"/>
    <tag k="name" v="Amalia Dina Coen Sacerdoti"/>
  </node>
  <node id="7162246918" lat="45.4057499" lon="11.8759119">
    <tag k="historic" v="memorial"/>
    <tag k="inscription" v="QUI ABITAVA GEMMA BASSANI NATA 1911 ARRESTATA 16.12.1943 DEPORTATA AUSCHWITZ ASSASSINATA"/>
    <tag k="memorial" v="stolperstein"/>
    <tag k="name" v="Gemma Bassani"/>
  </node>
  <node id="7162246919" lat="45.4062777" lon="11.8760618">
    <tag k="historic" v="memorial"/>
    <tag k="inscription" v="IN PADUA ABITAVA GIUSEPPE PARENZO NATO 1886 ARRESTATO 29.7.1944 DEPORTATO AUSCHWITZ ASSASSINATO 3.8.1944"/>
    <tag k="memorial" v="stolperstein"/>
    <tag k="name" v="Giuseppe Parenzo"/>
  </node>
  <node id="7162246920" lat="45.4126426" lon="11.8736441">
    <tag k="historic" v="memorial"/>
    <tag k="inscription" v="Qui abitava Giancarlo Foà Nato 1930 Arrestato 25.11.1943 Deportato Auschwitz Assassinato"/>
    <tag k="memorial" v="stolperstein"/>
    <tag k="name" v="Giancarlo Foà"/>
  </node>
  <node id="7162246921" lat="45.4062826" lon="11.8760651">
    <tag k="historic" v="memorial"/>
    <tag k="inscription" v="IN PADUA ABITAVA ITALO PARENZO NATO 1883 ARRESTATO DIC. 1943 DEPORTATO AUSCHWITZ ASSASSINATO 3.8.1944"/>
    <tag k="memorial" v="stolperstein"/>
    <tag k="name" v="Italo Parenzo"/>
  </node>
  <node id="7162246922" lat="45.4053888" lon="11.8763119">
    <tag k="historic" v="memorial"/>
    <tag k="inscription" v="QUI ABITAVA ELIA GESESS NATO 1898 ARRESTATO 16.12.1943 DEPORTATO AUSCHWITZ ASSASSINATO 15.2.1945 DACHAU"/>
    <tag k="memorial" v="stolperstein"/>
    <tag k="name" v="Elia Gesess"/>
  </node>
  <node id="7162246923" lat="45.4054397" lon="11.8825547">
    <tag k="historic" v="memorial"/>
    <tag k="inscription" v="Qui abitava Luisa Hoffmann Ducci Nata 1889 Arrestata 11.2.1944 Deportata Auschwitz Assassinata 10.4.1944"/>
    <tag k="memorial" v="stolperstein"/>
    <tag k="name" v="Luisa Hoffmann Ducci"/>
    <tag k="note" v="La pietra d'inciampo sembra non essere più presente"/>
  </node>
  <node id="7162246924" lat="45.4054430" lon="11.8825614">
    <tag k="historic" v="memorial"/>
    <tag k="inscription" v="Qui abitava Eva Ducci Nata 1922 Arrestata 11.2.1944 Deportata Auschwitz Assassinata LUGLIO 1944"/>
    <tag k="memorial" v="stolperstein"/>
    <tag k="name" v="Eva Ducci"/>
    <tag k="note" v="La pietra d'inciampo sembra non essere più presente"/>
  </node>
  <node id="7162246925" lat="45.4053827" lon="11.8763089">
    <tag k="historic" v="memorial"/>
    <tag k="inscription" v="QUI ABITAVA SARA GESESS NATA 1937 ARRESTATA 16.12.1943 DEPORTATA AUSCHWITZ ASSASSINATA 3.8.1944"/>
    <tag k="memorial" v="stolperstein"/>
    <tag k="name" v="Sara Gesess"/>
  </node>
  <node id="7162246926" lat="45.4054336" lon="11.8825423">
    <tag k="historic" v="memorial"/>
    <tag k="inscription" v="Qui abitava Teo Ducci Nato 1913 Arrestato 11.2.1944 Deportato Auschwitz Mauthausen Liberato"/>
    <tag k="memorial" v="stolperstein"/>
    <tag k="name" v="Teo Ducci"/>
    <tag k="note" v="La pietra d'inciampo sembra non essere più presente"/>
  </node>
  <node id="7162246927" lat="45.4053950" lon="11.8763153">
    <tag k="historic" v="memorial"/>
    <tag k="inscription" v="QUI ABITAVA ADA ANCONA GESESS NATA 1896 ARRESTATA 16.12.1943 DEPORTATA AUSCHWITZ ASSASSINATA 3.8.1944"/>
    <tag k="memorial" v="stolperstein"/>
    <tag k="name" v="Ada Ancona Gesess"/>
  </node>
  <node id="7162246928" lat="45.4054364" lon="11.8825480">
    <tag k="historic" v="memorial"/>
    <tag k="inscription" v="Qui abitata Rodolfo Ducci Nato 1887 Arrestato 11.2.1944 Deportato Auschwitz Assassinato 10.4.1944"/>
    <tag k="memorial" v="stolperstein"/>
    <tag k="name" v="Rodolfo Ducci"/>
    <tag k="note" v="La pietra d'inciampo sembra non essere più presente"/>
  </node>
  <node id="7162246929" lat="45.4059241" lon="11.8747495">
    <tag k="historic" v="memorial"/>
    <tag k="inscription" v="Qui abitava Ada Levi Nata 1874 Arrestata 31.12.1943 Deportata Auschwitz Assassinata 3.8.1944"/>
    <tag k="memorial" v="stolperstein"/>
    <tag k="name" v="Ada Levi"/>
  </node>
  <node id="7162246930" lat="45.4059114" lon="11.8765308">
    <tag k="historic" v="memorial"/>
    <tag k="inscription" v="QUI ABITAVA MARCELLO LEVI MINZI NATO 1894 ARRESTATO 4.2.1944 DEPORTATO AUSCHWITZ ASSASSINATO 3.8.1944"/>
    <tag k="memorial" v="stolperstein"/>
    <tag k="name" v="Marcello Levi Minzi"/>
  </node>
  <node id="7162246931" lat="45.4066650" lon="11.8768649">
    <tag k="historic" v="memorial"/>
    <tag k="inscription" v="Qui insegnava Augusto Levi Nato 1884 Arrestato 27.1.1944 Deportato Auschwitz Assassinato 3.8.1944"/>
    <tag k="memorial" v="stolperstein"/>
    <tag k="name" v="Augusto Levi"/>
  </node>
  <node id="7162246932" lat="45.4059231" lon="11.8747496">
    <tag k="historic" v="memorial"/>
    <tag k="inscription" v="Qui abitava Irma Ancona Nata 1903 Arrestata 4.12.1943 Deportata Auschwitz Assassinata 3.8.1944"/>
    <tag k="memorial" v="stolperstein"/>
    <tag k="name" v="Irma Ancona"/>
  </node>
  <node id="7162246933" lat="45.4059221" lon="11.8747497">
    <tag k="historic" v="memorial"/>
    <tag k="inscription" v="Qui abitava Giulio Ancona Nato 1872 Arrestato 30.7.1944 Deportato Auschwitz Assassinato 6.8.1944"/>
    <tag k="memorial" v="stolperstein"/>
    <tag k="name" v="Giulio Ancona"/>
  </node>
  <node id="7162246934" lat="45.4066693" lon="11.8768659">
    <tag k="historic" v="memorial"/>
    <tag k="inscription" v="Qui studiava Giuseppe Kroò Nato 1919 Arrestato 27.4.1944 Deportato Auschwitz Assassinato"/>
    <tag k="memorial" v="stolperstein"/>
    <tag k="name" v="Giuseppe Kroò"/>
  </node>
  <node id="7162246935" lat="45.4066787" lon="11.8768688">
    <tag k="historic" v="memorial"/>
    <tag k="inscription" v="Qui si laureò Nora Finzi Nata 1909 Arrestata 4.12.1943 Deportata Auschwitz Assassinata"/>
    <tag k="memorial" v="stolperstein"/>
    <tag k="name" v="Nore Finzi"/>
  </node>
  <node id="7162246936" lat="45.4066738" lon="11.8768675">
    <tag k="historic" v="memorial"/>
    <tag k="inscription" v="Qui insegnava Alberto Goldbacher Nato 1883 Arrestato 22.9.1944 Deportato Auschwitz Assassinato 28.10.1944"/>
    <tag k="memorial" v="stolperstein"/>
    <tag k="name" v="Alberto Goldbacher"/>
  </node>
  <node id="7162246937" lat="45.4066611" lon="11.8768638">
    <tag k="historic" v="memorial"/>
    <tag k="inscription" v="Qui studiava Paolo Tolentino Nato 1917 Arrestato 3.2.1944 Deportato Auschwitz Assassinato"/>
    <tag k="memorial" v="stolperstein"/>
    <tag k="name" v="Paolo Tolentino"/>
  </node>
  <node id="7162246938" lat="45.4066842" lon="11.8768706">
    <tag k="historic" v="memorial"/>
    <tag k="inscription" v="Qui studiava Giorgio Arany Nato 1919 Arrestato 6.3.1944 Deportato Auschwitz Assassinato"/>
    <tag k="memorial" v="stolperstein"/>
    <tag k="name" v="Giorgio Arany"/>
  </node>
  <node id="7162246939" lat="45.4126388" lon="11.8736462">
    <tag k="historic" v="memorial"/>
    <tag k="inscription" v="Qui abitava Mario Foà Nato 1896 Arrestato 25.11.1943 Deportato Auschwitz Assassinato"/>
    <tag k="memorial" v="stolperstein"/>
    <tag k="name" v="Mario Foà"/>
  </node>
  <node id="7162246940" lat="45.4126375" lon="11.8736471">
    <tag k="historic" v="memorial"/>
    <tag k="inscription" v="Qui abitava Vittorio Enzo Foà Nato 1934 Arrestato 25.11.1943 Deportato Auschwitz Assassinato 11.12.1943"/>
    <tag k="memorial" v="stolperstein"/>
    <tag k="name" v="Vittorio Enzo Foà"/>
  </node>
  <node id="7162246941" lat="45.4126414" lon="11.8736446">
    <tag k="historic" v="memorial"/>
    <tag k="inscription" v="Qui abitava Giorgio Amos Foà Nato 1927 Arrestato 25.11.1943 Deportato Auschwitz Assassinato"/>
    <tag k="memorial" v="stolperstein"/>
    <tag k="name" v="Giorgio Amos Foà"/>
  </node>
  <node id="7162246942" lat="45.4057495" lon="11.8759304">
    <tag k="historic" v="memorial"/>
    <tag k="inscription" v="QUI ABITAVA EUGENIO COEN SACERDOTI NATO 1880 ARRESTAT0 10.5.1944 DEPORTATO AUSCHWITZ ASSASSINATO 3.8.1944"/>
    <tag k="memorial" v="stolperstein"/>
    <tag k="name" v="Eugenio Coen Sacerdoti"/>
  </node>
  <node id="7162246943" lat="45.4126402" lon="11.8736454">
    <tag k="historic" v="memorial"/>
    <tag k="inscription" v="Qui abitava Giulia Formiggini Foà Nata 1904 Arrestata 25.11.1943 Deportata Auschwitz Morta durante il trasporto"/>
    <tag k="memorial" v="stolperstein"/>
    <tag k="name" v="Giulia Formiggini Foà"/>
  </node>
  <node id="7162267200" lat="45.2741125" lon="7.4740252">
    <tag k="historic" v="memorial"/>
    <tag k="inscription" v="IN VIA UMBERTO I 56 ABITAVA MOISE POGGETTO NATO 1875 ARRESTATO 28.4.1944 DEPORTATO AUSCHWITZ ASSASSINATO 6.8.1944"/>
    <tag k="memorial" v="stolperstein"/>
  </node>
  <node id="7164716611" lat="45.6356859" lon="9.4223606">
    <tag k="historic" v="memorial"/>
    <tag k="inscription" v="Qui abitava ANGELO MATTAVELLI nato 1925 arrestato 15.3.1944 deportato 1944 Mauthausen assassinato 21.4.1945"/>
    <tag k="memorial" v="stolperstein"/>
    <tag k="name" v="Angelo Mattavelli"/>
    <tag k="person:date_of_birth" v="1925"/>
    <tag k="person:date_of_death" v="21/04/1945"/>
    <tag k="wikimedia_commons" v="File:Pietra Angelo Mattavelli.jpg"/>
  </node>
  <node id="7167098530" lat="45.5007813" lon="9.1333723">
    <tag k="historic" v="memorial"/>
    <tag k="memorial" v="stolperstein"/>
    <tag k="name" v="Davide Pedretti"/>
    <tag k="person:date_of_birth" v="1903"/>
    <tag k="person:date_of_death" v="1945"/>
    <tag k="source" v="https://www.comune.milano.it/-/milano-e-memoria.-ventotto-nuove-pietre-d-inciampo-in-ricordo-delle-vittime-milanesi-dei-lager-nazisti"/>
  </node>
  <node id="7167140804" lat="45.4681947" lon="9.1854382">
    <tag k="historic" v="memorial"/>
    <tag k="memorial" v="stolperstein"/>
    <tag k="name" v="Giorgio Puecher Passavalli"/>
    <tag k="name:wikipedia" v="it:Giancarlo Puecher Passavalli"/>
    <tag k="person:date_of_birth" v="1887"/>
    <tag k="person:date_of_death" v="1945"/>
    <tag k="source" v="https://www.comune.milano.it/-/milano-e-memoria.-ventotto-nuove-pietre-d-inciampo-in-ricordo-delle-vittime-milanesi-dei-lager-nazisti"/>
  </node>
  <node id="7168085833" lat="43.6195785" lon="13.5096858">
    <tag k="historic" v="memorial"/>
    <tag k="inscription" v="Qui abitava Lucio Coen Beninfante Nato 1910 Arrestato 11.10.1943 Deportato Auschwitz Assassinato"/>
    <tag k="memorial" v="stolperstein"/>
    <tag k="name" v="Renzo Coen Beninfante"/>
    <tag k="person:date_of_birth" v="1910"/>
    <tag k="start_date" v="2020-01-24"/>
  </node>
  <node id="7168085834" lat="43.6195806" lon="13.5096661">
    <tag k="historic" v="memorial"/>
    <tag k="inscription" v="Qui abitava Franco Coen Beninfante Nato 1902 Arrestato 29.11.1943 Deportato Auschwitz Assassinato 15.8.1944"/>
    <tag k="memorial" v="stolperstein"/>
    <tag k="name" v="Franco Coen Beninfante"/>
    <tag k="person:date_of_birth" v="1902"/>
    <tag k="person:date_of_death" v="1944-08-15"/>
    <tag k="start_date" v="2020-01-24"/>
  </node>
  <node id="7168085835" lat="43.6195796" lon="13.5096659">
    <tag k="historic" v="memorial"/>
    <tag k="inscription" v="Qui abitava Lucio Coen Beninfante Nato 1906 Arrestato 30.4.1944 Deportato Auschwitz Assassinato 6.9.1944"/>
    <tag k="memorial" v="stolperstein"/>
    <tag k="name" v="Lucio Coen Beninfante"/>
    <tag k="person:date_of_birth" v="1906"/>
    <tag k="person:date_of_death" v="1944-09-06"/>
    <tag k="start_date" v="2020-01-24"/>
  </node>
  <node id="7174279225" lat="45.4610159" lon="9.1675878">
    <tag k="historic" v="memorial"/>
    <tag k="memorial" v="stolperstein"/>
    <tag k="name" v="Andrea Schivo"/>
    <tag k="name:wikipedia" v="it:Andrea_Schivo"/>
    <tag k="person:date_of_birth" v="1895"/>
    <tag k="person:date_of_death" v="1945"/>
  </node>
  <node id="7176456239" lat="43.6140588" lon="13.5253420">
    <tag k="artist_name" v="Gunter Demnig"/>
    <tag k="historic" v="memorial"/>
    <tag k="inscription" v="Qui abitava Gino Tommasi Nato 1895 Arrestato 9.2.1944 Deportato Mauthausen Assassinato 5.5.1945"/>
    <tag k="material" v="brass"/>
    <tag k="memorial" v="stolperstein"/>
    <tag k="name" v="Gino Tommasi"/>
    <tag k="person:date_of_birth" v="1895-09-19"/>
    <tag k="person:date_of_death" v="1945-05-05"/>
    <tag k="start_date" v="2018-01-25"/>
    <tag k="subject:wikidata" v="Q3764745"/>
    <tag k="subject:wikipedia" v="it:Gino Tommasi"/>
  </node>
  <node id="7182118468" lat="45.0744994" lon="7.6769891">
    <tag k="historic" v="memorial"/>
    <tag k="inscription" v="Qui abitava Giuseppe Abramo Levi, nato 1890, arrestato 7.8.1944, deportato24.10.1944 - Auschwitz, assassinato 25.12.1944"/>
    <tag k="memorial" v="stolperstein"/>
    <tag k="name" v="Giuseppe Abramo Levi"/>
    <tag k="person:date_of_birth" v="1890"/>
    <tag k="person:date_of_death" v="1944"/>
  </node>
  <node id="7182123327" lat="44.4003229" lon="8.9478778">
    <tag k="historic" v="memorial"/>
    <tag k="memorial" v="stolperstein"/>
    <tag k="name" v="Ercole Deangelis"/>
  </node>
  <node id="7192597525" lat="43.7510234" lon="11.2420547">
    <tag k="historic" v="memorial"/>
    <tag k="inscription" v="QUI ABITAVA RODOLFO LEVI NATO 1882 ARRESTATO 6.2.1944 DEPORTATO AUSCHWITZ ASSASSINATO 26.2.1944"/>
    <tag k="memorial" v="stolperstein"/>
    <tag k="name" v="RODOLFO LEVI"/>
  </node>
  <node id="7192606319" lat="43.7510262" lon="11.2420612">
    <tag k="historic" v="memorial"/>
    <tag k="inscription" v="QUI ABITAVA NOEMI LEVI NATA 1911 ARRESTATA 6.2.1944 DEPORTATA AUSCHWITZ ASSASSINATA 26.2.1944"/>
    <tag k="memorial" v="stolperstein"/>
    <tag k="name" v="NOEMI LEVI"/>
  </node>
  <node id="7192608418" lat="43.7510223" lon="11.2420496">
    <tag k="historic" v="memorial"/>
    <tag k="inscription" v="QUI ABITAVA AMELIA PROCACCIA NATA 1897 ARRESTATA 6.2.1944 DEPORTATA AUSCHWITZ ASSASSINATA"/>
    <tag k="memorial" v="stolperstein"/>
    <tag k="name" v="AMELIA PROCACCIA"/>
  </node>
  <node id="7192609419" lat="43.7510246" lon="11.2420578">
    <tag k="historic" v="memorial"/>
    <tag k="inscription" v="QUI ABITAVA RINA PROCACCIA NATA 1884 ARRESTATA 6.2.1944 DEPORTATA AUSCHWITZ ASSASSINATA 26.2.1944"/>
    <tag k="memorial" v="stolperstein"/>
    <tag k="name" v="RINA PROCACCIA"/>
  </node>
  <node id="7192614465" lat="43.7743989" lon="11.2688510">
    <tag k="historic" v="memorial"/>
    <tag k="inscription" v="QUI ABITAVA ALDA SINIGAGLIA NATA 1871 ARRESTATA 19.1.1944 DEPORTATA AUSCHWITZ ASSASSINATA 6.2.1944"/>
    <tag k="memorial" v="stolperstein"/>
    <tag k="name" v="AMALIA KORETZ"/>
  </node>
  <node id="7192615865" lat="43.7510231" lon="11.2420518">
    <tag k="historic" v="memorial"/>
    <tag k="inscription" v="QUI ABITAVA ANGELO SINIGAGLIA NATO 1902 ARRESTATO 6.2.1944 DEPORTATO AUSCHWITZ ASSASSINATO 13.3.1945 MAUTHAUSEN"/>
    <tag k="memorial" v="stolperstein"/>
    <tag k="name" v="ANGELO SINIGAGLIA"/>
  </node>
  <node id="7192619847" lat="43.7510218" lon="11.2420469">
    <tag k="historic" v="memorial"/>
    <tag k="inscription" v="QUI ABITAVA ALDA SINIGAGLIA NATA 1933 ARRESTATA 6.2.1944 DEPORTATA AUSCHWITZ ASSASSINATA 10.4.1944historic=memorial"/>
    <tag k="memorial" v="stolperstein"/>
    <tag k="name" v="ALDA SINIGAGLIA"/>
  </node>
  <node id="7192620951" lat="43.7744000" lon="11.2688524">
    <tag k="historic" v="memorial"/>
    <tag k="inscription" v="QUI ABITAVA ANGELO SINIGAGLIA NATO 1863 ARRESTATO 16.1.1944 DEPORTATO AUSCHWITZ ASSASSINATO 6.2.1944"/>
    <tag k="memorial" v="stolperstein"/>
    <tag k="name" v="GIUSEPPE SIEBZEHNER"/>
  </node>
  <node id="7192626275" lat="43.7785784" lon="11.2678099">
    <tag k="historic" v="memorial"/>
    <tag k="inscription" v="QUI ABITAVA CLOTILDE LEVI NATA 1864 ARRESTATA GEN. 1944 DEPORTATA AUSCHWITZ ASSASSINATA"/>
    <tag k="memorial" v="stolperstein"/>
    <tag k="name" v="CLOTILDE LEVI"/>
  </node>
  <node id="7192633353" lat="43.7710080" lon="11.2579332">
    <tag k="historic" v="memorial"/>
    <tag k="inscription" v="QUI ABITAVA ABRAMO GENAZZANI NATO 1896 ARRESTATO 27.2.1944 DEPORTATO AUSCHWITZ ASSASSINATO"/>
    <tag k="memorial" v="stolperstein"/>
    <tag k="name" v="ABRAMO GENAZZANI"/>
  </node>
  <node id="7192692023" lat="43.7732640" lon="11.2742633">
    <tag k="historic" v="memorial"/>
    <tag k="inscription" v="QUI ABITAVA LUCIA LEVI NATA 1879 ARRESTATA APR. 1944 DEPORTATA AUSCHWITZ ASSASSINATA 30.6.1944"/>
    <tag k="memorial" v="stolperstein"/>
    <tag k="name" v="LUCIA LEVI"/>
  </node>
  <node id="7192692643" lat="43.7710051" lon="11.2579326">
    <tag k="historic" v="memorial"/>
    <tag k="inscription" v="QUI ABITAVA ELENA GENAZZANI NATA 1898 ARRESTATA GEN. 1944 DEPORTATA AUSCHWITZ MORTA 12.2.1945"/>
    <tag k="memorial" v="stolperstein"/>
    <tag k="name" v="ELENA GENAZZANI"/>
  </node>
  <node id="7192698418" lat="43.7729787" lon="11.2745143">
    <tag k="historic" v="memorial"/>
    <tag k="inscription" v="QUI ABITAVA GIORGIO LEVI DELLE TREZZE NATO 1870 ARRESTATO 21.2.1944 DEPORTATO AUSCHWITZ ASSASSINATO 10.4.1944"/>
    <tag k="memorial" v="stolperstein"/>
    <tag k="name" v="GIORGIO LEVI DELLE TREZZE"/>
  </node>
  <node id="7192709049" lat="43.7710036" lon="11.2579319">
    <tag k="historic" v="memorial"/>
    <tag k="inscription" v="QUI ABITAVA ABRAMO GENAZZANI NATO 1924 ARRESTATO 24.5.1944 DEPORTATO AUSCHWITZ ASSASSINATO DIC. 1944"/>
    <tag k="memorial" v="stolperstein"/>
    <tag k="name" v="MARIO MELLI GENAZZANI"/>
  </node>
  <node id="7192709050" lat="43.7703626" lon="11.2610582">
    <tag k="historic" v="memorial"/>
    <tag k="inscription" v="QUI ABITAVA ABRAMO GENAZZANI NATO 1907 ARRESTATO 19.5.1944 DEPORTATO AUSCHWITZ ASSASSINATO 10.3.1945 BUCHENWALD"/>
    <tag k="memorial" v="stolperstein"/>
    <tag k="name" v="DAVID GENAZZANI"/>
  </node>
  <node id="7192731287" lat="43.7729767" lon="11.2745157">
    <tag k="historic" v="memorial"/>
    <tag k="inscription" v="QUI ABITAVA XENIA HAYA POLIAKOV NATA 1872 ARRESTATA 21.2.1944 DEPORTATA AUSCHWITZ ASSASSINATA 10.4.1944"/>
    <tag k="memorial" v="stolperstein"/>
    <tag k="name" v="XENIA HAYA POLIAKOV"/>
  </node>
  <node id="7192773256" lat="43.7869234" lon="11.2696664">
    <tag k="historic" v="memorial"/>
    <tag k="inscription" v="QUI ABITAVA ADRIANA CASTELLI NATA 1886 ARRESTATA 1.3.1944 DEPORTATA AUSCHWITZ ASSASSINATA 14.4.1944"/>
    <tag k="memorial" v="stolperstein"/>
    <tag k="name" v="ADRIANA CASTELLI"/>
  </node>
  <node id="7192784617" lat="43.7747143" lon="11.2855481">
    <tag k="historic" v="memorial"/>
    <tag k="inscription" v="QUI ABITAVA LUCIO GALLICO NATO 1933 ARRESTATO 6.11.1943 DEPORTATO AUSCHWITZ ASSASSINATO 14.11.1943"/>
    <tag k="memorial" v="stolperstein"/>
    <tag k="name" v="LUCIO GALLICO"/>
  </node>
  <node id="7192785800" lat="43.7747172" lon="11.2855505">
    <tag k="historic" v="memorial"/>
    <tag k="inscription" v="QUI ABITAVA AMELIA GALLICO NATA 1893 ARRESTATA 6.11.1943 DEPORTATA AUSCHWITZ ASSASSINATA"/>
    <tag k="memorial" v="stolperstein"/>
    <tag k="name" v="AMELIA GALLICO"/>
  </node>
  <node id="7192786614" lat="43.7747132" lon="11.2855471">
    <tag k="historic" v="memorial"/>
    <tag k="inscription" v="QUI ABITAVA SERGIO GALLICO NATO 1918 ARRESTATO 6.11.1943 DEPORTATO AUSCHWITZ ASSASSINATO 14.11.1943"/>
    <tag k="memorial" v="stolperstein"/>
    <tag k="name" v="SERGIO GALLICO"/>
  </node>
  <node id="7192793306" lat="43.7747156" lon="11.2855493">
    <tag k="historic" v="memorial"/>
    <tag k="inscription" v="QUI ABITAVA AUGUSTO GALLICO NATO 1892 ARRESTATO 6.11.1943 DEPORTATO AUSCHWITZ ASSASSINATO"/>
    <tag k="memorial" v="stolperstein"/>
    <tag k="name" v="AUGUSTO GALLICO"/>
  </node>
  <node id="7192797186" lat="43.7747115" lon="11.2855460">
    <tag k="historic" v="memorial"/>
    <tag k="inscription" v="QUI ABITAVA GIULIA PACIFICI NATA 1884 ARRESTATA 27.4.1944 DEPORTATA AUSCHWITZ ASSASSINATA 23.5.1944"/>
    <tag k="memorial" v="stolperstein"/>
    <tag k="name" v="GIULIA PACIFICI"/>
  </node>
  <node id="7192803290" lat="43.7869243" lon="11.2696688">
    <tag k="historic" v="memorial"/>
    <tag k="inscription" v="QUI ABITAVA ALDO LEVI NATO 1911 ARRESTATO 1.3.1944 DEPORTATO AUSCHWITZ ASSASSINATO 20.1.1945"/>
    <tag k="memorial" v="stolperstein"/>
    <tag k="name" v="ALDO LEVI"/>
  </node>
  <node id="7192804987" lat="43.7869204" lon="11.2696635">
    <tag k="historic" v="memorial"/>
    <tag k="inscription" v="QUI ABITAVA GIULIO LEVI NATO 1878 ARRESTATO 1.3.1944 DEPORTATO AUSCHWITZ ASSASSINATO 14.4.1944"/>
    <tag k="memorial" v="stolperstein"/>
    <tag k="name" v="GIULIO LEVI"/>
  </node>
  <node id="7195380406" lat="45.4889700" lon="9.2173601">
    <tag k="historic" v="memorial"/>
    <tag k="inscription" v="QUI ABITAVA ANGELO AGLIERI NATO 1914 ARRESTATO 25.5.1944 DEPORTATO FLOSSENBÜRG ASSASSINATO 24.12.1944"/>
    <tag k="memorial" v="stolperstein"/>
    <tag k="name" v="Angelo Aglieri"/>
    <tag k="person:date_of_birth" v="1914-12-25"/>
    <tag k="person:date_of_death" v="1944-12-24"/>
  </node>
  <node id="7211649930" lat="45.0730146" lon="7.6787299">
    <tag k="historic" v="memorial"/>
    <tag k="inscription" v="Qui abitava Emanuele Balbo Bertone di Breme, nato 1886, arrestato 19.9.1943, deportato lager Schokken 64z e thorn XXA, assassinato 28.1.1945 Schelkow"/>
    <tag k="memorial" v="stolperstein"/>
    <tag k="name" v="Emanuele Balbo Bertone di Breme"/>
    <tag k="person:date_of_birth" v="1886"/>
    <tag k="person:date_of_death" v="1945"/>
  </node>
  <node id="7212911640" lat="43.6129867" lon="13.5343790">
    <tag k="artist_name" v="Gunter Demnig"/>
    <tag k="historic" v="memorial"/>
    <tag k="inscription" v="Qui abitava Gino Guglielmi Nato 1911 Arrestato 05.12.1943 Deportato Auschwitz Assassinato 6.2.1944"/>
    <tag k="material" v="brass"/>
    <tag k="memorial" v="stolperstein"/>
    <tag k="name" v="Gino Guglielmi"/>
    <tag k="person:date_of_birth" v="1911"/>
    <tag k="person:date_of_death" v="1944-02-06"/>
    <tag k="start_date" v="2018-01-25"/>
  </node>
  <node id="7212911641" lat="43.6129875" lon="13.5343798">
    <tag k="artist_name" v="Gunter Demnig"/>
    <tag k="historic" v="memorial"/>
    <tag k="inscription" v="Qui abitava E lavorava Achille Guglielmi Nato 1879 Morto 4.12.1943 Durante l'arresto Castiglione dei Pepoli"/>
    <tag k="material" v="brass"/>
    <tag k="memorial" v="stolperstein"/>
    <tag k="name" v="Achille Guglielmi"/>
    <tag k="person:date_of_birth" v="1879"/>
    <tag k="person:date_of_death" v="1943-12-04"/>
    <tag k="start_date" v="2018-01-25"/>
  </node>
  <node id="7212911642" lat="43.6129884" lon="13.5343805">
    <tag k="artist_name" v="Gunter Demnig"/>
    <tag k="historic" v="memorial"/>
    <tag k="inscription" v="Qui abitava Elsa Zamorani Nata 1883 Arrestata 5.12.1943 Deportata Auschwitz Assassinata 6.2.1944"/>
    <tag k="material" v="brass"/>
    <tag k="memorial" v="stolperstein"/>
    <tag k="name" v="Elsa Zamorani"/>
    <tag k="person:date_of_birth" v="1883"/>
    <tag k="person:date_of_death" v="1944-02-06"/>
    <tag k="start_date" v="2018-01-25"/>
  </node>
  <node id="7234869437" lat="45.0686652" lon="7.6896262">
    <tag k="historic" v="memorial"/>
    <tag k="inscription" v="QUI ABITAVA MARIA IRENE ROSCETTI IN VALABREGA NATO 1892 ARRESTATO 5.12.1943 DEPORTATO 1944 AUSCHWITZ ASSASSINATO 26.2.1944"/>
    <tag k="memorial" v="stolperstein"/>
    <tag k="name" v="Maria Irene Roscetti"/>
    <tag k="person:date_of_birth" v="1892"/>
    <tag k="person:date_of_death" v="1944-02-26"/>
    <tag k="wikimedia_commons" v="File:Pietre Valabrega.jpg"/>
  </node>
  <node id="7234869438" lat="45.0686665" lon="7.6896242">
    <tag k="historic" v="memorial"/>
    <tag k="inscription" v="QUI ABITAVA STELLA VALABREGA NATO 1923 ARRESTATA 5.12.1943 DEPORTATO 1944 AUSCHWITZ SOPRAVVISSUTA"/>
    <tag k="memorial" v="stolperstein"/>
    <tag k="name" v="Stella Valabrega"/>
    <tag k="person:date_of_birth" v="1923"/>
    <tag k="wikimedia_commons" v="File:Pietre Valabrega.jpg"/>
  </node>
  <node id="7234869439" lat="45.0686680" lon="7.6896223">
    <tag k="historic" v="memorial"/>
    <tag k="inscription" v="QUI ABITAVA MICHELE VALABREGA NATO 1885 ARRESTATO 5.12.1943 DEPORTATO 1944 AUSCHWITZ ASSASSINATO 26.2.1944"/>
    <tag k="memorial" v="stolperstein"/>
    <tag k="name" v="Michele Valabrega"/>
    <tag k="person:date_of_birth" v="1885"/>
    <tag k="person:date_of_death" v="1944-02-26"/>
    <tag k="wikimedia_commons" v="File:Pietre Valabrega.jpg"/>
  </node>
  <node id="8361979252" lat="45.4911697" lon="9.6379590">
    <tag k="historic" v="memorial"/>
    <tag k="material" v="metal"/>
    <tag k="memorial" v="stolperstein"/>
  </node>
  <node id="8361979253" lat="45.4911741" lon="9.6379463">
    <tag k="historic" v="memorial"/>
    <tag k="material" v="metal"/>
    <tag k="memorial" v="stolperstein"/>
  </node>
  <node id="8361979254" lat="45.4911780" lon="9.6379366">
    <tag k="historic" v="memorial"/>
    <tag k="material" v="metal"/>
    <tag k="memorial" v="stolperstein"/>
  </node>
  <node id="8366554057" lat="44.3597487" lon="8.5798259">
    <tag k="historic" v="memorial"/>
    <tag k="inscription" v="Mario Piombo, Agostino Bernardis, Angelo Piombo, Giovanni Isetta, Bartolomeo Accinelli, Livio Canale, Antonio Accinelli, Pietro Gio Batta Cerruti, Armando Cerruti, Gio Batta Salviati, Ludovico Koffler, Luigi Pigozzi, Raffaele Leghissa, Antonio Delfino."/>
    <tag k="material" v="metal"/>
    <tag k="memorial" v="stolperstein"/>
    <tag k="name" v="Pietre d'inciampo dei deportati varazzini"/>
    <tag k="start_date" v="2020"/>
  </node>
  <node id="8369185277" lat="44.6940296" lon="10.5192250">
    <tag k="historic" v="memorial"/>
    <tag k="inscription" v="Qui abitava Mario Gualerzi nato 1912 assassinato 26.2.1945"/>
    <tag k="material" v="metal"/>
    <tag k="memorial" v="stolperstein"/>
    <tag k="name" v="Mario Gualerzi"/>
  </node>
  <node id="8369438172" lat="43.5463267" lon="10.3104737">
    <tag k="addr:housenumber" v="25"/>
    <tag k="addr:street" v="Via Giuseppe Verdi"/>
    <tag k="artist_name" v="Gunter Demnig"/>
    <tag k="historic" v="memorial"/>
    <tag k="inscription" v="Gigliola Finzi nata 19.2.1944 arrestata 19.2.1944 internata Fossoli deportata 16.5.1944 Auschwitz assassinata 23.5.1944"/>
    <tag k="material" v="brass"/>
    <tag k="memorial" v="stolperstein"/>
    <tag k="memorial:wikidata" v="Q314003"/>
    <tag k="memorial:wikipedia" v="it:Pietre d'inciampo"/>
    <tag k="name" v="Gigliola Finzi"/>
    <tag k="person:date_of_birth" v="1944-02-19"/>
    <tag k="person:date_of_death" v="1944-05-23"/>
    <tag k="start_date" v="2021-01-26"/>
    <tag k="wikimedia_commons" v="File:Pietra d’inciampo di Gigliola Finzi.jpg"/>
  </node>
  <node id="8382264651" lat="45.6147386" lon="13.8592569">
    <tag k="historic" v="memorial"/>
    <tag k="inscription" v="TUKAJ JE PREBIVAL / AVGUSTIN SANCIN / ROJEN 1902 / PREGNAN 28.05.1944 / RIŽARNA / UMORJEN 12.12.1944 / MAUTHAUSEN"/>
    <tag k="memorial" v="stolperstein"/>
    <tag k="name" v="Avgustin Sancin"/>
    <tag k="operator" v="Boljunska srenja"/>
    <tag k="start_date" v="2021-01-30"/>
  </node>
  <node id="8382264652" lat="45.6147400" lon="13.8592551">
    <tag k="historic" v="memorial"/>
    <tag k="inscription" v="TUKAJ JE PREBIVALA / VIKTORIJA ŽERJAL / SANCIN / ROJENA 1919 / PREGNANA 28.05.1944 / UMORJENA 21.06.1944 / RIŽARNA"/>
    <tag k="memorial" v="stolperstein"/>
    <tag k="name" v="Viktorija Žerjal Sancin"/>
    <tag k="operator" v="Boljunska srenja"/>
    <tag k="start_date" v="2021-01-30"/>
  </node>
  <node id="8382264653" lat="45.6147410" lon="13.8592533">
    <tag k="historic" v="memorial"/>
    <tag k="inscription" v="TUKAJ JE PREBIVALA / MARIJA SLAVEC / ROJENA 1912 / PREGNANA 28.05.1944 / UMORJENA 21.06.1944 / RIŽARNA"/>
    <tag k="memorial" v="stolperstein"/>
    <tag k="name" v="Marija Slavec"/>
    <tag k="operator" v="Boljunska srenja"/>
    <tag k="start_date" v="2021-01-30"/>
  </node>
  <node id="8676225973" lat="45.7891702" lon="8.5407753">
    <tag k="historic" v="memorial"/>
    <tag k="inscription" v="HOTEL MEINA|QUI ERANO RIFUGIATI 22 EBREI|SEGNALATI AI SOLDATI TEDESCHI DELLE SS|ARRESTATI 15.9.1943|IL 22-23 SETTEMBRE 1943|16 FURONO ASSASSINATI"/>
    <tag k="material" v="metal"/>
    <tag k="memorial" v="stolperstein"/>
    <tag k="wikimedia_commons" v="File:Stolpersteine_Meina.jpg"/>
    <tag k="wikipedia" v="it:Pietre d'inciampo in Piemonte#Meina"/>
  </node>
  <node id="8730578754" lat="43.7665005" lon="11.2715310">
    <tag k="historic" v="memorial"/>
    <tag k="inscription" v="Guido Passigli&#x0a;nato 1882&#x0a;deportato&#x0a;Auschwitz&#x0a;assassinato 30.06.1944"/>
    <tag k="memorial" v="stolperstein"/>
    <tag k="name" v="Guido Passigli"/>
  </node>
  <node id="8730679342" lat="43.7664995" lon="11.2715311">
    <tag k="historic" v="memorial"/>
    <tag k="inscription" v="Arturo Servi&#x0a;nato 1868&#x0a;deportato&#x0a;Auschwitz&#x0a;assassinato 30.06.1944"/>
    <tag k="memorial" v="stolperstein"/>
    <tag k="name" v="Arturo Servi"/>
  </node>
  <node id="8730679343" lat="43.7664986" lon="11.2715312">
    <tag k="historic" v="memorial"/>
    <tag k="inscription" v="Corinna Piperno&#x0a;nata 1874&#x0a;deportata&#x0a;Auschwitz&#x0a;assassinata"/>
    <tag k="memorial" v="stolperstein"/>
    <tag k="name" v="Corinna Piperno"/>
  </node>
  <node id="8730679344" lat="43.7664977" lon="11.2715312">
    <tag k="historic" v="memorial"/>
    <tag k="inscription" v="Renée Frieder&#x0a;nata 1942&#x0a;deportata&#x0a;Auschwitz&#x0a;assassinata 30.06.1944"/>
    <tag k="memorial" v="stolperstein"/>
    <tag k="name" v="Renée Frieder"/>
  </node>
  <node id="8730679345" lat="43.7664968" lon="11.2715314">
    <tag k="historic" v="memorial"/>
    <tag k="inscription" v="Regina Schaller&#x0a;nata 1919&#x0a;deportata&#x0a;Auschwitz&#x0a;assassinata"/>
    <tag k="memorial" v="stolperstein"/>
    <tag k="name" v="Regina Schaller"/>
  </node>
  <node id="8730679346" lat="43.7664959" lon="11.2715314">
    <tag k="historic" v="memorial"/>
    <tag k="inscription" v="Sergio Frieder&#x0a;nato 1943&#x0a;deportato&#x0a;Auschwitz&#x0a;assassinato 30.06.1944"/>
    <tag k="memorial" v="stolperstein"/>
    <tag k="name" v="Sergio Frieder"/>
  </node>
  <node id="8730679347" lat="43.7664949" lon="11.2715315">
    <tag k="historic" v="memorial"/>
    <tag k="inscription" v="Claudio Caro&#x0a;nato 1864&#x0a;deportato&#x0a;Auschwitz&#x0a;assassinato"/>
    <tag k="memorial" v="stolperstein"/>
    <tag k="name" v="Claudio Caro"/>
  </node>
  <node id="8730679348" lat="43.7664938" lon="11.2715315">
    <tag k="historic" v="memorial"/>
    <tag k="inscription" v="Giovacchino Servi&#x0a;nato 1868&#x0a;deportato&#x0a;Auschwitz&#x0a;assassinato 30.06.1944"/>
    <tag k="memorial" v="stolperstein"/>
    <tag k="name" v="Giovacchino Servi"/>
  </node>
  <node id="8730679349" lat="43.7664929" lon="11.2715317">
    <tag k="historic" v="memorial"/>
    <tag k="inscription" v="Aldo Racah&#x0a;nato 1890&#x0a;deportato&#x0a;Auschwitz&#x0a;assassinato"/>
    <tag k="memorial" v="stolperstein"/>
    <tag k="name" v="Aldo Racah"/>
  </node>
  <node id="8730679350" lat="43.7665004" lon="11.2715292">
    <tag k="historic" v="memorial"/>
    <tag k="inscription" v="Gemma Bemporad&#x0a;nata 1863&#x0a;deportata&#x0a;Auschwitz&#x0a;assassinata 30.06.1944"/>
    <tag k="memorial" v="stolperstein"/>
    <tag k="name" v="Gemma Bemporad"/>
  </node>
  <node id="8730679351" lat="43.7664995" lon="11.2715293">
    <tag k="historic" v="memorial"/>
    <tag k="inscription" v="Alberto Pacifici&#x0a;nato 1870&#x0a;deportato&#x0a;Auschwitz&#x0a;assassinato 30.06.1944"/>
    <tag k="memorial" v="stolperstein"/>
    <tag k="name" v="Alberto Pacifici"/>
  </node>
  <node id="8730679352" lat="43.7664985" lon="11.2715293">
    <tag k="historic" v="memorial"/>
    <tag k="inscription" v="Ester Della Pergola&#x0a;nata 1866&#x0a;deportata&#x0a;Auschwitz&#x0a;assassinata 30.06.1944"/>
    <tag k="memorial" v="stolperstein"/>
    <tag k="name" v="Ester Della Pergola"/>
  </node>
  <node id="8730679353" lat="43.7664967" lon="11.2715294">
    <tag k="historic" v="memorial"/>
    <tag k="inscription" v="Qui sorgeva&#x0a;l'Ospizio Israelitico Ospedale&#x0a;&quot;Settimio Saadun&quot;&#x0a;24.5.1944&#x0a;24 ebrei sono stati arrestati, deportati e&#x0a;assassinati ad Auschwitz"/>
    <tag k="memorial" v="stolperstein"/>
    <tag k="name" v="Ospizio Israelitico"/>
  </node>
  <node id="8730679354" lat="43.7664949" lon="11.2715297">
    <tag k="historic" v="memorial"/>
    <tag k="inscription" v="Renato Coen&#x0a;nato 1909&#x0a;deportato&#x0a;Auschwitz&#x0a;assassinato"/>
    <tag k="memorial" v="stolperstein"/>
    <tag k="name" v="Renato Coen"/>
  </node>
  <node id="8730679355" lat="43.7664939" lon="11.2715298">
    <tag k="historic" v="memorial"/>
    <tag k="inscription" v="Magenta Nissim&#x0a;nata 1860&#x0a;deportata&#x0a;Fossoli&#x0a;morta 12.06.1944"/>
    <tag k="memorial" v="stolperstein"/>
    <tag k="name" v="Magenta Nissim"/>
  </node>
  <node id="8730679356" lat="43.7664929" lon="11.2715299">
    <tag k="historic" v="memorial"/>
    <tag k="inscription" v="Elisa Orvieto&#x0a;nata 1875&#x0a;deportata&#x0a;Auschwitz&#x0a;assassinata 30.06.1944"/>
    <tag k="memorial" v="stolperstein"/>
    <tag k="name" v="Elisa Orvieto"/>
  </node>
  <node id="8730679357" lat="43.7665004" lon="11.2715274">
    <tag k="historic" v="memorial"/>
    <tag k="inscription" v="Diamante Coen&#x0a;nata 1864&#x0a;deportata&#x0a;Auschwitz&#x0a;assassinata 30.06.1944"/>
    <tag k="memorial" v="stolperstein"/>
    <tag k="name" v="Diamante Coen"/>
  </node>
  <node id="8730679358" lat="43.7664994" lon="11.2715275">
    <tag k="historic" v="memorial"/>
    <tag k="inscription" v="Raffaello Blanes&#x0a;nato 1877&#x0a;deportato&#x0a;Auschwitz&#x0a;assassinato 30.06.1944"/>
    <tag k="memorial" v="stolperstein"/>
    <tag k="name" v="Raffaello Blanes"/>
  </node>
  <node id="8730679359" lat="43.7664985" lon="11.2715276">
    <tag k="historic" v="memorial"/>
    <tag k="inscription" v="Giacomo Luisada&#x0a;nato 1863&#x0a;deportato&#x0a;Auschwitz&#x0a;assassinato 30.06.1944"/>
    <tag k="memorial" v="stolperstein"/>
    <tag k="name" v="Giacomo Luisada"/>
  </node>
  <node id="8730679360" lat="43.7664974" lon="11.2715275">
    <tag k="historic" v="memorial"/>
    <tag k="inscription" v="Enrichetta Sornaga&#x0a;nata 1857&#x0a;deportata&#x0a;Auschwitz&#x0a;assassinata 30.06.1944"/>
    <tag k="memorial" v="stolperstein"/>
    <tag k="name" v="Enrichetta Sornaga"/>
  </node>
  <node id="8730679361" lat="43.7664964" lon="11.2715277">
    <tag k="historic" v="memorial"/>
    <tag k="inscription" v="Elena Calò&#x0a;nata 1854&#x0a;deportata&#x0a;Auschwitz&#x0a;assassinata 30.06.1944"/>
    <tag k="memorial" v="stolperstein"/>
    <tag k="name" v="Elena Calò"/>
  </node>
  <node id="8730679362" lat="43.7664952" lon="11.2715278">
    <tag k="historic" v="memorial"/>
    <tag k="inscription" v="Ester Calò&#x0a;nata 1865&#x0a;deportata&#x0a;Auschwitz&#x0a;assassinata 30.06.1944"/>
    <tag k="memorial" v="stolperstein"/>
    <tag k="name" v="Ester Calò"/>
  </node>
  <node id="8730679363" lat="43.7664943" lon="11.2715279">
    <tag k="historic" v="memorial"/>
    <tag k="inscription" v="Marietta Massa&#x0a;nata 1859&#x0a;deportata&#x0a;Auschwitz&#x0a;assassinata 30.06.1944"/>
    <tag k="memorial" v="stolperstein"/>
    <tag k="name" v="Marietta Massa"/>
  </node>
  <node id="8730679364" lat="43.7664934" lon="11.2715280">
    <tag k="historic" v="memorial"/>
    <tag k="inscription" v="Amedeo Bemporad&#x0a;nato 1869&#x0a;deportato&#x0a;Auschwitz&#x0a;assassinato 30.06.1944"/>
    <tag k="memorial" v="stolperstein"/>
    <tag k="name" v="Amedeo Bemporad"/>
  </node>
  <node id="8730679365" lat="43.7664928" lon="11.2715281">
    <tag k="historic" v="memorial"/>
    <tag k="inscription" v="Ester Sessi&#x0a;nata 1863&#x0a;deportata&#x0a;Auschwitz&#x0a;assassinata 30.06.1944"/>
    <tag k="memorial" v="stolperstein"/>
    <tag k="name" v="Ester Sessi"/>
  </node>
  <node id="9199471184" lat="45.4009033" lon="11.8797649">
    <tag k="historic" v="memorial"/>
    <tag k="inscription" v="A Padova abitava P. Placido Cortese nato 1907 arrestato 8.10.1944 incarcerato Trieste sede Gestapo assassinato 15.11.1944"/>
    <tag k="material" v="metal"/>
    <tag k="memorial" v="stolperstein"/>
    <tag k="name" v="Placido Cortese"/>
    <tag k="start_date" v="2021"/>
    <tag k="wikidata" v="Q28159572"/>
    <tag k="wikipedia" v="it:Pietre d'inciampo in Veneto"/>
  </node>
  <node id="9385637378" lat="41.8927889" lon="12.4779112">
    <tag k="historic" v="memorial"/>
    <tag k="material" v="metal"/>
    <tag k="memorial" v="stolperstein"/>
  </node>
  <node id="9408637257" lat="45.6536321" lon="13.7798217">
    <tag k="historic" v="memorial"/>
    <tag k="inscription" v="QUI ABITAVA / ADELE / RUMPLER BERGER / NATA 1879 / ARRESTATA 20.8.1944 / DEPORTATA / AUSCHWITZ / ASSASSINATA"/>
    <tag k="memorial" v="stolperstein"/>
    <tag k="name" v="Adele Rumpler Berger"/>
    <tag k="start_date" v="2018-01-23"/>
    <tag k="wikimedia_commons" v="File:Stolperstein für Adele Rumpler Berger (Trieste).jpg"/>
  </node>
  <node id="9408637258" lat="45.6536309" lon="13.7798187">
    <tag k="historic" v="memorial"/>
    <tag k="inscription" v="QUI ABITAVA / ALBERTO MONTANARI / NATO 1936 / ARRESTATO 20-8-1944 / DEPORTATO / AUSCHWITZ / ASSASSINATO"/>
    <tag k="memorial" v="stolperstein"/>
    <tag k="name" v="Alberto Montanari"/>
    <tag k="start_date" v="2018-01-23"/>
    <tag k="wikimedia_commons" v="File:Stolperstein für Alberto Montanari (Trieste).jpg"/>
  </node>
  <node id="9408637259" lat="45.6536297" lon="13.7798153">
    <tag k="historic" v="memorial"/>
    <tag k="inscription" v="QUI ABITAVA / EUGENIO GIACOBBE / BERGER / NATO 1867 / ARRESTATO 20.8.1944 / DEPORTATO / AUSCHWITZ / ASSASSINATO"/>
    <tag k="memorial" v="stolperstein"/>
    <tag k="name" v="Eugenio Giacobbe Berger"/>
    <tag k="start_date" v="2018-01-23"/>
    <tag k="wikimedia_commons" v="File:Stolperstein für Eugenio Giacobbe Berger (Trieste).jpg"/>
  </node>
  <node id="9408637260" lat="45.6482696" lon="13.7669103">
    <tag k="historic" v="memorial"/>
    <tag k="inscription" v="QUI ABITAVA / DIAMANTINA VIVANTE / NATA 1928 / ARRESTATA 6.11.1944 / DEPORTATA 1945 / RAVENSBRÜCK / BERGEN-BELSEN / LIBERATA"/>
    <tag k="memorial" v="stolperstein"/>
    <tag k="name" v="Diamantina Vivante"/>
    <tag k="start_date" v="2018-01-23"/>
    <tag k="wikimedia_commons" v="File:Stolperstein für Diamantina Vivante (Trieste).jpg"/>
  </node>
  <node id="9408637261" lat="45.6482741" lon="13.7669149">
    <tag k="historic" v="memorial"/>
    <tag k="inscription" v="QUI ABITAVA / MOISE VIVANTE / NATO 1925 / ARRESTATO 17.12.1943 / DEPORTATO 1944 / AUSCHWITZ / MORTO 1945 / BERGEN-BELSEN"/>
    <tag k="memorial" v="stolperstein"/>
    <tag k="name" v="Moise Vivante"/>
    <tag k="start_date" v="2018-01-23"/>
    <tag k="wikimedia_commons" v="File:Stolperstein für Moise Vivante (Trieste).jpg"/>
  </node>
  <node id="9408637262" lat="45.6482785" lon="13.7669210">
    <tag k="historic" v="memorial"/>
    <tag k="inscription" v="QUI ABITAVA / ENRICHETTA VIVANTE / NATA 1921 / ARRESTATA 6.11.1944 / DEPORTATA 1945 / RAVENSBRÜCK / MORTA 15.4.1945 / BERGEN-BELSEN"/>
    <tag k="memorial" v="stolperstein"/>
    <tag k="name" v="Enrichetta Vivante"/>
    <tag k="start_date" v="2018-01-23"/>
    <tag k="wikimedia_commons" v="File:Stolperstein für Enrichetta Vivante (Trieste).jpg"/>
  </node>
  <node id="9408637263" lat="45.6482661" lon="13.7669190">
    <tag k="historic" v="memorial"/>
    <tag k="inscription" v="QUI ABITAVA / ESTER VIVANTE / NATA 1918 / ARRESTATA 6.11.1944 / DEPORTATA 1945 / RAVENSBRÜCK / MORTA 4.6.1945 / BERGEN-BELSEN"/>
    <tag k="memorial" v="stolperstein"/>
    <tag k="name" v="Ester Vivante"/>
    <tag k="start_date" v="2018-01-23"/>
    <tag k="wikimedia_commons" v="File:Stolperstein für Ester Vivante (Trieste).jpg"/>
  </node>
  <node id="9408637264" lat="45.6482701" lon="13.7669237">
    <tag k="historic" v="memorial"/>
    <tag k="inscription" v="QUI ABITAVA / SARINA SALONICCHIO / VIVANTE / NATA 1891 / ARRESTATA 6.11.1944 / DEPORTATA 1945 / RAVENSBRÜCK / MORTA 15.4.1945 / BERGEN-BELSEN"/>
    <tag k="memorial" v="stolperstein"/>
    <tag k="name" v="Sarina Salonicchio Vivante"/>
    <tag k="start_date" v="2018-01-23"/>
    <tag k="wikimedia_commons" v="File:Stolperstein für Sarina Salonicchio Vivante (Trieste).jpg"/>
  </node>
  <node id="9408637265" lat="45.6482747" lon="13.7669285">
    <tag k="historic" v="memorial"/>
    <tag k="inscription" v="QUI ABITAVA / GIULIA VIVANTE / NATA 1916 / ARRESTATA 6.11.1944 / DEPORTATA 1945 / RAVENSBRÜCK / MORTA 30.4.1945 / BERGEN-BELSEN"/>
    <tag k="memorial" v="stolperstein"/>
    <tag k="name" v="Giulia Vivante"/>
    <tag k="start_date" v="2018-01-23"/>
    <tag k="wikimedia_commons" v="File:Stolperstein für Giulia Vivante (Trieste).jpg"/>
  </node>
  <node id="9408637266" lat="45.6500982" lon="13.7698955">
    <tag k="historic" v="memorial"/>
    <tag k="inscription" v="QUI ABITAVA / STELLA MARCHERIA / NATA 1930 / ARRESTATA 3.11.1943 / DEPORTATA 1943 / AUSCHWITZ / RAVENSBRÜCK / LIBERATA"/>
    <tag k="memorial" v="stolperstein"/>
    <tag k="name" v="Stella Marcheria"/>
    <tag k="start_date" v="2018-01-23"/>
    <tag k="wikimedia_commons" v="File:Stolperstein für Stella Marcheria (Trieste).jpg"/>
  </node>
  <node id="9408637267" lat="45.6501033" lon="13.7699070">
    <tag k="historic" v="memorial"/>
    <tag k="inscription" v="QUI ABITAVA / IDA MARCHERIA / NATA 1929 / ARRESTATA 3.11.1943 / DEPORTATA 1943 / AUSCHWITZ / RAVENSBRÜCK / LIBERATA"/>
    <tag k="memorial" v="stolperstein"/>
    <tag k="name" v="Ida Marcheria"/>
    <tag k="start_date" v="2018-01-23"/>
    <tag k="wikimedia_commons" v="File:Stolperstein für Ida Marcheria (Trieste).jpg"/>
  </node>
  <node id="9408637268" lat="45.6500907" lon="13.7699026">
    <tag k="historic" v="memorial"/>
    <tag k="inscription" v="QUI ABITAVA / ANNA / NACSON MARCHERIA / NATA 1903 / ARRESTATA 3.11.1943 / DEPORTATA / ASSASSINATA 11.12.1943 / AUSCHWITZ"/>
    <tag k="memorial" v="stolperstein"/>
    <tag k="name" v="Anna Nacson Marcheria"/>
    <tag k="start_date" v="2018-01-23"/>
    <tag k="wikimedia_commons" v="File:Stolperstein für Anna Nacson Marcheria (Trieste).jpg"/>
  </node>
  <node id="9408637269" lat="45.6500948" lon="13.7699108">
    <tag k="historic" v="memorial"/>
    <tag k="inscription" v="QUI ABITAVA / RAFFAELE / MARCHERIA / NATO 1927 / ARRESTATO 3.11.1943 / DEPORTATO 1943 / ASSASSINATO / AUSCHWITZ"/>
    <tag k="memorial" v="stolperstein"/>
    <tag k="name" v="Raffaele Marcheria"/>
    <tag k="start_date" v="2018-01-23"/>
    <tag k="wikimedia_commons" v="File:Stolperstein für Raffaele Marcheria (Trieste).jpg"/>
  </node>
  <node id="9408637270" lat="45.6501071" lon="13.7699171">
    <tag k="historic" v="memorial"/>
    <tag k="inscription" v="QUI ABITAVA / GIACOMO MARCHERIA / NATO 1926 / ARRESTATO 3.11.1943 / DEPORTATO 1943 / AUSCHWITZ / DACHAU / LIBERATO"/>
    <tag k="memorial" v="stolperstein"/>
    <tag k="name" v="Giacomo Marcheria"/>
    <tag k="start_date" v="2018-01-23"/>
    <tag k="wikimedia_commons" v="File:Stolperstein für Giacomo Marcheria (Trieste).jpg"/>
  </node>
  <node id="9408637271" lat="45.6533804" lon="13.7798674">
    <tag k="historic" v="memorial"/>
    <tag k="inscription" v="QUI LAVORAVA / CARLO NATHAN / MORPURGO / NATO 1890 / ARRESTATO 20.1.1944 / DEPORTATO / ASSASSINATO 4.11.1944 / AUSCHWITZ"/>
    <tag k="memorial" v="stolperstein"/>
    <tag k="name" v="Carlo Nathan Morpurgo"/>
    <tag k="start_date" v="2018-01-23"/>
    <tag k="wikimedia_commons" v="File:Stolperstein für Carlo Nathan Morpurgo (Triest).jpg"/>
  </node>
  <node id="9408637272" lat="45.6500980" lon="13.7699220">
    <tag k="historic" v="memorial"/>
    <tag k="inscription" v="QUI ABITAVA / ERNESTO MARCHERIA / NATO 1898 / ARRESTATO 3.11.1943 / DEPORTATO 1943 / ASSASSINATO 2.5.1944 / AUSCHWITZ"/>
    <tag k="memorial" v="stolperstein"/>
    <tag k="name" v="Ernesto Marcheria"/>
    <tag k="start_date" v="2018-01-23"/>
    <tag k="wikimedia_commons" v="File:Stolperstein für Ernesto Marcheria (Trieste).jpg"/>
  </node>
  <node id="9411400936" lat="45.6432273" lon="13.7611515">
    <tag k="historic" v="memorial"/>
    <tag k="inscription" v="QUI ABITAVA / ELISA HERING / NATA 1902 / ARRESTATA 23.10.1944 / DEPORTATA / AUSCHWITZ / ASSASSINATA"/>
    <tag k="memorial" v="stolperstein"/>
    <tag k="name" v="Elisa Hering"/>
    <tag k="operator" v="Comunità ebraica di Trieste"/>
    <tag k="start_date" v="2022-01-10"/>
  </node>
  <node id="9411400937" lat="45.6432236" lon="13.7611579">
    <tag k="historic" v="memorial"/>
    <tag k="inscription" v="QUI ABITAVA / VITTORIO HERING / NATO 1906 / ARRESTATO 28.10.1945 / DEPORTATO 1945 / RAVENSBRÜCK / DACHAU / LIBERATO"/>
    <tag k="memorial" v="stolperstein"/>
    <tag k="name" v="Vittorio Hering"/>
    <tag k="operator" v="Comunità ebraica di Trieste"/>
    <tag k="start_date" v="2022-01-10"/>
  </node>
  <node id="9411400938" lat="45.6421204" lon="13.7792096">
    <tag k="historic" v="memorial"/>
    <tag k="inscription" v="QUI ABITAVA / LEONE LAZZARO / WANDEL / NATO 1886 / ARRESTATO 31.1.1945 / DEPORTATO / RAVENSBRÜCK / BERGEN-BELSEN / ASSASSINATO"/>
    <tag k="memorial" v="stolperstein"/>
    <tag k="name" v="Leone Lazzaro Wandel"/>
    <tag k="operator" v="Comunità ebraica di Trieste"/>
    <tag k="start_date" v="2022-01-10"/>
  </node>
  <node id="9411400939" lat="45.6466476" lon="13.7683665">
    <tag k="historic" v="memorial"/>
    <tag k="inscription" v="QUI ABITAVA / DAVID DARIO / OSMO / NATO 1901 / ARRESTATO 31.1.1944 / DEPORTATO / AUSCHWITZ / ASSASSINATO"/>
    <tag k="memorial" v="stolperstein"/>
    <tag k="name" v="David Dario Osmo"/>
    <tag k="operator" v="Comunità ebraica di Trieste"/>
    <tag k="start_date" v="2022-01-10"/>
  </node>
  <node id="9411400940" lat="45.6420679" lon="13.7851252">
    <tag k="historic" v="memorial"/>
    <tag k="inscription" v="QUI ABITAVA / ABRAMINO / SALONICCHIO / NATO 1896 / ARRESTATO 24.11.1943 / DEPORTATO / AUSCHWITZ / ASSASSINATO"/>
    <tag k="memorial" v="stolperstein"/>
    <tag k="name" v="Abramino Salonicchio"/>
    <tag k="operator" v="Comunità ebraica di Trieste"/>
    <tag k="start_date" v="2022-01-10"/>
  </node>
  <node id="9411400941" lat="45.6489909" lon="13.7795996">
    <tag k="historic" v="memorial"/>
    <tag k="inscription" v="QUI LAVORAVA / GIOVANNI VREMEZ / NATO 1881 / ARRESTATO 10.12.1943 / DEPORTATO 1944 / DACHAU / NATZWEILER-STRUTHOF / ASSASSINATO 30.4.1944"/>
    <tag k="memorial" v="stolperstein"/>
    <tag k="name" v="Giovanni Vremez"/>
    <tag k="operator" v="Comunità ebraica di Trieste"/>
    <tag k="start_date" v="2022-01-10"/>
  </node>
  <node id="9411400942" lat="45.6489971" lon="13.7796001">
    <tag k="historic" v="memorial"/>
    <tag k="inscription" v="QUI LAVORAVA / GIUSEPPE / MOSETTI (MOZETIČ) / NATO 1901 / ARRESTATO 10.12.1943 / DEPORTATO 1944 / DACHAU / NATZWEILER-STRUTHOF / DACHAU / MORTO 24.5.1945"/>
    <tag k="memorial" v="stolperstein"/>
    <tag k="name" v="Giuseppe Mosetti (Mozetič)"/>
    <tag k="operator" v="Comunità ebraica di Trieste"/>
    <tag k="start_date" v="2022-01-10"/>
  </node>
  <node id="9411400943" lat="45.6489937" lon="13.7795976">
    <tag k="historic" v="memorial"/>
    <tag k="inscription" v="QUI LAVORAVA / ANGELO MATTEONI / NATO 1908 / ARRESTATO 10.12.1943 / DEPORTATO 1944 / DACHAU / MAUTHAUSEN / ASSASSINATO 25.4.1945"/>
    <tag k="memorial" v="stolperstein"/>
    <tag k="name" v="Angelo Matteoni"/>
    <tag k="operator" v="Comunità ebraica di Trieste"/>
    <tag k="start_date" v="2022-01-10"/>
  </node>
  <node id="9411400944" lat="45.6489946" lon="13.7796022">
    <tag k="historic" v="memorial"/>
    <tag k="inscription" v="QUI LAVORAVA / ERMIDIO ZULIANI / NATO 1908 / ARRESTATO 10.12.1943 / ASSASSINATO"/>
    <tag k="memorial" v="stolperstein"/>
    <tag k="name" v="Ermidio Zuliani"/>
    <tag k="operator" v="Comunità ebraica di Trieste"/>
    <tag k="start_date" v="2022-01-10"/>
  </node>
  <node id="9411400945" lat="45.6489878" lon="13.7795928">
    <tag k="historic" v="memorial"/>
    <tag k="inscription" v="QUI LAVORAVA / CARLO / CALZI (KALC) / NATO 1904 / ARRESTATO 10.12.1943 / DEPORTATO 1944 / DACHAU / NATZWEILER-STRUTHOF / ASSASSINATO 19.7.1944"/>
    <tag k="memorial" v="stolperstein"/>
    <tag k="name" v="Carlo Calzi (Kalc)"/>
    <tag k="operator" v="Comunità ebraica di Trieste"/>
    <tag k="start_date" v="2022-01-10"/>
  </node>
  <node id="9411400946" lat="45.6489908" lon="13.7795952">
    <tag k="historic" v="memorial"/>
    <tag k="inscription" v="QUI LAVORAVA / FRANCESCO / GREGORI (GRGIČ) / NATO 1905 / ARRESTATO 10.12.1943 / DEPORTATO 1944 / DACHAU / ASSASSINATO 28.4.1945"/>
    <tag k="memorial" v="stolperstein"/>
    <tag k="name" v="Francesco Gregori (Grgič)"/>
    <tag k="operator" v="Comunità ebraica di Trieste"/>
    <tag k="start_date" v="2022-01-10"/>
  </node>
  <node id="9411400947" lat="45.6489877" lon="13.7795971">
    <tag k="historic" v="memorial"/>
    <tag k="inscription" v="QUI LAVORAVA / FRANCESCO RAUBER / NATO 1900 / ARRESTATO 10.12.1943 / DEPORTATO 1944 / DACHAU / ASSASSINATO 30.12.1944"/>
    <tag k="memorial" v="stolperstein"/>
    <tag k="name" v="Francesco Rauber"/>
    <tag k="operator" v="Comunità ebraica di Trieste"/>
    <tag k="start_date" v="2022-01-10"/>
  </node>
  <node id="9411400948" lat="45.6482408" lon="13.7803834">
    <tag k="historic" v="memorial"/>
    <tag k="inscription" v="QUI ABITAVA / ELIA NACSON / NATO 1922 / ARRESTATO 30.11.1943 / DEPORTATO 1944 / AUSCHWITZ / ASSASSINATO 7.5.1944"/>
    <tag k="memorial" v="stolperstein"/>
    <tag k="name" v="Elia Nacson"/>
    <tag k="operator" v="Comunità ebraica di Trieste"/>
    <tag k="start_date" v="2022-01-10"/>
  </node>
  <node id="9411400949" lat="45.6534994" lon="13.7818788">
    <tag k="historic" v="memorial"/>
    <tag k="inscription" v="QUI ABITAVA / LINA / STEINDLER REVERE / NATA 1866 / ARRESTATA 19.12.1943 / DEPORTATA 1944 / AUSCHWITZ / ASSASSINATA 12.1.1944"/>
    <tag k="memorial" v="stolperstein"/>
    <tag k="name" v="Lina Steindler Revere"/>
    <tag k="operator" v="Comunità ebraica di Trieste"/>
    <tag k="start_date" v="2022-01-10"/>
  </node>
  <node id="9411400950" lat="45.6516055" lon="13.7837570">
    <tag k="historic" v="memorial"/>
    <tag k="inscription" v="QUI ABITAVA / ELDA / MAYER GREGO / ROMANELLI / NATA 1885 / ARRESTATA 30.11.1943 / DEPORTATA / AUSCHWITZ / ASSASSINATA"/>
    <tag k="memorial" v="stolperstein"/>
    <tag k="name" v="Elda Mayer Grego Romanelli"/>
    <tag k="operator" v="Comunità ebraica di Trieste"/>
    <tag k="start_date" v="2022-01-10"/>
  </node>
  <node id="9411400951" lat="45.6539138" lon="13.7806884">
    <tag k="historic" v="memorial"/>
    <tag k="inscription" v="QUI ABITAVA / ERMENEGILDA / TEDESCHI LUST / NATA 1867 / ARRESTATA 29.10.1943 / DEPORTATA / ASSASSINATA 9.12.1943 / DURANTE IL TRASPORTO"/>
    <tag k="memorial" v="stolperstein"/>
    <tag k="name" v="Ermenegilda Tedeschi Lust"/>
    <tag k="operator" v="Comunità ebraica di Trieste"/>
    <tag k="start_date" v="2022-01-10"/>
  </node>
  <node id="9411400952" lat="45.6539146" lon="13.7806901">
    <tag k="historic" v="memorial"/>
    <tag k="inscription" v="QUI ABITAVA / FANNI LUST / NATA 1903 / ARRESTATA 29.10.1943 / DEPORTATA / AUSCHWITZ / ASSASSINATA 11.12.1943"/>
    <tag k="memorial" v="stolperstein"/>
    <tag k="name" v="Fanni Lust"/>
    <tag k="operator" v="Comunità ebraica di Trieste"/>
    <tag k="start_date" v="2022-01-10"/>
  </node>
  <node id="9411400953" lat="45.6559409" lon="13.7726245">
    <tag k="historic" v="memorial"/>
    <tag k="inscription" v="QUI ABITAVA / ADELE GENTILOMO / FINZI / NATA 1883 / ARRESTATA 19.3.1944 / INTERNATA FOSSOLI / DEPORTATA / AUSCHWITZ / ASSASSINATA 23.5.1944"/>
    <tag k="memorial" v="stolperstein"/>
    <tag k="name" v="Adele Gentilomo Finzi"/>
    <tag k="operator" v="Comunità ebraica di Trieste"/>
    <tag k="start_date" v="2022-01-10"/>
  </node>
  <node id="9411400954" lat="45.6559392" lon="13.7726317">
    <tag k="historic" v="memorial"/>
    <tag k="inscription" v="QUI ABITAVA / ROBERTO MOISÈ / FINZI / NATO 1881 / ARRESTATO 19.3.1944 / INTERNATO FOSSOLI / DEPORTATO / AUSCHWITZ / ASSASSINATO 23.5.1944"/>
    <tag k="memorial" v="stolperstein"/>
    <tag k="name" v="Roberto Moisè Finzi"/>
    <tag k="operator" v="Comunità ebraica di Trieste"/>
    <tag k="start_date" v="2022-01-10"/>
  </node>
  <node id="9411400955" lat="45.6496482" lon="13.7703107">
    <tag k="historic" v="memorial"/>
    <tag k="inscription" v="QUI ABITAVA / LUCIA ELIEZER / NATA 1925 / ARRESTATA 2.2.1945 / DEPORTATA / RAVENSBRÜCK / BERGEN-BELSEN / LIBERATA"/>
    <tag k="memorial" v="stolperstein"/>
    <tag k="name" v="Lucia Eliezer"/>
    <tag k="operator" v="Comunità ebraica di Trieste"/>
    <tag k="start_date" v="2022-01-10"/>
  </node>
  <node id="9417996375" lat="45.8430243" lon="13.5409854">
    <tag k="historic" v="memorial"/>
    <tag k="inscription" v="TUKAJ JE PREBIVAL / ALOJZ JELEN / ROJEN 1904 / PREGNAN V / BUCHENWALD / UMORJEN 24.12.1944 / HALBERSTADT"/>
    <tag k="memorial" v="stolperstein"/>
    <tag k="name" v="Alojz Jelen"/>
    <tag k="operator" v="Slovensko katoliško društvo Hrast"/>
    <tag k="start_date" v="2020-01-20"/>
    <tag k="wikimedia_commons" v="File:Alojz Jelen-5062-Peralta.jpg"/>
  </node>
  <node id="9417996376" lat="45.8376202" lon="13.5673738">
    <tag k="historic" v="memorial"/>
    <tag k="inscription" v="TUKAJ JE PREBIVAL / JOŽEF BONETA / ROJEN 1900 / PREGNAN V / DACHAU / UMORJEN 10.4.1945"/>
    <tag k="memorial" v="stolperstein"/>
    <tag k="name" v="Jožef Boneta"/>
    <tag k="operator" v="Slovensko katoliško društvo Hrast"/>
    <tag k="start_date" v="2020-01-20"/>
    <tag k="wikimedia_commons" v="File:Stolperstein für Jozef Boneta (Doberdo del Lago).jpg"/>
  </node>
  <node id="9418001366" lat="45.8457880" lon="13.5403208">
    <tag k="historic" v="memorial"/>
    <tag k="inscription" v="TUKAJ JE PREBIVAL / JOŽEF FERLETIČ / ROJEN 1908 / PREGNAN V / MAUTHAUSEN-EBENSEE / UMORJEN 27.2.1945"/>
    <tag k="memorial" v="stolperstein"/>
    <tag k="name" v="Jožef Ferletič"/>
    <tag k="operator" v="Slovensko katoliško društvo Hrast"/>
    <tag k="start_date" v="2020-01-20"/>
    <tag k="wikimedia_commons" v="File:Jozef Ferletic-5054-Peralta.jpg"/>
  </node>
  <node id="9418077184" lat="45.8608950" lon="13.5484934">
    <tag k="historic" v="memorial"/>
    <tag k="inscription" v="TUKAJ JE PREBIVAL / RUDOLF LAVRENČIČ / ROJEN 1924 / PREGNAN / BUCHENWALD / UMORJEN 6.3.1945"/>
    <tag k="memorial" v="stolperstein"/>
    <tag k="name" v="Rudolf Lavrenčič"/>
    <tag k="operator" v="Slovensko katoliško društvo Hrast"/>
    <tag k="start_date" v="2019-01-28"/>
    <tag k="wikimedia_commons" v="File:Stolperstein für Rudolf Lavrencic 1924 (Doberdo del Lago).jpg"/>
  </node>
  <node id="9418077185" lat="45.8608942" lon="13.5484903">
    <tag k="historic" v="memorial"/>
    <tag k="inscription" v="TUKAJ JE PREBIVAL / RUDOLF LAVRENČIČ / ROJEN 1895 / PREGNAN / BUCHENWALD-OHRDRUF / UMORJEN 6.3.1945"/>
    <tag k="memorial" v="stolperstein"/>
    <tag k="name" v="Rudolf Lavrenčič"/>
    <tag k="operator" v="Slovensko katoliško društvo Hrast"/>
    <tag k="start_date" v="2019-01-28"/>
    <tag k="wikimedia_commons" v="File:Stolperstein für Rudolf Lavrencic 1895 (Doberdo del Lago).jpg"/>
  </node>
  <node id="9418077186" lat="45.8454630" lon="13.5399547">
    <tag k="historic" v="memorial"/>
    <tag k="inscription" v="TUKAJ JE PREBIVAL / JOŽEF FERFOLJA / ROJEN 1902 / PREGNAN / DACHAU / UMORJEN 29.12.1944"/>
    <tag k="memorial" v="stolperstein"/>
    <tag k="name" v="Jožef Ferfolja"/>
    <tag k="operator" v="Slovensko katoliško društvo Hrast"/>
    <tag k="start_date" v="2019-01-28"/>
    <tag k="wikimedia_commons" v="File:Stolperstein für Jozef Ferfolja (Doberdo del Lago).jpg"/>
  </node>
  <node id="9418331009" lat="45.8433187" lon="13.5400591">
    <tag k="historic" v="memorial"/>
    <tag k="inscription" v="TUKAJ JE PREBIVAL / ANDREJ FRANDOLIČ / ROJEN 1899 / PREGNAN 12.10.1944 / UMORJEN 1.2.1945 / DACHAU"/>
    <tag k="memorial" v="stolperstein"/>
    <tag k="name" v="Andrej Frandolič"/>
    <tag k="operator" v="Slovensko katoliško društvo Hrast"/>
    <tag k="start_date" v="2018-01-23"/>
    <tag k="wikimedia_commons" v="File:Stolperstein für Andrej Frandolic (Doberdò del Lago).jpg"/>
  </node>
  <node id="9425101179" lat="45.6538183" lon="13.7743564">
    <tag k="historic" v="memorial"/>
    <tag k="inscription" v="QUI ABITAVA / GISELLA HAFFNER / NATA 1876 / ARRESTATA 20.1.1944 / DEPORTATA / AUSCHWITZ / ASSASSINATA 2.2.1944"/>
    <tag k="memorial" v="stolperstein"/>
    <tag k="name" v="Gisella Haffner"/>
    <tag k="operator" v="Comunità ebraica di Trieste"/>
    <tag k="start_date" v="2019-01-29"/>
    <tag k="wikimedia_commons" v="File:Stolperstein für Gisella Haffner (Triest).jpg"/>
  </node>
  <node id="9425101180" lat="45.6492372" lon="13.7741188">
    <tag k="historic" v="memorial"/>
    <tag k="inscription" v="QUI ABITAVA / GINA DUBINSKY / NATA 1918 / ARRESTATA 30.11.1943 / AUSCHWITZ / ASSASSINATA 26.2.1944"/>
    <tag k="memorial" v="stolperstein"/>
    <tag k="name" v="Regina Selde Dubinsky (Gina)"/>
    <tag k="operator" v="Comunità ebraica di Trieste"/>
    <tag k="start_date" v="2019-01-29"/>
    <tag k="wikimedia_commons" v="File:Stolperstein für Gina Dubinsky (Triest).jpg"/>
  </node>
  <node id="9425101181" lat="45.6492369" lon="13.7741036">
    <tag k="historic" v="memorial"/>
    <tag k="inscription" v="QUI ABITAVA / SAUL DUBINSKY / NATO 1885 / ARRESTATO 30.11.1943 / DEPORTATO 1944 / AUSCHWITZ / ASSASSINATO"/>
    <tag k="memorial" v="stolperstein"/>
    <tag k="name" v="Saul Dubinsky"/>
    <tag k="operator" v="Comunità ebraica di Trieste"/>
    <tag k="start_date" v="2019-01-29"/>
    <tag k="wikimedia_commons" v="File:Stolperstein für Saul Dubinsky (Triest).jpg"/>
  </node>
  <node id="9425101182" lat="45.6492372" lon="13.7741113">
    <tag k="historic" v="memorial"/>
    <tag k="inscription" v="QUI ABITAVA / LJUBA / STRILZOV DUBINSKY / NATA 1887 / DEPORTATA / AUSCHWITZ / ASSASSINATA"/>
    <tag k="memorial" v="stolperstein"/>
    <tag k="name" v="Ljuba Strilzov Dubinsky"/>
    <tag k="operator" v="Comunità ebraica di Trieste"/>
    <tag k="start_date" v="2019-01-29"/>
    <tag k="wikimedia_commons" v="File:Stolperstein für Ljuba Strilzov Dubinsky (Triest).jpg"/>
  </node>
  <node id="9425101189" lat="45.6439496" lon="13.7892236">
    <tag k="historic" v="memorial"/>
    <tag k="inscription" v="QUI ABITAVA / LAZZARO BELLELI / NATO 1906 / ARRESTATO 19.11.1943 / DEPORTATO 1943 / AUSCHWITZ / ASSASSINATO"/>
    <tag k="memorial" v="stolperstein"/>
    <tag k="name" v="Lazzaro Belleli"/>
    <tag k="operator" v="Comunità ebraica di Trieste"/>
    <tag k="start_date" v="2019-01-29"/>
    <tag k="wikimedia_commons" v="File:Stolperstein für Lazzaro Belleli (Triest).jpg"/>
  </node>
  <node id="9425101190" lat="45.6502233" lon="13.7791855">
    <tag k="historic" v="memorial"/>
    <tag k="inscription" v="QUI ABITAVA / DIAMANTINA / BARNESTEIN / NATA 1897 / ARRESTATA 22.10.1943 / DEPORTATA 1944 / AUSCHWITZ / ASSASSINATA"/>
    <tag k="memorial" v="stolperstein"/>
    <tag k="name" v="Diamantina Barnestein"/>
    <tag k="operator" v="Comunità ebraica di Trieste"/>
    <tag k="start_date" v="2019-01-29"/>
    <tag k="wikimedia_commons" v="File:Stolperstein für Diamantina Barnestein (Triest).jpg"/>
  </node>
  <node id="9425154944" lat="45.6526930" lon="13.7745107">
    <tag k="historic" v="memorial"/>
    <tag k="inscription" v="QUI ABITAVA / GINO PARIN / (POLLACK) / NATO 1876 / ARRESTATO / DEPORTATO 1944 / BERGEN-BELSEN / ASSASSINATO 9.6.1944"/>
    <tag k="memorial" v="stolperstein"/>
    <tag k="name" v="Federico Guglielmo Jehuda Pollack (Gino Parin)"/>
    <tag k="operator" v="Comunità ebraica di Trieste"/>
    <tag k="start_date" v="2019-01-29"/>
    <tag k="wikimedia_commons" v="File:Stolperstein für Gino Parin (Triest).jpg"/>
  </node>
  <node id="9425154951" lat="45.6478057" lon="13.7690113">
    <tag k="historic" v="memorial"/>
    <tag k="inscription" v="QUI ABITAVA / MARCO MOISE / MUSTACCHI / NATO 1916 / ARRESTATO 9.6.1944 / DEPORTATO 1944 / AUSCHWITZ / SACHSENHAUSEN / LANDSBERG AM LECH / KAUFERING - DACHAU / MORTO 15.5.1945"/>
    <tag k="memorial" v="stolperstein"/>
    <tag k="name" v="Marco Moisè Mustacchi"/>
    <tag k="operator" v="Comunità ebraica di Trieste"/>
    <tag k="start_date" v="2019-01-29"/>
    <tag k="wikimedia_commons" v="File:Stolperstein für Marco Moise Mustacchi (Triest).jpg"/>
  </node>
  <node id="9425154954" lat="45.6527459" lon="13.7759592">
    <tag k="historic" v="memorial"/>
    <tag k="inscription" v="QUI ABITAVA / GUIDO MAESTRO / NATO 1875 / ARRESTATO 28.7.1944 / DEPORTATO / AUSCHWITZ / ASSASSINATO 3.8.1944"/>
    <tag k="memorial" v="stolperstein"/>
    <tag k="name" v="Guido Maestro"/>
    <tag k="operator" v="Comunità ebraica di Trieste"/>
    <tag k="start_date" v="2019-01-29"/>
    <tag k="wikimedia_commons" v="File:Stolperstein für Guido Maestro (Triest).jpg"/>
  </node>
  <node id="9425154961" lat="45.6500938" lon="13.7837766">
    <tag k="historic" v="memorial"/>
    <tag k="inscription" v="QUI ABITAVA / SALOMONE CARLO / MAESTRO / NATO 1866 / ARRESTATO 28.7.1944 / DEPORTATO / AUSCHWITZ / ASSASSINATO 3.8.1944"/>
    <tag k="memorial" v="stolperstein"/>
    <tag k="name" v="Salomone Akivà Maestro (Carlo)"/>
    <tag k="operator" v="Comunità ebraica di Trieste"/>
    <tag k="start_date" v="2019-01-29"/>
    <tag k="wikimedia_commons" v="File:Stolperstein für Salomone Carlo Maestro (Triest).jpg"/>
  </node>
  <node id="9425154962" lat="45.6500952" lon="13.7837823">
    <tag k="historic" v="memorial"/>
    <tag k="inscription" v="QUI ABITAVA / BICE / ROSSI MAESTRO / NATA 1879 / ARRESTATA 28.7.1944 / DEPORTATA / AUSCHWITZ / ASSASSINATA 3.8.1944"/>
    <tag k="memorial" v="stolperstein"/>
    <tag k="name" v="Bice Rossi Maestro"/>
    <tag k="operator" v="Comunità ebraica di Trieste"/>
    <tag k="start_date" v="2019-01-29"/>
    <tag k="wikimedia_commons" v="File:Stolperstein für Bice Rossi Maestro (Triest).jpg"/>
  </node>
  <node id="9425154966" lat="45.6506613" lon="13.7854284">
    <tag k="historic" v="memorial"/>
    <tag k="inscription" v="QUI ABITAVA / LIDIA LÖWY / NATA 1901 / ARRESTATA 21.6.1944 / DEPORTATA / AUSCHWITZ / ASSASSINATA 3.12.1944"/>
    <tag k="memorial" v="stolperstein"/>
    <tag k="name" v="Lidia Löwy"/>
    <tag k="operator" v="Comunità ebraica di Trieste"/>
    <tag k="start_date" v="2019-01-29"/>
    <tag k="wikimedia_commons" v="File:Stolperstein für Lidia Löwy (Triest).jpg"/>
  </node>
  <node id="9425154967" lat="45.6506584" lon="13.7854301">
    <tag k="historic" v="memorial"/>
    <tag k="inscription" v="QUI ABITAVA / ENRICO LÖWY / NATO 1876 / ARRESTATO 8.8.1944 / DEPORTATO / AUSCHWITZ / ASSASSINATO 1944"/>
    <tag k="memorial" v="stolperstein"/>
    <tag k="name" v="Enrico Löwy"/>
    <tag k="operator" v="Comunità ebraica di Trieste"/>
    <tag k="start_date" v="2019-01-29"/>
    <tag k="wikimedia_commons" v="File:Stolperstein für Enrico Löwy (Triest).jpg"/>
  </node>
  <node id="9425945342" lat="45.6491867" lon="13.7859289">
    <tag k="historic" v="memorial"/>
    <tag k="inscription" v="QUI ABITAVA / ENRICHETTA ALPRON / NATA 1866 / ARRESTATA 20.2.1944 / DEPORTATA 1944 / AUSCHWITZ / ASSASSINATA"/>
    <tag k="memorial" v="stolperstein"/>
    <tag k="name" v="Enrichetta Alpron"/>
    <tag k="operator" v="Comunità ebraica di Trieste"/>
    <tag k="start_date" v="2020-01-21"/>
    <tag k="wikimedia_commons" v="File:Enrichetta Alpron-5108-Peralta.jpg"/>
  </node>
  <node id="9425945343" lat="45.6547907" lon="13.7896721">
    <tag k="historic" v="memorial"/>
    <tag k="inscription" v="QUI ABITAVA / DANIELE ISRAEL / NATO 1910 / ARRESTATO 30.12.1943 / DEPORTATO 1944 / AUSCHWITZ / ASSASSINATO"/>
    <tag k="memorial" v="stolperstein"/>
    <tag k="name" v="Daniele Israel"/>
    <tag k="operator" v="Comunità ebraica di Trieste"/>
    <tag k="start_date" v="2020-01-21"/>
    <tag k="wikimedia_commons" v="File:Daniele Israel-5069-Peralta.jpg"/>
  </node>
  <node id="9425945344" lat="45.6547830" lon="13.7896766">
    <tag k="historic" v="memorial"/>
    <tag k="inscription" v="QUI ABITAVA / STELLA / NACSON BISSON / NATA 1891 / ARRESTATA 30.12.1943 / DEPORTATA 1944 / AUSCHWITZ / ASSASSINATA 7.9.1944"/>
    <tag k="memorial" v="stolperstein"/>
    <tag k="name" v="Stella Nacson Bisson"/>
    <tag k="operator" v="Comunità ebraica di Trieste"/>
    <tag k="start_date" v="2020-01-21"/>
    <tag k="wikimedia_commons" v="File:Stella Nacson Bisson-5074-Peralta.jpg"/>
  </node>
  <node id="9425945345" lat="45.6547928" lon="13.7896827">
    <tag k="historic" v="memorial"/>
    <tag k="inscription" v="QUI ABITAVA / VITTORIO ZADOCK / BISSON / NATO 1891 / ARRESTATO 30.12.1943 / DEPORTATO 1944 / AUSCHWITZ / ASSASSINATO"/>
    <tag k="memorial" v="stolperstein"/>
    <tag k="name" v="Vittorio Zadock Bisson"/>
    <tag k="operator" v="Comunità ebraica di Trieste"/>
    <tag k="start_date" v="2020-01-21"/>
    <tag k="wikimedia_commons" v="File:Vittorio Zadock Bisson-5068-Peralta.jpg"/>
  </node>
  <node id="9425953016" lat="45.6547858" lon="13.7896858">
    <tag k="historic" v="memorial"/>
    <tag k="inscription" v="QUI ABITAVA / REBECCA ENRICHETTA / NACSON / NATA 1900 / ARRESTATA 2.6.1944 / DEPORTATA 1944 / AUSCHWITZ / LIBERATA"/>
    <tag k="memorial" v="stolperstein"/>
    <tag k="name" v="Rebecca Enrichetta Nacson"/>
    <tag k="operator" v="Comunità ebraica di Trieste"/>
    <tag k="start_date" v="2020-01-21"/>
    <tag k="wikimedia_commons" v="File:Rebecca Enrichetta Nacson-5071-Peralta.jpg"/>
  </node>
  <node id="9425954917" lat="45.6479242" lon="13.7803579">
    <tag k="historic" v="memorial"/>
    <tag k="inscription" v="QUI ABITAVA / ANNA ANITA SEMO / NATA 1930 / ARRESTATA 4.12.1943 / DEPORTATA 1943 / AUSCHWITZ / ASSASSINATA"/>
    <tag k="memorial" v="stolperstein"/>
    <tag k="name" v="Anna Anita Semo"/>
    <tag k="operator" v="Comunità ebraica di Trieste"/>
    <tag k="start_date" v="2020-01-21"/>
    <tag k="wikimedia_commons" v="File:Anna Anita Semo-5104-Peralta.jpg"/>
  </node>
  <node id="9425954918" lat="45.6479271" lon="13.7803428">
    <tag k="historic" v="memorial"/>
    <tag k="inscription" v="QUI ABITAVA / LEONE SEMO / NATO 1887 / ARRESTATO 4.12.1943 / DEPORTATO / AUSCHWITZ / ASSASSINATO 11.12.1943"/>
    <tag k="memorial" v="stolperstein"/>
    <tag k="name" v="Leone Semo"/>
    <tag k="operator" v="Comunità ebraica di Trieste"/>
    <tag k="start_date" v="2020-01-21"/>
    <tag k="wikimedia_commons" v="File:Leone Semo-5099-Peralta.jpg"/>
  </node>
  <node id="9425954919" lat="45.6479230" lon="13.7803494">
    <tag k="historic" v="memorial"/>
    <tag k="inscription" v="QUI ABITAVA / GIULIANA LILLY / SEMO / NATA 1923 / ARRESTATA 4.12.1943 / DEPORTATA 1943 / AUSCHWITZ / ASSASSINATA"/>
    <tag k="memorial" v="stolperstein"/>
    <tag k="name" v="Giuliana Lilly Semo"/>
    <tag k="operator" v="Comunità ebraica di Trieste"/>
    <tag k="start_date" v="2020-01-21"/>
    <tag k="wikimedia_commons" v="File:Giuliana Lilly Semo-5096-Peralta.jpg"/>
  </node>
  <node id="9425954920" lat="45.6479296" lon="13.7803598">
    <tag k="historic" v="memorial"/>
    <tag k="inscription" v="QUI ABITAVA / ALLEGRA / ACCO SEMO / NATA 1895 / ARRESTATA 4.12.1943 / DEPORTATA 1943 / AUSCHWITZ / ASSASSINATA"/>
    <tag k="memorial" v="stolperstein"/>
    <tag k="name" v="Allegra Acco Semo"/>
    <tag k="operator" v="Comunità ebraica di Trieste"/>
    <tag k="start_date" v="2020-01-21"/>
    <tag k="wikimedia_commons" v="File:Allegra Acco Semo-5106-Peralta.jpg"/>
  </node>
  <node id="9425954921" lat="45.6479285" lon="13.7803520">
    <tag k="historic" v="memorial"/>
    <tag k="inscription" v="QUI ABITAVA / ESTER SEMO / NATA 1927 / ARRESTATA 4.12.1943 / DEPORTATA 1943 / AUSCHWITZ / ASSASSINATA"/>
    <tag k="memorial" v="stolperstein"/>
    <tag k="name" v="Ester Semo"/>
    <tag k="operator" v="Comunità ebraica di Trieste"/>
    <tag k="start_date" v="2020-01-21"/>
    <tag k="wikimedia_commons" v="File:Ester Semo-5101-Peralta.jpg"/>
  </node>
  <node id="9425954922" lat="45.6506077" lon="13.7745936">
    <tag k="historic" v="memorial"/>
    <tag k="inscription" v="PAOLA ROSENTHAL / GOLDSCHMIED / NATA 1870 / ARRESTATA 6.11.1944 / DEPORTATA / DESTINO SCONOSCIUTO"/>
    <tag k="memorial" v="stolperstein"/>
    <tag k="name" v="Paola Rosenthal Goldschmied"/>
    <tag k="operator" v="Comunità ebraica di Trieste"/>
    <tag k="start_date" v="2020-01-21"/>
    <tag k="wikimedia_commons" v="File:Stolperstein für Paola Rosenthal Goldschmied (Trieste).jpg"/>
  </node>
  <node id="9425954923" lat="45.6506006" lon="13.7745845">
    <tag k="historic" v="memorial"/>
    <tag k="inscription" v="STEFY / GOLDSCHMIED ERBER / NATA 1886 / ARRESTATA 15.5.1944 / DEPORTATA / AUSCHWITZ / ASSASSINATA 31.12.1944"/>
    <tag k="memorial" v="stolperstein"/>
    <tag k="name" v="Stefy Goldschmied Erber"/>
    <tag k="operator" v="Comunità ebraica di Trieste"/>
    <tag k="start_date" v="2020-01-21"/>
    <tag k="wikimedia_commons" v="File:Stolperstein für Stefy Goldschmied Erber (Trieste).jpg"/>
  </node>
  <node id="9425954924" lat="45.6506087" lon="13.7745885">
    <tag k="historic" v="memorial"/>
    <tag k="inscription" v="QUI ABITAVA / ADA FRANKEL / GOLDSCHMIED / NATA 1889 / ARRESTATA 29.2.1944 / DEPORTATA / AUSCHWITZ / ASSASSINATA 10.4.1944"/>
    <tag k="memorial" v="stolperstein"/>
    <tag k="name" v="Ada Frankel Goldschmied"/>
    <tag k="operator" v="Comunità ebraica di Trieste"/>
    <tag k="start_date" v="2020-01-21"/>
    <tag k="wikimedia_commons" v="File:Stolperstein für Ada Frankel Goldschmied (Trieste).jpg"/>
  </node>
  <node id="9425954925" lat="45.6505993" lon="13.7745897">
    <tag k="historic" v="memorial"/>
    <tag k="inscription" v="SAMUELE / GOLDSCHMIED / NATO 1864 / ARRESTATO 6.10.1944 / DEPORTATO / AUSCHWITZ / ASSASSINATO 1944"/>
    <tag k="memorial" v="stolperstein"/>
    <tag k="name" v="Samuele Goldschmied"/>
    <tag k="operator" v="Comunità ebraica di Trieste"/>
    <tag k="start_date" v="2020-01-21"/>
    <tag k="wikimedia_commons" v="File:Stolperstein für Samuele Goldschmied (Trieste).jpg"/>
  </node>
  <node id="9425954926" lat="45.6506050" lon="13.7745868">
    <tag k="historic" v="memorial"/>
    <tag k="inscription" v="QUI ABITAVA / LIVIO / GOLDSCHMIED / NATO 1913 / ARRESTATO 29.2.1944 / DEPORTATO / AUSCHWITZ / ASSASSINATO 1944"/>
    <tag k="memorial" v="stolperstein"/>
    <tag k="name" v="Livio Goldschmied"/>
    <tag k="operator" v="Comunità ebraica di Trieste"/>
    <tag k="start_date" v="2020-01-21"/>
    <tag k="wikimedia_commons" v="File:Stolperstein für Livio Goldschmied (Trieste).jpg"/>
  </node>
  <node id="9425954927" lat="45.6586066" lon="13.7731772">
    <tag k="historic" v="memorial"/>
    <tag k="inscription" v="QUI ABITAVA / AMALIA / WEISS GOETZL / NATA 1887 / ARRESTATA 29.10.1943 / DEPORTATA 1943 / AUSCHWITZ / ASSASSINATA"/>
    <tag k="memorial" v="stolperstein"/>
    <tag k="name" v="Amalia Weiss Goetzl"/>
    <tag k="operator" v="Comunità ebraica di Trieste"/>
    <tag k="start_date" v="2020-01-21"/>
    <tag k="wikimedia_commons" v="File:Amalia Weiss Goetzl-5084-Peralta.jpg"/>
  </node>
  <node id="9425954928" lat="45.6586154" lon="13.7731726">
    <tag k="historic" v="memorial"/>
    <tag k="inscription" v="QUI ABITAVA / ALBERTO GOETZL / NATO 1877 / ARRESTATO 29.10.1943 / DEPORTATO / AUSCHWITZ / ASSASSINATO 11.12.1943"/>
    <tag k="memorial" v="stolperstein"/>
    <tag k="name" v="Alberto Goetzl"/>
    <tag k="operator" v="Comunità ebraica di Trieste"/>
    <tag k="start_date" v="2020-01-21"/>
    <tag k="wikimedia_commons" v="File:Alberto Goetzl-5083-Peralta.jpg"/>
  </node>
  <node id="9425954929" lat="45.6491798" lon="13.7859358">
    <tag k="historic" v="memorial"/>
    <tag k="inscription" v="QUI ABITAVA / ERNESTO ALPRON / NATO 1873 / ARRESTATO 20.2.1944 / DEPORTATO 1944 / AUSCHWITZ / ASSASSINATO"/>
    <tag k="memorial" v="stolperstein"/>
    <tag k="name" v="Ernesto Alpron"/>
    <tag k="operator" v="Comunità ebraica di Trieste"/>
    <tag k="start_date" v="2020-01-21"/>
    <tag k="wikimedia_commons" v="File:Ernesto Alpron-5108-Peralta.jpg"/>
  </node>
  <node id="9425954930" lat="45.6532042" lon="13.7848682">
    <tag k="historic" v="memorial"/>
    <tag k="inscription" v="QUI ABITAVA / CLEMENTINA / TOSI PAGANI / NATA 1884 / ARRESTATA 29.4.1944 / DETENUTA / CARCERE DEL CORONEO / RISIERA DI SAN SABBA / ASSASSINATA 26.9.1944"/>
    <tag k="memorial" v="stolperstein"/>
    <tag k="name" v="Clementina Tosi Pagani"/>
    <tag k="operator" v="Comunità ebraica di Trieste"/>
    <tag k="start_date" v="2020-01-21"/>
    <tag k="wikimedia_commons" v="File:Clementina Tosi Pagani-5078-Peralta.jpg"/>
  </node>
  <node id="9425954931" lat="45.6506038" lon="13.7745920">
    <tag k="historic" v="memorial"/>
    <tag k="inscription" v="GIUSEPPE / GOLDSCHMIED / NATO 1861 / ARRESTATO 6.10.1944 / DEPORTATO / AUSCHWITZ / ASSASSINATO 1944"/>
    <tag k="memorial" v="stolperstein"/>
    <tag k="name" v="Giuseppe Goldschmied"/>
    <tag k="operator" v="Comunità ebraica di Trieste"/>
    <tag k="start_date" v="2020-01-21"/>
    <tag k="wikimedia_commons" v="File:Stolperstein für Giuseppe Goldschmied (Trieste).jpg"/>
  </node>
  <node id="9425954932" lat="45.6484843" lon="13.7672469">
    <tag k="historic" v="memorial"/>
    <tag k="inscription" v="QUI ABITAVA / DIAMANTINA ISRAEL MISAN / NATA 1913 / ARRESTATA 26.11.1943 / DEPORTATA 1943 / AUSCHWITZ / ASSASSINATA"/>
    <tag k="memorial" v="stolperstein"/>
    <tag k="name" v="Diamantina Israel Misan"/>
    <tag k="operator" v="Comunità ebraica di Trieste"/>
    <tag k="start_date" v="2020-01-21"/>
    <tag k="wikimedia_commons" v="File:Stolperstein für Diamantina Israel Misan (Trieste).jpg"/>
  </node>
  <node id="9428517832" lat="45.6520339" lon="13.7746064">
    <tag k="historic" v="memorial"/>
    <tag k="inscription" v="QUI ABITAVA / DAVIDE CESANA / NATO 1916 / ARRESTATO 29.10.1943 / DEPORTATO 1943 / AUSCHWITZ / BUCHENWALD / MORTO 29.4.1945"/>
    <tag k="memorial" v="stolperstein"/>
    <tag k="name" v="Davide Cesana"/>
    <tag k="operator" v="Comunità ebraica di Trieste"/>
    <tag k="start_date" v="2021-01-28"/>
  </node>
  <node id="9428517833" lat="45.6520369" lon="13.7746135">
    <tag k="historic" v="memorial"/>
    <tag k="inscription" v="QUI ABITAVA / RACHELE CESANA / NATA 1919 / ARRESTATA 29.10.1943 / DEPORTATA / AUSCHWITZ / ASSASSINATA 11.12.1943"/>
    <tag k="memorial" v="stolperstein"/>
    <tag k="name" v="Rachele Cesana"/>
    <tag k="operator" v="Comunità ebraica di Trieste"/>
    <tag k="start_date" v="2021-01-28"/>
  </node>
  <node id="9428517834" lat="45.6520330" lon="13.7746113">
    <tag k="historic" v="memorial"/>
    <tag k="inscription" v="QUI ABITAVA / GIACOMO CESANA / NATO 1914 / ARRESTATO 11.8.1944 /DEPORTATO 1944 / AUSCHWITZ / MAUTHAUSEN-GUSEN / ASSASSINATO 3.2.1945"/>
    <tag k="memorial" v="stolperstein"/>
    <tag k="name" v="Giacomo Cesana"/>
    <tag k="operator" v="Comunità ebraica di Trieste"/>
    <tag k="start_date" v="2021-01-28"/>
  </node>
  <node id="9428517835" lat="45.6520380" lon="13.7746084">
    <tag k="historic" v="memorial"/>
    <tag k="inscription" v="QUI ABITAVA / LUCIA / ISRAEL CESANA / NATA 1889 / ARRESTATA 29.10.1943 / DEPORTATA / AUSCHWITZ / ASSASSINATA 11.12.1943"/>
    <tag k="memorial" v="stolperstein"/>
    <tag k="name" v="Lucia Israel Cesana"/>
    <tag k="operator" v="Comunità ebraica di Trieste"/>
    <tag k="start_date" v="2021-01-28"/>
  </node>
  <node id="9428525840" lat="45.6537602" lon="13.7731239">
    <tag k="historic" v="memorial"/>
    <tag k="inscription" v="QUI ABITAVA / ZOE RUSSI / NATA 1905 / ARRESTATA 12.11.1943 / DEPORTATA 1944 / AUSCHWITZ / ASSASSINATA"/>
    <tag k="memorial" v="stolperstein"/>
    <tag k="name" v="Zoe Russi"/>
    <tag k="operator" v="Comunità ebraica di Trieste"/>
    <tag k="start_date" v="2021-01-28"/>
  </node>
  <node id="9428525841" lat="45.6460951" lon="13.7747138">
    <tag k="historic" v="memorial"/>
    <tag k="inscription" v="QUI ABITAVA / VINCENZO GIGANTE / NATO 1901 / ARRESTATO 21.9.1944 / DETENUTO / CARCERE DEL CORONEO / RISIERA DI SAN SABBA / ASSASSINATO 22.11.1944"/>
    <tag k="memorial" v="stolperstein"/>
    <tag k="name" v="Vincenzo Gigante"/>
    <tag k="operator" v="Comunità ebraica di Trieste"/>
    <tag k="start_date" v="2021-01-28"/>
  </node>
  <node id="9428525842" lat="45.6536485" lon="13.7798419">
    <tag k="historic" v="memorial"/>
    <tag k="inscription" v="QUI ABITAVA / GIUSEPPINA / JESURUM / NATA 1869 / ARRESTATA 2.11.1943 / DEPORTATA 1944 / AUSCHWITZ / ASSASSINATA 12.1.1944"/>
    <tag k="memorial" v="stolperstein"/>
    <tag k="name" v="Giuseppina Jesurum"/>
    <tag k="operator" v="Comunità ebraica di Trieste"/>
    <tag k="start_date" v="2021-01-28"/>
  </node>
  <node id="9428525843" lat="45.6536457" lon="13.7798336">
    <tag k="historic" v="memorial"/>
    <tag k="inscription" v="QUI ABITAVA / ENRICO ALMAGIÀ / NATO 1878 / ARRESTATO 29.10.1943 / DEPORTATO / AUSCHWITZ / ASSASSINATO 11.12.1943"/>
    <tag k="memorial" v="stolperstein"/>
    <tag k="name" v="Enrico Almagià"/>
    <tag k="operator" v="Comunità ebraica di Trieste"/>
    <tag k="start_date" v="2021-01-28"/>
  </node>
  <node id="9428525844" lat="45.6507652" lon="13.7805022">
    <tag k="historic" v="memorial"/>
    <tag k="inscription" v="QUI ABITAVA / ISACCO GINO / ISRAEL / NATO 11.8.1942 / ARRESTATO 26.11.1943 / DEPORTATO 1943 / AUSCHWITZ / ASSASSINATO"/>
    <tag k="memorial" v="stolperstein"/>
    <tag k="name" v="Isacco Gino Israel"/>
    <tag k="operator" v="Comunità ebraica di Trieste"/>
    <tag k="start_date" v="2021-01-28"/>
  </node>
  <node id="9428525845" lat="45.6507521" lon="13.7805086">
    <tag k="historic" v="memorial"/>
    <tag k="inscription" v="QUI ABITAVA / ANNA ISRAEL ISRAEL / NATA 1915 / ARRESTATA 26.11.1943 / DEPORTATA 1943 / AUSCHWITZ / ASSASSINATA"/>
    <tag k="memorial" v="stolperstein"/>
    <tag k="name" v="Anna Israel Israel"/>
    <tag k="operator" v="Comunità ebraica di Trieste"/>
    <tag k="start_date" v="2021-01-28"/>
  </node>
  <node id="9428525846" lat="45.6466292" lon="13.7709380">
    <tag k="historic" v="memorial"/>
    <tag k="inscription" v="QUI ABITAVA / SAMUELE LEVI / NATO 1903 / ARRESTATO 20.6.1944 / DEPORTATO 1944 / AUSCHWITZ / DACHAU - KAUFERING / ASSASSINATO 19.3.1945"/>
    <tag k="memorial" v="stolperstein"/>
    <tag k="name" v="Samuele Levi"/>
    <tag k="operator" v="Comunità ebraica di Trieste"/>
    <tag k="start_date" v="2021-01-28"/>
  </node>
  <node id="9428525847" lat="45.6445182" lon="13.7988244">
    <tag k="historic" v="memorial"/>
    <tag k="inscription" v="QUI ABITAVA / ALBERTO LEVI / NATO 1876 / ARRESTATO 10.6.1944 / DEPORTATO / AUSCHWITZ / ASSASSINATO 25.6.1944"/>
    <tag k="memorial" v="stolperstein"/>
    <tag k="name" v="Alberto Levi"/>
    <tag k="operator" v="Comunità ebraica di Trieste"/>
    <tag k="start_date" v="2021-01-28"/>
  </node>
  <node id="9428525848" lat="45.6511393" lon="13.7931936">
    <tag k="historic" v="memorial"/>
    <tag k="inscription" v="QUI ABITAVA / MARIO LEVI / NATO 1885 / ARRESTATO 4.6.1944 / DEPORTATO / AUSCHWITZ / ASSASSINATO"/>
    <tag k="memorial" v="stolperstein"/>
    <tag k="name" v="Mario Levi"/>
    <tag k="operator" v="Comunità ebraica di Trieste"/>
    <tag k="start_date" v="2021-01-28"/>
  </node>
  <node id="9448447458" lat="45.6494892" lon="13.7709070">
    <tag k="historic" v="memorial"/>
    <tag k="inscription" v="QUI ERA IN SERVIZIO / FELICIANO / RICCIARDELLI / NATO 1898 / ARRESTATO 4.1.1944 / DEPORTATO 1944 / DACHAU / LIBERATO"/>
    <tag k="memorial" v="stolperstein"/>
    <tag k="name" v="Feliciano Ricciardelli"/>
    <tag k="operator" v="Questura di Trieste"/>
    <tag k="start_date" v="2022-01-25"/>
  </node>
  <node id="9448447459" lat="45.6494939" lon="13.7709029">
    <tag k="historic" v="memorial"/>
    <tag k="inscription" v="QUI FU PER SERVIZIO / GIOVANNI PALATUCCI / NATO 1909 / ARRESTATO / FIUME / DEPORTATO 1944 / DACHAU / ASSASSINATO 10.2.1945"/>
    <tag k="memorial" v="stolperstein"/>
    <tag k="name" v="Giovanni Palatucci"/>
    <tag k="operator" v="Questura di Trieste"/>
    <tag k="start_date" v="2022-01-25"/>
  </node>
  <node id="9452979195" lat="45.8997791" lon="13.6081657">
    <tag k="historic" v="memorial"/>
    <tag k="inscription" v="TUKAJ JE PREBIVAL / JOŽEF FERFOLJA / ROJ. 1901 / DEPORTIRAN 1944 / BUCHENWALD / UMORJEN 25.2.1945"/>
    <tag k="memorial" v="stolperstein"/>
    <tag k="name" v="Jožef Ferfolja"/>
    <tag k="operator" v="Občina Sovodnje - VZPI-AMPI za Gabrje, Rupo, Peč in Sovodnje"/>
    <tag k="start_date" v="2022-01-26"/>
  </node>
  <node id="9452983536" lat="45.9102681" lon="13.5815951">
    <tag k="historic" v="memorial"/>
    <tag k="inscription" v="TUKAJ JE PREBIVAL / PETER URŠIČ / ROJ. 1904 / DEPORTIRAN / BUCHENWALD / UMORJEN 7.2.1945"/>
    <tag k="memorial" v="stolperstein"/>
    <tag k="name" v="Peter Uršič"/>
    <tag k="operator" v="Občina Sovodnje - VZPI-AMPI za Gabrje, Rupo, Peč in Sovodnje"/>
    <tag k="start_date" v="2022-01-26"/>
  </node>
  <node id="9453642571" lat="45.6168011" lon="9.4181502">
    <tag k="historic" v="memorial"/>
    <tag k="inscription" v="Qui abitava ALESSANDRO FUMAGALLI nato 1901 arrestato 18.3.1944 deportato Mauthausen assassinato 30.4.1945 Gusen"/>
    <tag k="memorial" v="stolperstein"/>
    <tag k="name" v="Alessandro Fumagalli"/>
    <tag k="person:date_of_birth" v="1901"/>
    <tag k="person:date_of_death" v="30/04/1945"/>
  </node>
  <node id="9455229974" lat="45.8601951" lon="13.5488009">
    <tag k="historic" v="memorial"/>
    <tag k="inscription" v="TUKAJ JE PREBIVAL / STANKO DEVETAK / ROJ. 1927 / PREGNAN 30.9.1943 / NEMČIJA / USODA NEZNANA"/>
    <tag k="memorial" v="stolperstein"/>
    <tag k="name" v="Stanko Devetak"/>
    <tag k="operator" v="Slovensko katoliško društvo Hrast"/>
    <tag k="start_date" v="2022-01-27"/>
  </node>
  <node id="9455247206" lat="45.8412259" lon="13.5353126">
    <tag k="historic" v="memorial"/>
    <tag k="inscription" v="TUKAJ JE PREBIVAL / ANDREJ MOKOLE / ROJ. 1915 / PREGNAN / FLOSSENBÜRG / UMORJEN 25.2.1945"/>
    <tag k="memorial" v="stolperstein"/>
    <tag k="name" v="Andrej Mokole"/>
    <tag k="operator" v="Slovensko katoliško društvo Hrast"/>
    <tag k="start_date" v="2022-01-27"/>
  </node>
  <node id="9455247207" lat="45.8452451" lon="13.5402101">
    <tag k="historic" v="memorial"/>
    <tag k="inscription" v="TUKAJ JE PREBIVAL / OTON JARC / ROJ. 1928 / PREGNAN / LEONBERG / UMORJEN 27.2.1945"/>
    <tag k="memorial" v="stolperstein"/>
    <tag k="name" v="Oton Jarc"/>
    <tag k="operator" v="Slovensko katoliško društvo Hrast"/>
    <tag k="start_date" v="2022-01-27"/>
  </node>
  <node id="9455247212" lat="45.8464386" lon="13.5391421">
    <tag k="historic" v="memorial"/>
    <tag k="inscription" v="TUKAJ JE PREBIVAL / MARIO LAVRENČIČ / ROJ. 1903 / PREGNAN / BUCHENWALD / UMORJEN 4.4.1945"/>
    <tag k="memorial" v="stolperstein"/>
    <tag k="name" v="Mario Lavrenčič"/>
    <tag k="operator" v="Slovensko katoliško društvo Hrast"/>
    <tag k="start_date" v="2022-01-27"/>
  </node>
  <node id="9455721278" lat="44.4103679" lon="7.5528187">
    <tag k="historic" v="memorial"/>
    <tag k="memorial" v="stolperstein"/>
    <tag k="name" v="Alessandro Schiffer"/>
    <tag k="wikimedia_commons" v="File:Stolpersteine Alessandro Schiffer, via Madonna della Riva, Madonna dell'Olmo, Cuneo.jpg"/>
  </node>
  <node id="9462517536" lat="45.8560798" lon="13.5681939">
    <tag k="historic" v="memorial"/>
    <tag k="inscription" v="TUKAJ JE PREBIVAL / BRUNO ŠULIGOJ / ROJEN 1923 / PREGNAN 22.2.1944 / RIŽARNA / USODA NEZNANA"/>
    <tag k="memorial" v="stolperstein"/>
    <tag k="name" v="Bruno Šuligoj"/>
    <tag k="operator" v="Slovensko katoliško društvo Hrast"/>
    <tag k="start_date" v="2021-01-27"/>
  </node>
  <node id="9462517537" lat="45.8377790" lon="13.5672364">
    <tag k="historic" v="memorial"/>
    <tag k="inscription" v="TUKAJ JE PREBIVAL / MARIO PAHOR / ROJEN 1925 / PREGNAN 22.2.1944 / RIŽARNA / USODA NEZNANA"/>
    <tag k="memorial" v="stolperstein"/>
    <tag k="name" v="Mario Pahor"/>
    <tag k="operator" v="Slovensko katoliško društvo Hrast"/>
    <tag k="start_date" v="2021-01-27"/>
  </node>
  <node id="9462517541" lat="45.8429221" lon="13.5388252">
    <tag k="historic" v="memorial"/>
    <tag k="inscription" v="TUKAJ JE PREBIVAL / ALOJZ LAVRENČIČ / ROJEN 1914 / PREGNAN / BAUMHOLDER / UMORJEN 28.2.1945"/>
    <tag k="memorial" v="stolperstein"/>
    <tag k="name" v="Alojz Lavrenčič"/>
    <tag k="operator" v="Slovensko katoliško društvo Hrast"/>
    <tag k="start_date" v="2021-01-27"/>
  </node>
  <node id="9462990240" lat="42.3281877" lon="13.3584953">
    <tag k="historic" v="memorial"/>
    <tag k="memorial" v="stolperstein"/>
    <tag k="name" v="Luigi Santomarrone"/>
  </node>
  <node id="9462990241" lat="42.3282023" lon="13.3584906">
    <tag k="historic" v="memorial"/>
    <tag k="memorial" v="stolperstein"/>
    <tag k="name" v="Annina Santomarrone"/>
  </node>
  <node id="9472624795" lat="43.5487717" lon="10.3059283">
    <tag k="addr:housenumber" v="32"/>
    <tag k="addr:street" v="Via San Francesco"/>
    <tag k="artist_name" v="Gunter Demnig"/>
    <tag k="historic" v="memorial"/>
    <tag k="inscription" v="Qui abitava Benito Attal nato 1934 arrestato 1.4.1944 deportato Auschwitz assassinato 23.5.1944"/>
    <tag k="memorial" v="stolperstein"/>
    <tag k="name" v="Benito Attal"/>
    <tag k="person:date_of_birth" v="1934"/>
    <tag k="person:date_of_death" v="1944-05-23"/>
    <tag k="start_date" v="2022-01-26"/>
    <tag k="wikimedia_commons" v="File:Pietra d’inciampo di Benito Attal.jpg"/>
  </node>
  <node id="9472624796" lat="43.5487825" lon="10.3059199">
    <tag k="addr:housenumber" v="32"/>
    <tag k="addr:street" v="Via San Francesco"/>
    <tag k="artist_name" v="Gunter Demnig"/>
    <tag k="historic" v="memorial"/>
    <tag k="inscription" v="Qui abitava Ada Attal nata 1896 arrestata 1.4.1944 deportata Auschwitz assassinata"/>
    <tag k="memorial" v="stolperstein"/>
    <tag k="name" v="Ada Attal"/>
    <tag k="person:date_of_birth" v="1896"/>
    <tag k="start_date" v="2022-01-26"/>
    <tag k="wikimedia_commons" v="File:Pietra d’inciampo di Ada Attal.jpg"/>
  </node>
  <node id="9631521134" lat="43.8266231" lon="10.6428773">
    <tag k="historic" v="memorial"/>
    <tag k="inscription" v="+ Cor Vanlaer | 4 juni 2015 | Antwerpen België | 74 jaar"/>
    <tag k="memorial" v="stolperstein"/>
    <tag k="name" v="Cor Vanlaer"/>
  </node>
  <node id="9758791771" lat="44.6929278" lon="10.6382186">
    <tag k="historic" v="memorial"/>
    <tag k="material" v="metal"/>
    <tag k="memorial" v="stolperstein"/>
    <tag k="name" v="Mario Sguazzini"/>
  </node>
  <node id="9810711059" lat="45.5215287" lon="9.5927930">
    <tag k="historic" v="memorial"/>
    <tag k="inscription" v="A Treviglio viveva&#x0a;Rachele Rea&#x0a;Mänas Stern&#x0a;Nata 1989&#x0a;Arrestata dic. 1943&#x0a;Internata Fossoli&#x0a;Deportata 1944&#x0a;Auschwitz&#x0a;Assassinata"/>
    <tag k="material" v="metal"/>
    <tag k="memorial" v="stolperstein"/>
    <tag k="wikimedia_commons" v="File:Treviglio - Pietra d'inciampo.jpg"/>
  </node>
  <node id="9906017289" lat="44.8010685" lon="10.3281970">
    <tag k="historic" v="memorial"/>
    <tag k="material" v="brass"/>
    <tag k="memorial" v="stolperstein"/>
    <tag k="name" v="Giorgio Nullo Foà"/>
  </node>
  <node id="9906017290" lat="44.7951765" lon="10.3300280">
    <tag k="historic" v="memorial"/>
    <tag k="material" v="brass"/>
    <tag k="memorial" v="stolperstein"/>
  </node>
  <node id="9906017291" lat="44.7945042" lon="10.3323858">
    <tag k="historic" v="memorial"/>
    <tag k="material" v="brass"/>
    <tag k="memorial" v="stolperstein"/>
  </node>
  <node id="9906017292" lat="44.7941744" lon="10.3369633">
    <tag k="historic" v="memorial"/>
    <tag k="material" v="brass"/>
    <tag k="memorial" v="stolperstein"/>
  </node>
  <node id="9906017293" lat="44.7956605" lon="10.3366454">
    <tag k="historic" v="memorial"/>
    <tag k="material" v="brass"/>
    <tag k="memorial" v="stolperstein"/>
  </node>
  <node id="9906017294" lat="44.8010609" lon="10.3363840">
    <tag k="historic" v="memorial"/>
    <tag k="material" v="brass"/>
    <tag k="memorial" v="stolperstein"/>
  </node>
  <node id="9906017295" lat="44.7978896" lon="10.3222116">
    <tag k="historic" v="memorial"/>
    <tag k="material" v="brass"/>
    <tag k="memorial" v="stolperstein"/>
  </node>
  <node id="9906017296" lat="44.7968330" lon="10.3183843">
    <tag k="historic" v="memorial"/>
    <tag k="material" v="brass"/>
    <tag k="memorial" v="stolperstein"/>
  </node>
  <node id="9906017297" lat="44.8005138" lon="10.3206323">
    <tag k="historic" v="memorial"/>
    <tag k="material" v="brass"/>
    <tag k="memorial" v="stolperstein"/>
  </node>
  <node id="9906017298" lat="44.8013323" lon="10.3149914">
    <tag k="historic" v="memorial"/>
    <tag k="material" v="brass"/>
    <tag k="memorial" v="stolperstein"/>
  </node>
  <node id="9994719897" lat="43.7742333" lon="11.2576294">
    <tag k="historic" v="memorial"/>
    <tag k="image" v="https://de.wikipedia.org/w/index.php?title=Liste_der_Stolpersteine_in_der_Metropolitanstadt_Florenz#/media/Datei:Stolperstein_f%C3%BCr_Nathan_Cassuto_(Florenz).jpg"/>
    <tag k="inscription" v="QUI E'STATO ARRESTATO 26.11.1943 NATHAN CASSUTO RABBINO CAPO DI FIRENZE NATO 1909 DEPORTATO AUSCHWITZ-JAWORZNO MARCIA DELLA MORTE ASSASSINATO GEN. 1945"/>
    <tag k="memorial" v="stolperstein"/>
    <tag k="name" v="NATHAN CASSUTO"/>
  </node>
  <node id="9994719898" lat="43.7722000" lon="11.2558077">
    <tag k="historic" v="memorial"/>
    <tag k="image" v="https://de.wikipedia.org/wiki/Liste_der_Stolpersteine_in_der_Metropolitanstadt_Florenz#/media/Datei:Stolperstein_f%C3%BCr_Diodato_Gastone_Sadun_(Florenz).jpg"/>
    <tag k="inscription" v="QUI FU ARRESTATO 15.12.1943 DIODATO GASTONE SADUN NATO 1902 DEPORTATO AUSCHWITZ ASSASSINATO 31.10.1944"/>
    <tag k="memorial" v="stolperstein"/>
    <tag k="name" v="DIODATO GASTONE SADUN"/>
  </node>
  <node id="10009236876" lat="45.4346560" lon="12.3259432">
    <tag k="historic" v="memorial"/>
    <tag k="memorial" v="stolperstein"/>
    <tag k="name" v="Olga Blumenthal"/>
  </node>
  <node id="10035816993" lat="41.9120079" lon="12.5031022">
    <tag k="historic" v="memorial"/>
    <tag k="image" v="https://commons.wikimedia.org/wiki/File:Stolperstein_f%C3%BCr_Umberto_Spizzichino_(Rom).jpg"/>
    <tag k="inscription" v="Qui abitava&#x0a;Umberto Spizzichino&#x0a;Nato 1918&#x0a;Arrestato 24.1.1944&#x0a;Deportato&#x0a;Auschwitz&#x0a;Assassinato 28.8.1944"/>
    <tag k="material" v="bronze"/>
    <tag k="memorial" v="stolperstein"/>
    <tag k="name" v="Umberto Spizzichino"/>
    <tag k="person:date_of_birth" v="1918"/>
    <tag k="person:date_of_death" v="1944-08-28"/>
  </node>
  <node id="10108910746" lat="43.7177550" lon="10.4043084">
    <tag k="historic" v="memorial"/>
    <tag k="inscription" v="Valentina della Seta&#x0a;Elda di Nola&#x0a;Mario Roccas&#x0a;Renzo Roccas"/>
    <tag k="memorial" v="stolperstein"/>
  </node>
  <node id="10136307260" lat="41.9309307" lon="12.4679839">
    <tag k="historic" v="memorial"/>
    <tag k="inscription" v="Edoardo Picchetti"/>
    <tag k="material" v="metal"/>
    <tag k="memorial" v="stolperstein"/>
    <tag k="name" v="Edoardo Picchetti"/>
  </node>
  <node id="10136307263" lat="41.9309179" lon="12.4679891">
    <tag k="historic" v="memorial"/>
    <tag k="inscription" v="Adele Elvira Sacerdoti"/>
    <tag k="material" v="metal"/>
    <tag k="memorial" v="stolperstein"/>
    <tag k="name" v="Adele Elvira Sacerdoti"/>
  </node>
  <node id="10136352833" lat="41.9222328" lon="12.4715039">
    <tag k="historic" v="memorial"/>
    <tag k="inscription" v="Anita Di Capua Valabreda"/>
    <tag k="material" v="metal"/>
    <tag k="memorial" v="stolperstein"/>
    <tag k="name" v="Anita Di Capua Valabreda"/>
  </node>
  <node id="10136352834" lat="41.9222191" lon="12.4715094">
    <tag k="historic" v="memorial"/>
    <tag k="inscription" v="Leone Italo Valabrega"/>
    <tag k="material" v="metal"/>
    <tag k="memorial" v="stolperstein"/>
    <tag k="name" v="Leone Italo Valabrega"/>
  </node>
  <node id="10136407150" lat="41.9127935" lon="12.4753857">
    <tag k="historic" v="memorial"/>
    <tag k="inscription" v="Giorgio Levi"/>
    <tag k="material" v="metal"/>
    <tag k="memorial" v="stolperstein"/>
    <tag k="name" v="Giorgio Levi"/>
  </node>
  <node id="10136407153" lat="41.9127823" lon="12.4753930">
    <tag k="historic" v="memorial"/>
    <tag k="inscription" v="Alba Sofia Ravenna Levi"/>
    <tag k="material" v="metal"/>
    <tag k="memorial" v="stolperstein"/>
    <tag k="name" v="Alba Sofia Ravenna Levi"/>
  </node>
  <node id="10136407154" lat="41.9127999" lon="12.4753949">
    <tag k="historic" v="memorial"/>
    <tag k="inscription" v="Giovanni Della Seta"/>
    <tag k="material" v="metal"/>
    <tag k="memorial" v="stolperstein"/>
    <tag k="name" v="Giovanni Della Seta"/>
  </node>
  <node id="10136407157" lat="41.9128023" lon="12.4753810">
    <tag k="historic" v="memorial"/>
    <tag k="inscription" v="Mario Levi"/>
    <tag k="material" v="metal"/>
    <tag k="memorial" v="stolperstein"/>
    <tag k="name" v="Mario Levi"/>
  </node>
  <node id="10136407158" lat="41.9127929" lon="12.4753994">
    <tag k="historic" v="memorial"/>
    <tag k="inscription" v="Eva Della Seta"/>
    <tag k="material" v="metal"/>
    <tag k="memorial" v="stolperstein"/>
    <tag k="name" v="Eva Della Seta"/>
  </node>
  <node id="10295938898" lat="46.0642853" lon="13.2395733">
    <tag k="historic" v="memorial"/>
    <tag k="memorial" v="stolperstein"/>
  </node>
  <node id="10313301194" lat="41.8826225" lon="12.4684103">
    <tag k="artist:wikidata" v="Q195796"/>
    <tag k="artist_name" v="Gunter Demnig"/>
    <tag k="historic" v="memorial"/>
    <tag k="inscription" v="Qui Abitava / Salvatore Fiorentino / Nato 1902 / Arrestato 16.11.1943 / Deportato / Auschwitz / Assassinato"/>
    <tag k="memorial" v="stolperstein"/>
    <tag k="memorial:addr" v="Viale di Trastevere 114"/>
    <tag k="name" v="Salvatore Fiorentino"/>
    <tag k="person:date_of_birth" v="1902-00-00"/>
  </node>
  <node id="10313301195" lat="41.8826278" lon="12.4684148">
    <tag k="artist:wikidata" v="Q195796"/>
    <tag k="artist_name" v="Gunter Demnig"/>
    <tag k="historic" v="memorial"/>
    <tag k="inscription" v="Qui Abitava / Colomba di Segni / Nata 1902 / Arrestata 16.10.1943 / Deportata / Auschwitz / Assassinata"/>
    <tag k="memorial" v="stolperstein"/>
    <tag k="memorial:addr" v="Viale di Trastevere 114"/>
    <tag k="name" v="Colomba di Segni"/>
    <tag k="person:date_of_birth" v="1902-00-00"/>
  </node>
  <node id="10313301196" lat="41.8826171" lon="12.4684123">
    <tag k="artist:wikidata" v="Q195796"/>
    <tag k="artist_name" v="Gunter Demnig"/>
    <tag k="historic" v="memorial"/>
    <tag k="inscription" v="Qui Abitava / Leone Fiorentino / Nato 1924 / Arrestato 16.10.1943 / Deportato / Auschwitz / Assassinato"/>
    <tag k="memorial" v="stolperstein"/>
    <tag k="memorial:addr" v="Viale di Trastevere 114"/>
    <tag k="name" v="Leone Fiorentino"/>
    <tag k="person:date_of_birth" v="1924-00-00"/>
  </node>
  <node id="10313301197" lat="41.8826231" lon="12.4684169">
    <tag k="artist:wikidata" v="Q195796"/>
    <tag k="artist_name" v="Gunter Demnig"/>
    <tag k="historic" v="memorial"/>
    <tag k="inscription" v="Qui Abitava / Fortunata Fiorentino / Nata 1926 / Arrestata 16.10.1943 / Deportata / Auschwitz / Assassinata"/>
    <tag k="memorial" v="stolperstein"/>
    <tag k="memorial:addr" v="Viale di Trastevere 114"/>
    <tag k="name" v="Fortunata Fiorentino"/>
    <tag k="person:date_of_birth" v="1926-00-00"/>
  </node>
  <node id="10313301198" lat="41.8826288" lon="12.4684218">
    <tag k="artist:wikidata" v="Q195796"/>
    <tag k="artist_name" v="Gunter Demnig"/>
    <tag k="historic" v="memorial"/>
    <tag k="inscription" v="Qui Abitava / Lello Fiorentino / Nata 1929 / Arrestato 16.10.1943 / Deportato / Auschwitz / Assassinato"/>
    <tag k="memorial" v="stolperstein"/>
    <tag k="memorial:addr" v="Viale di Trastevere 114"/>
    <tag k="name" v="Lello Fiorentino"/>
    <tag k="person:date_of_birth" v="1929-00-00"/>
  </node>
  <node id="10584372369" lat="41.8815685" lon="12.4753463">
    <tag k="historic" v="memorial"/>
    <tag k="memorial" v="stolperstein"/>
  </node>
  <node id="10589973004" lat="43.5502603" lon="10.3113992">
    <tag k="addr:street" v="Via Enrico Bartelloni"/>
    <tag k="artist_name" v="Gunter Demnig"/>
    <tag k="historic" v="memorial"/>
    <tag k="inscription" v="Qui abitava Mario Cozzolini nato 1924 deportato 19.2.1944 Dachau liberato"/>
    <tag k="memorial" v="stolperstein"/>
    <tag k="memorial:wikidata" v="Q314003"/>
    <tag k="memorial:wikipedia" v="it:Pietre d'inciampo"/>
    <tag k="name" v="Mario Cozzolini"/>
    <tag k="person:date_of_birth" v="1924"/>
  </node>
  <node id="10600710549" lat="44.3403834" lon="8.5424686">
    <tag k="historic" v="memorial"/>
    <tag k="inscription" v="Qui abitava Angelo Arecco nato nel 1900 arrestato l'1.3.1944 deportato a Gusen assassinato il 23.4.1945"/>
    <tag k="material" v="metal"/>
    <tag k="memorial" v="stolperstein"/>
    <tag k="name" v="Angelo Arecco"/>
    <tag k="start_date" v="2023"/>
  </node>
  <node id="10601911846" lat="45.3257993" lon="8.4255314">
    <tag k="historic" v="memorial"/>
    <tag k="inscription" v="QUI ABITAVA|FELICE JONA|NATO 1878|ARRESTATO 11.5.1944|DEPORTATO|AUSCHWITZ|ASSASSINATO 30.6.1944"/>
    <tag k="memorial" v="stolperstein"/>
    <tag k="name" v="Felice Jona"/>
    <tag k="start_date" v="2023-01-27"/>
    <tag k="subject:wikidata" v="Q116652179"/>
    <tag k="wikimedia_commons" v="File:Inciampo famiglia Jona.jpg"/>
  </node>
  <node id="10601911847" lat="45.3258027" lon="8.4255299">
    <tag k="historic" v="memorial"/>
    <tag k="inscription" v="QUI ABITAVA|ENRICHETTA JONA|NATA 1919|ARRESTATA 11.5.1944|DEPORTATA|AUSCHWITZ|MORTA 9.5.1945|TEREZIN"/>
    <tag k="memorial" v="stolperstein"/>
    <tag k="name" v="Enrichetta Jona"/>
    <tag k="start_date" v="2023-01-27"/>
    <tag k="subject:wikidata" v="Q116651474"/>
    <tag k="wikimedia_commons" v="File:Inciampo famiglia Jona.jpg"/>
  </node>
  <node id="10601911848" lat="45.3258059" lon="8.4255285">
    <tag k="historic" v="memorial"/>
    <tag k="inscription" v="QUI ABITAVA|REGINA|JONA SEGRE|NATA 1889|ARRESTATA 11.5.1944|DEPORTATA|AUSCHWITZ|ASSASSINATA"/>
    <tag k="memorial" v="stolperstein"/>
    <tag k="name" v="Regina Jona Segre"/>
    <tag k="start_date" v="2023-01-27"/>
    <tag k="subject:wikidata" v="Q116645777"/>
    <tag k="wikimedia_commons" v="File:Inciampo famiglia Jona.jpg"/>
  </node>
  <node id="10604401121" lat="45.3272756" lon="8.4209414">
    <tag k="historic" v="memorial"/>
    <tag k="inscription" v="QUI ABITAVA|GIUSEPPE EMANUELE|LEBLIS|NATO 1873|ARRESTATO 20.12.1943|DEPORTATO|AUSCHWITZ|ASSASSINATO 6.2.1944"/>
    <tag k="memorial" v="stolperstein"/>
    <tag k="name" v="Giuseppe Emanuele Leblis"/>
    <tag k="start_date" v="2023-01-27"/>
    <tag k="subject:wikidata" v="Q113250495"/>
    <tag k="wikimedia_commons" v="File:Inciampo Leblis.jpg"/>
  </node>
  <node id="10704344835" lat="45.8639663" lon="13.4821305">
    <tag k="historic" v="memorial"/>
    <tag k="inscription" v="QUI ABITAVA/ AUGUSTO FONTANIN/ NATO 1892/ ARRESTATO 1944/ MONFALCONE/ DEPORTATO/ MAUTHAUSEN/ ASSASSINATO 21.4.1945/ GUSEN"/>
    <tag k="memorial" v="stolperstein"/>
    <tag k="name" v="Augusto Fontanin"/>
  </node>
  <node id="10704374955" lat="45.8639676" lon="13.4821745">
    <tag k="historic" v="memorial"/>
    <tag k="inscription" v="QUI ABITAVA/ FIORENZO VISINTIN/ NATO 1907/ ARRESTATO 1944/ DEPORTATO/ MITTELBAU-DORA/ ASSASSINATO 30.4.1945/ ILFELD"/>
    <tag k="memorial" v="stolperstein"/>
    <tag k="name" v="Fiorenzo Visintin"/>
  </node>
  <node id="10704377212" lat="45.9642262" lon="13.4692363">
    <tag k="historic" v="memorial"/>
    <tag k="inscription" v="QUI ABITAVA/ GIUSEPPE/ PINCHERLE/ NATO 1879/ ARRESTATO 1944/ DEPORTATO/ AUSCHWITZ/ ASSASINATO 1944"/>
    <tag k="memorial" v="stolperstein"/>
    <tag k="name" v="Giuseppe Pincherle"/>
  </node>
  <node id="10704389801" lat="45.9490203" lon="13.6259534">
    <tag k="historic" v="memorial"/>
    <tag k="inscription" v="QUI ABITAVA/ BIANCA ALPHANDERY/ ARMANI/ NATA 1885/ ARRESTATA 23.11.1943/ DEPORTATA 1943/ AUSCHWITZ/ ASSASSINATA"/>
    <tag k="memorial" v="stolperstein"/>
    <tag k="name" v="Bianca Alphandery Armani"/>
  </node>
  <node id="10704395439" lat="45.8471538" lon="13.4881715">
    <tag k="historic" v="memorial"/>
    <tag k="inscription" v="QUI ABITAVA/ SERGIO MARCUZZI/ NATO 1927/ ARRESTATO DIC. 1944/ DEPORTATO/ DACHAU/ ASSASSINATO 15.3.1945"/>
    <tag k="memorial" v="stolperstein"/>
    <tag k="name" v="Sergio Marcuzzi"/>
  </node>
  <node id="10704413251" lat="45.8471657" lon="13.4882081">
    <tag k="historic" v="memorial"/>
    <tag k="inscription" v="QUI ABITAVA/ ARDUINO TREVISAN/ NATO 1910/ ARRESTATO DIC. 1944/ DEPORTATO/ NATZWEILER/ ASSASSINATO 30.3.1945"/>
    <tag k="memorial" v="stolperstein"/>
    <tag k="name" v="Arduino Trevisan"/>
  </node>
  <node id="10704452221" lat="45.9490336" lon="13.6259151">
    <tag k="historic" v="memorial"/>
    <tag k="inscription" v="QUI ABITAVA/ ADOLFO ARMANI/ NATO 1881/ ARRESTATO18.9.1943/ DEPORTATO 1943/ AUSCHWITZ/ ASSASSINATO11.12.1943"/>
    <tag k="memorial" v="stolperstein"/>
    <tag k="name" v="Adolfo Armani"/>
  </node>

</osm>
